Name,Address,MOB.No,Alternate Mob,City,email,pincode,State,Branch type
HHI MARKETING PVT LTD,"B-31,129/247, ST. NO. 7, GURU ARJAN DEV NAGAR, NEAR SAMRALA CHOWK, LUDHIANA-141008 GST NO.: 03AADCH7949H1ZG FSSAI NO.:12117441000336",7508808200,,LUDHIANA,,141008,PUNJAB,WAREHOUSE
ASHWATH D P,"ASHWATH D P C/O AT - # 282/4 1st MAIN BYATARAYNAPURA , OPP : BAPUJINAGAR BUS STOP , MYSORE ROAD , BANGALORE , KARNATAKA",7760606444,,BANGALORE,,560026,KARNATAKA,DISTRICT
USHA HHI HERBAL CENTER,ABHISHEK TATIYA S/O PRADEEP TATIYA SADAR BAZARBHATAPARA DISTT.BALODABAZAR CHHATISGARH,9926941110,,BALODABAZAR,,493118,CHATTISGARH,DISTRICT
ANKUR UNLIMITED STORE,MANOJ KUMAR S/O BHAGWATI PRASAD RANIPURWA JANKI NAGAR GONDA ======= GST NO -----(09BSFPK7904R1ZY ),9415666925,,GONDA,,271003,UTTAR PRADESH,DISTRICT
BLOCK AKHILESH ENTERPRISES,RAM KISHORE GUPTA S/O SHYAM LAL GUPTA RAILWAY CROSSING CIVIL LINES BUDAUN =====GST NO. 09AJCPG9147M1ZR,7599461482,,BADAUN,,243601,UTTAR PRADESH,DISTRICT
M/S VASHU TELE COMMUNICATION,"MANOJ JAIN S/O ,INDERSAIN JAIN, H NO 59, UTTAR BAZAR, DEVI GANJ,AMINAGAR SARAI--- GST NO ----09AETPJ3934P1ZL",8958479535,,MEERUT,,250606,UTTAR PRADESH,DISTRICT
SHRI LAXMI ENTERPRISES,"KUMAR GAURAV C/O GROUND FLOOR, Shop No- G-1/1, SAI PLAZA, SARDHANA ROAD, Kanker khera, Meerut, Uttar Pradesh GST NO ==== 09DSJPK9819R1ZI",9319258333,,MEERUT,,250001,UTTAR PRADESH,DISTRICT
BIHAR AYURVED ENTERPRISES,"SYED MANSOOR ALAM , SHER GHATI GAYA",8271535895,,GAYA,,824211,BIHAR,DISTRICT
KUNAL HHI FRANCHISE (SF),"KANHAIYA LAL C/O AT - PROFACER COLONY WARD NO. 6, MADHEPURA DISTT. MADHEPURA",7903023180,,MADHEPURA,,852113,BIHAR,DISTRICT
RISHI HEALTH POINT,RISHI PAL SINGH S/O KANAK SINGH MEERUT,8077074792,,MEERUT,,250001,UTTAR PRADESH,DISTRICT
MIRANI ENTERPRISES,"SAFDAR MIRANI C/O NOOR COMPOUND, P.S. CIVIL LINE, GAYA",9472567303,,GAYA,,824211,BIHAR,DISTRICT
S/F SHANTI ENTERPRISES,"SHOBHA DEVI C/O AZAD NAGAR, BALUATAL, MOTIHARI==GST NO===10BZSPD5840F1ZL",9801673314,,MOTIHARI,,845401,BIHAR,WAREHOUSE
SHRI ARIHANT TRADERS,"SONAM JAIN S/O NEAR HOTEL ORANGE LILY, VIJAY NAGAR INDOR === GST NO === 23AXLPJ1917D1ZU",7000089807,,INDORE,,473001,MADHYA PRADESH,WAREHOUSE
GITA HERBAL CENTER,"PURSHOTAM DAS C/O VILL.+PO- JORGAMA, VIA- MURLIGANJ, DISTT. MADHEPURA==GST NO==10CDXPD5575R1ZR",7545840339,,MADHEPURA,,852122,BIHAR,DISTRICT
SONY GROUP OF CREATION(CF),RAMESH KUMAR SONI C/O VIMAL GUPTA EWS-196 BHARHUT NAGAR NEAR ANUPAMA SCHOOL BEHIND CHRIST JYOTI SCHOOL SATNA MP,7987229853,,SATNA,,485001,MADHYA PRADESH,DISTRICT
RABI ENTERPRISES,"GOVINDA GHOSH C/O ENGLISH BAZAR, JALKAL BUILDING MALDA",7407969126,,MALDA,,732121,WEST BENGAL,DISTRICT
BALWINDER KAUR,"BALWINDER KAUR W/O OMKAR SINGH, B-12 ,HOUSE NO 50 PREMGARH HOSHIARPUR",6280106967,,HOSHIARPUR,,146001,PUNJAB,DISTRICT
ANSH HERBAL POINT,"TEJENDRA SINGH C/O SALMABAD, DISTT. BIJNOR",9639005100,,BIJNORE-I,,246701,UTTAR PRADESH,DISTRICT
SHALU SF,SHALU C/O CITY HEART MOBILE SHOP OPP GOYAL HOSPITAL NEAR OLD BUS STAND SBI ROAD KAITHAL===GST NO===06BQZPS1328F1ZF,8950565292,,KAITHAL,,136027,HARYANA,DISTRICT
SANJIVANI DISTRIBUTORS SF,"KIRAN BHARTI C/O LATE BALASAHEB THAKARE NAGAR JINTUR ROAD, PARBHANI===GST NO=== 27AAYAS9853J1ZA",9823071444,,HINGOLI,,431401,MAHARASHTRA,DISTRICT
JASPREET ENTERPRISES C/F,JASPREET KAUR W/O KULDEEP SINGH RAILWAY ROAD ADDA MEHATPUR NEAR HEY DAY NAKODAR DISSTT JALANDHAR,7837021980,,NAKODAR,,783575,PUNJAB,DISTRICT
S/F DOLOI HHI CENTER,"RIDEEP DOLOI C/O MILAN NAGAR (VIP AIRPOT), LANDMARK - NEAR ECOM TOWER/OPP. ST CLARET SCHOOL, BORJHAR, GUWAHATI ===== GST NO===== 18BEEPD1177A1Z2",8638976772,,GUWAHATI,,781015,ASSAM,DISTRICT
AYAN ENTERPRISES,"SANJAY KHAN C/OH. NO. 19, CUSTUM COLONY, NEAR DANISH KUNJ KOLAR, BHOPAL",9713252555,,BHOPAL,,524178,MADHYA PRADESH,DISTRICT
SATYA HERBAL CENTER SF,"SATYAKAM SAHU ,RAJ KISHORE NAGAR NEAR DWONE TOWNE HOTEL ,BILASPUR === GST NO ===22CFTPS1285P1ZK",7999740859,,AMBIKAPUR,,495006,CHATTISGARH,WAREHOUSE
GANPATI ENTERPRISES,"DIPIKA DEVI C/O VILL + PO + PS GHORASAHAN, NEAR PURANA PETROL PUMP, NAGDAHA PURALIA , DISTT. EAST CHAMPARAN BIHAR",9973354072,,CHAMPAI-I,,845303,BIHAR,DISTRICT
SAI ENTERPRISES,"RAJEEV TANEJA & TRIPTA BAREJA C/O SHOP NO. C6, KHANNA COLONY, SONIPAT===GST NO===06ADUFS5635G1ZL FSSAI . NO = 10822020000053",9255953097,,SONIPAT,,131001,HARYANA,WAREHOUSE
S/F YOGESH ENTERPRISES,"YOGESH KUMAR C/O BACK OF BARODA WALI GALI,GADARPUR GST NO 05BBWPK1125J1ZJ",9927024096,,UDHAM SINGH NAGAR,,263152,UTTARAKHAND,WAREHOUSE
C/F ALKA HERBALCARE,"RAJENDER SINGH C/O 320, VIKAS NAGAR MAIN ROAD, CHANDAUSI, SAMBHAL",9412523643,,SAMBHAL,,202412,UTTAR PRADESH,DISTRICT
HAPPY HEALTH ENTERPRISES,"ASRAF ALI C/O AT NOIMUDDIN,PURBA MATIARI, SHIKARPUR, DALKHOLA, Uttar Dinajpur, West Bengal,GTS NO--19AMOPA6071B1Z8----",6295456073,,DINAJPUR,,733201,WEST BENGAL,DISTRICT
DRISHTI HERBAL POINT,"NAVNEET GUPTA C/O NAI BASTI, BIJNOR",9756338566,,BIJNORE-I,,246701,UTTAR PRADESH,DISTRICT
ADITYA ENTERPRISES,"SARITA RAMASHARE YADAV C/O KOIRIPUR SHIWALA ( TOWN AREA ROAD KOIRIPUR ) LAMUHA SULTANPUR , UTTAR PRADESH=== GST NO === 27ADJPY6947N1ZD",9869771179,,SULTANPUR,,222301,UTTAR PRADESH,DISTRICT
DEV & SONS ENTERPRISES,"DEV TANEJA C/O H.NO. 19, NANDWANI NAGAR, SONIPAT",7422910000,,SONIPAT,,131001,HARYANA,DISTRICT
JASSAL ENTERPRISES,"SHALLY JASSAL W/O GURSIMAN SINGH, EMPLOYEES COLONY , SHAHKOT",8283008661,,SHAHKOT,,144702,PUNJAB,DISTRICT
DEBANKUSH HHI SHOPPE,"BAPI CHATTARAJ C/O RANISAYAER, RANIGANJ, BURDWAN",6296666482,,BURDWAN,,713358,WEST BENGAL,DISTRICT
SHIBANI HHI SHOPEE,"SUMAN GHOSH D/O SAMART KUMAR GHOSH, VILL. - GAZA, PO- DALAPATIPUR, PS- HARIPAL, DISTT. HOOGHLY",9091153161,,HOOGHLY,,712403,WEST BENGAL,DISTRICT
NILANJANA MAITI DUARI,"NILANJANA MAITI DUARI W/O PRASUN KANTI DUARI, MIRCHAK, PASCHIM MEDINIPUR",9609206301,,PASCHIM MEDINIPUR,,721437,WEST BENGAL,DISTRICT
SOVA HAPPY HEALTH INDIA,"TUSHAR KANTI GHOSH C/O DURBA AND PURBA , COMPARTMANT NEAR JATRIK CLUB, PO RADHA NAGAR, DISTT. BARDHMAN",6295972552,,RADHANPUR,,713325,WEST BENGAL,WAREHOUSE
SHIFA HEALTH CARE,"AADIL KHAN S/O SHAMSUDIN ALVI, BHARAT SCHOOL KE PASS, HAMAWADA SHAHJI, BARAN,",9521205772,,BARAN,,325221,RAJASTHAN,DISTRICT
PRADIP SARKAR,"PRADIP SARKAR C/O 250/20/KA, NEAR MAKRAMPUR PETROL PUMP, CITY- BOLPUR, DISTT. BIRBHUM===GST NO===19BADPS1630Q1Z7",8637833025,,BIRBHUM,,731204,WEST BENGAL,DISTRICT
N.S.Enterprise,"SUBRATA SAHA S/O LT KHAGENDRA CHANDRA SAHA, 061810, WARD NO- 14, KRISHAANAGAR BANERJEE PARA, NABAGRAHA MANDIR, SUB DIV- SADAR, AGARTALA ==GST NO==16AUGPS8268L1ZS",7005782169,,AGARTALA,,799001,TRIPURA,DISTRICT
MINTU KUMAR MANDAL,"MINTU KUMAR MANDAL S/O NARAYAN CHANDRA MANDAL , VILL. PASCHIM BEGUNI, PO.- CHAKSHYAMPUR, DISTT. PASHIM MEDINIPUR",9382740214,,PASCHIM MEDINIPUR,,721124,WEST BENGAL,DISTRICT
M/S PRADIP SARKAR,"PRADIP SARKAR C/O 250/20/KA, NEAR MAKRAMPUR PETROL PUMP, CITY- BOLPUR, DISTT. BIRBHUM===GST NO===19BADPS1630Q1Z7",8637833025,,BHIR,,731204,WEST BENGAL,WAREHOUSE
AMANAT GOODS & SERVICES,"AMANDEEP ATTRI S/O SAT PAL, HNO. 233/34, 8 No. Gali, Guru Har Rai Avenue, Majitha Road Amritsar",9914833274,,AMRITSAR,,143001,PUNJAB,DISTRICT
SUBHAM HHI DEPO,"HANUMAN PRASAD AGARWAL, C/O RAY PARA ,WARD NO 3, DIST BARPETA , P.O BAROPETA ROAD ASSAM==GST NO==18AFVPA2199G1Z3",9954260175,,BARPETA ROAD,,781315,ASSAM,DISTRICT
CHANDAN PRAMANIK,CHANDAN PRAMANIK C/O GHASIPUR PURBA MEDINIPUR WEST BENGAL,9474039565,,PURBA MEDINIPUR,,721628,WEST BENGAL,DISTRICT
HHI MADHUMITA ENTERPRISE,INDRAJIT KUMAR ROY C/O SRIBASH NAGAR NEAR MILAN CINEMA HOOGLY CHINSURAH WEST BENGAL,9432228159,,HOOGHLY,,712103,WEST BENGAL,DISTRICT
SARITA RAMASHARE YADAV,"SARITA RAMASHARE YADAV C/O H.-703, GOKUL GALAXY, THAKUR COMPLEX, MUMBAI, KANDIVALI EAST, MUMBAI",9869771179,,MUMBAI,,400101,MAHARASHTRA,DISTRICT
HAPPY HEALTHINDIA SHOPING CENTER,"SHYAMAL CH KHAN C/O J.C KHAN ROAD, MANKUNDU, HOOGLY",8777876162,,HOOGHLY,,712139,WEST BENGAL,DISTRICT
M/S SWASTIK ENTERPRISES,"ARUN KUMAR SAHOO C/O AT- PLOT NO- 229/3950/4056, NEAR SHAKTI GUEST HOUSE AND BUS STAND, AREA - BARAMUNDA, PS- KHANDAGIRI, CITY -BHUBNESHWAR==GST NO==21ADZFS5010Q1ZI",9238329041,,BHUBNESHWAR,,751003,ORISSA,DISTRICT
SARKAR ENTERPRISE,"TANDRA SARKAR , C/O G-1,MADHURI APARTMENT,SHAKTIGARH ROAD NO 1,SILIGURI JALPAI GURI, (WEST BENGAL )===GST NO ===19CDBPS2149Q1ZU",8637833025,,SILIGURI,,734005,WEST BENGAL,DISTRICT
JAI MAA HEALTH CARE CENTRE,"PARDEEP KUMAR S/O DUKHHARAN, RAMDEEN PURBA, DHAMRAIYA KALAN, PO- BAKSAILA, DISTT. GONDA",9648151433,,GONDA,,271401,UTTAR PRADESH,DISTRICT
SAROJ PRASAD,"AAK ENTERPRISES C/O HARIHARPUR, NEAR BENIADANGA RAILGATE, P.O - MALLICKPUR , KOLKATA ,SOUTH 24 PARGANAS",9830062611,,24PGS,,700145,WEST BENGAL,DISTRICT
GHADAI ENTERPRISES,"NANDIKESWAR GHADAI C/O AT/PO- NACHUNI, DISTT. KHURDHA",8249119231,,KHURDA,,752034,ORISSA,DISTRICT
PANDA ENTERPRISES,"SESHARANI PANDA W/O NIROD KUMAR DAS, NARIPUR, BHADRAK RURAL, BHADRAK==GST NO==21BUPPP1782E1ZK",9090740322,,BHADRAK,,756100,ORISSA,DISTRICT
EKTA HHI SHOP,"KAUSHAL KUMAR GAUTAM C/O MOHAN NAGAR COLONY, DHANIPUR ALIGARH",8439339005,,ALIGARH,,202002,UTTAR PRADESH,DISTRICT
NIRMAL SINGH,"NIRMAL SINGH C/O VILL. TUNG, PO+DISTT. GURDASPUR",9417888432,,GURDASPUR,,143521,PUNJAB,DISTRICT
JAY GURU ENTERPRISES,BARUN GHOSH C/O BHOLPUR WEST BANGAL,7001740620,,BARDHAMAN,,143521,WEST BENGAL,DISTRICT
M/S SHREEM ENTERPRISES,"DARSHIT DESAI C/O AT.PO VIA-RANITAL , DIST-BALASOR, BHADRAK G.S.T - NO== 21EQOPD8129K1ZM",7683998800,,BALASORE,,756111,ORISSA,DISTRICT
BISHESWARI ENTERPRISES,"UMA MAJUMDAR C/O AT - MILON POLLY,(BEHIND GOV. QUATER) DISTT -HOOGHLY , WEST BANGAL",9804382824,,HOOGHLY,,712103,WEST BENGAL,WAREHOUSE
CHAMPARAN AYURVEDA,"C/O CHANDA DEVI , ADD - MANJU RESIDENCY- NEAR ZERO MILE BY PASS NRL PETROL PUMP BHAGWAT NAGAR ROAD GANPATI DENTAL OR SUPER MARKET SIDE WALI GALI ,SUGANDH VIHAR COLONY- BHAGWAT NAGAR-PATNA-26==GSTN===10BQIPD2331N1Z8 , FSSAI==10422000000289",7903841738,,PATNA,,800026,BIHAR,WAREHOUSE
M/S KPS ENTERPRISES,"SAROJ KUMAR MUDULI C/O DIAN PALASA NEAR PURUNA BARIPADA PO. ARPATA, KHUNTA,BALASORE, ORISSA === GST NO ===21BBGPM1296N1ZF",9583516669,,KHUNTI,,757083,ORISSA,DISTRICT
JEET ENTERPRISE,"AVIJIT GHOSH S/O SASTHI CHARAN GHOSH , ADDRESS- TINNA, PANDUA, HOOGHLY, WEST BENGAL",9233677562,,HOOGHLY,,712149,WEST BENGAL,DISTRICT
RANA HERBAL POINT,"SHEESH PAL SINGH S/O SHIV CHARAN SINGH , H NO. 1168, VEER NAGAR , MUNNALAL, MAWANA KALAN , MEERUT, UTTAR PRADESH",9690239999,,MEERUT,,250401,UTTAR PRADESH,DISTRICT
SAMIT KUMAR MOHANTY,"SAI ARPAN MULTI MARKET C/O AT/PO- JHARPOKHARIA , DIST- MAYURBHAJ, ODISHA",8917320096,,MAYURBHANJ,,757086,ORISSA,DISTRICT
M/S SATHI ENTERPRISES,"GOUTAM KUMAR DASS C/O NEAR BARSAT, NOPARA,RASBIHARI SCHOOL ROAD KOLKATA",9836646860,,KOLKATA,,700125,WEST BENGAL,DISTRICT
NEHA TRADERS,"MANOJ KUMAR PANDA S/O NARAYAN PANDA, AT-NAGAPATANA,PO- SHRI BALDEV JEW,DIST-KENDRAPARA,ODISHA",7381528833,,KENDRAPARA,,754212,ORISSA,DISTRICT
SRIYA HHI SHOPPING,"GOVINDA RAJU ELLAPU S/O TATA RAO ELLAPU,ADD- D.NO.46-15-32/2, DONDAPARTHI MAIN ROAD, DONDAPARTHI, , VISAKHAPATNAM, ANDHRA PRADESH === GST NO === 37AAMPE0646C1Z2",8019147746,,VISAKHAPATNAM,,530016,ANDHRA PRADESH,DISTRICT
MAA BHAGABATI SHOPPE,"SASANK SEKHAR SAMANTARAY,S/O CHAKRAPANI SAMANTARAY AT/PO-BANPUR DIST-KHURDA, ODISHA",9348208678,,KHURDA,,752030,ORISSA,DISTRICT
SNEHA ENTERPRISES DF,"PRAVANSU KUMAR PUROHIT C/O AT/PO-JULUNDA PS-DUNGURIPALI DIST-SONAPUR,ODISHA",8917432806,,SONAPUR,,767019,ORISSA,DISTRICT
SHREE SHYAM STORE,"ANURADHA SHARMA C/O ADD, N-37,GALI NO.4,VIJAY VIHAR, UTTAM NAGAR, NEW DELHI === GST NO === 07FNIPS9780M1ZT",9650055683,,DELHI TANDA,,110059,NEW DELHI,DISTRICT
W/B SHRI LAXMI ENTERPRISE,"SHIKHA ROY C/O AT- RAMNARAYANPUR, PO- KASHIPUR,PS- MANDIRBAZAR,DIST-SOUTH 24 PARAGNAS,WEST BENGAL",8515932340,,24PGS,,743345,WEST BENGAL,DISTRICT
PALAK AYURVEDA,"AWDHESH KUMAR C/O YADAV COMPLEX CHHAPWA,BETTIAH ROAD,SHRIPUR CHOWK,WEST CHAMPARAN,BIHAR",7277928279,,CHAMPARAN,,845454,BIHAR,DISTRICT
H H I MARKETING PRIVATE LIMTED WB,"RAMU , C/O JYOTI NAGAR,SEVOKE ROAD ,S.M.C WARD NO 41, P. S.BHAKTINAGAR,SILIGURI GST NO ===19AADCH7949H1Z3",7427956196,,SILIGURI,,734001,WEST BENGAL,WAREHOUSE
SARTHAK S.R HHI SHOPPING CENTER,"RAVINDRA KUMAR S/O SAHENDRA SINGH,ADD: 87-C, HILL STREET ,MEERUT, UTTAR PRADESH",9410454912,,MEERUT,,250001,UTTAR PRADESH,DISTRICT
DEBANKUSH ENTERPRISE,"BAPI CHATTARAJ C/O VILL+PO-BIJPUR,JAMURIA,DIST-PASCHIM BURDWAN, WEST BENGAL--19AMDPC9856H1ZQ--",9681723952,,BURDWAN,,713358,WEST BENGAL,WAREHOUSE
RUPAM HERBAL INDIA,"KARUNA CHAKRABORTY W/O SHIBU CHAKRABORTY,DALURBAND 8NO, PO-PANDAVESWAR,DIST-BARDHAMAN,WEST BENGAL",9064794976,,BARDHAMAN,,713346,WEST BENGAL,DISTRICT
BISWAS ENTERPRISE,"KAJU BISWAS S/O JAYED ALI BISWAS, KENDUA CHAITA, NORTH 24 PARAGANAS, WEST BENGAL",7076769796,,24PGS,,743445,WEST BENGAL,DISTRICT
RC INNOVATIONS,"RATNI DEVI C/O 69/181, V.T. ROAD, MANSAROVER, JAIPUR, RAJASTHAN === GST NO === 08BZRPD6992B2ZZ",6378492616,,JAIPUR,,302020,RAJASTHAN,DISTRICT
S.A. ENTERPRISE,"ROPARI W/O ZOLIANA, F/D-40 A, WORLD BANK ROAD, NEAR BS FARM, FALKLAND, AIZWAL MUNICIPAL COUNCIL ,AIZWAL, MIZORAM=== GST === 15EHAPR2990M2ZS",7005593202,,AIZWAL-I,,796017,MIZORAM,DISTRICT
RAMAN ENTERPRISE,"PRAMOD DHAKAD S/O VARELAL DHAKAD , GRAMNEGMA, NEGAWAN, DIST- GUNA, MADHYA PRADESH",8959518507,,GUNA,,473001,MADHYA PRADESH,DISTRICT
SUSAMA HHI SHOPEE,"SURJYA NARAYANA MAHAPATRA S/O PARSHNA KUMAR MAHAPATRA, AT/PO- BALUGAON NEAR SBI ATM , NEW BUS STAND , DIST- KHURDA , ORISSA",9124106686,,KHURDA,,761045,ORISSA,DISTRICT
GHORKHA TIGERS,"KEDAR GHIMIRE C/O KHORIBARI , RANIGANJ , GP , GANDOGOLIJO TE, GANDAGAL , DARJEELING , WEST BENGAL",8972809562,,DARJEELING,,734429,WEST BENGAL,DISTRICT
MAHALAXMI ENTERPRISES,"NAVIN KUMAR SINGH C/O 166/2, JAGMANDER DAS ROAD, NEAR RAILWAY SATATION, BIJNORE== GST NO == 09ASJPS5966L1ZP",9627848403,,BIJNORE-I,,246701,UTTAR PRADESH,DISTRICT
MANORAMA ENTERPRISES,"GATI KARUSHNA PANDA S/O GANESH PRASAD PANDA, NACHHIBINDHA, BASUDEVPUR, BETRA, BHADRAK,",8658132731,,BHADRAK,,756168,ORISSA,DISTRICT
SUNIL KUMAR MISHRA,"PATNA TIGER C/O AT JKS/D ,-121 , OLD JAKKANPUR SHIVJEE NAGAR , PATNA",8651452365,,PATNA,,800001,BIHAR,DISTRICT
DHANLAXMI HHI DEPO,"MR R D DHUMAL C/O F224, SUPERMARKET, SECTOR 3, AIROLI NAVI MUMBAI, DIST THANE, MAHARASHTRA",9967657445,,MUMBAI,,400708,MAHARASHTRA,DISTRICT
RAMSWAROOP SUMAN,"RAMSWAROOP SUMAN C/O WARD NO. 15, TEJAJI KI BAWDI, RATODAN ROAD, SHEOPUR, BARODA, SHEOPUR, M.P.",8819927992,,SHEOPURKALAN,,476339,MADHYA PRADESH,DISTRICT
DHRUV ENTERPRISE,"UPENDRA KUMAR C/O AT FLAT NO. 481, BLOCK NO. 45, GUJARAT HOUSING BOARD, NEAR KSEZ, GANDHIDHAM, Kachchh, Gujaratt, --24BZZPK4802R1ZH---",9638944914,,GANDHI DHAM,,370201,GUJARAT,WAREHOUSE
ANAF ALL IN ONE,"MOHD SALMAN S/O RAHIM MOHD C/O HOUSE NO 407, PATHAN MOHALLA ANANTPURA, PHOOTA TALAB,KOTA, RAJASTHAN--08DWUPS6252M1ZE--",7374092613,,KOTA,,324005,RAJASTHAN,DISTRICT
LENKA ENTERPRISE,"PRADEEP KUMAR LENKA C/O AT+PO - NAYAGARH, ODISHA, === GST NO.=== 21AHAPL6717A1Z2",7978047176,,NAYAGARH,,752069,ORISSA,DISTRICT
JYOTI HERBAL STORES,"JYOTI HARICHAND BHOYAR C/OLAXMINAYARAN GOSAI BHENDARKAR,NAGPURA,MURRI,GONDIA",9049852577,,GONDIA,,441601,MAHARASHTRA,DISTRICT
NAGARMAL BAZAR,"NARESH AGARWAL C/O # 10 , EAST KHAN, PUKAR ROAD , CHAPDANI M , HOOGHLY ANGUS WEST BANGAL",8981282653,,HOOGHLY,,712221,WEST BENGAL,DISTRICT
SASMITA ENTERPRISES,"SURENDRA BEHERA C/O RAGHUNATH BEHERA AT : KUSUN NAGAR , BEHERA SAHI . KADABARANG PO: ANIJO BHADRAK",8658139183,,BHADRAK,,756115,ORISSA,DISTRICT
SANKAR MANDAL,"SANKAR MANDAL S/O NARAYAN CHANDRA MANDAL , VILL. PASCHIM BEGUNI, PO.- CHAKSHYAMPUR, DISTT. PASHIM MEDINIPUR",9382740214,,PASCHIM MEDINIPUR,,721124,WEST BENGAL,DISTRICT
DHANALAXMI AGENCY,"SHEKHAR R KATEKHAYE C/O AT RAJIV GHANDHI CHOWK, BHANDARA",8669160299,,BHANDARA,,441910,MAHARASHTRA,DISTRICT
MAHATO AYURVEDA HHI SHOPPY,KHAGENDRA NATH MAHATO C/O AT H No 13 New Development Area Masjid Road Near Canara Bank Golmuri Jamshedpur Dist East Singhbhum Jharkhand,9234200130,,JAMSHEDPUR,,831003,JHARKHAND,DISTRICT
PARVI HERBALS,"PANKAJ KESHAORAO BHANDARKAR, C/O KISHOR NIMGADE , VIDHNYAN NAGAR , MANEWADA, NAGPUR , MAHARASHTRA",9168720202,,NAGPUR,,440024,MAHARASHTRA,DISTRICT
S/F DIXIT ENTERPRISES,"BIBEKANANDA DIXIT S/O HIMANSHU DIXIT , JYOTSNA RANI , PANIGRAHI O T ROAD , IN FRONT OF IDBI BANK , BALASORE , ORISSA ===GST=== 21AKOPD8750E1ZC",9040560010,,BALASORE,,756001,ORISSA,DISTRICT
M/S CREATIVE ASSOCIATION,"BHOYAR DURGA KESHAOKUMAR C/O H NO.35.GANDHI CHOWK,SADAR BAZAR,NAGPUR,MAHARASHTRA",9766735942,,NAGPUR,,440001,MAHARASHTRA,DISTRICT
SHASHI KUMAR BHAGAT,"SHASHI KUMAR BHAGAT S/O KRISHNA DEV BHAGAT, SONAILI,PO-PAHALAGADH,PS-KADWA,DIST-KATIHAR, BIHAR",9939489568,,KATIHAR,,855114,BIHAR,DISTRICT
LALHLIMPUII,"LALHLIMPUII W/O PS LALREMRUATA, T-57, TAITESENA SEC NEAR ITI TRAINING INSTITUTE, ITI AIZAWL MIZORAM",9774375118,,AIZWAL-I,,796001,MIZORAM,DISTRICT
JAYA ENTERPRISES,"PAWAN KUMAR PRAJAPATI S/O BRAJ NARAYAN PRAJAPATI, GRAM LAGRAY KALA, TAGARIYA KALAN, KUMBHRAJ, GUNA MADHYA PRADESH",9685785453,,GUNA,,473222,MADHYA PRADESH,DISTRICT
NANDAN STORE,"MRINAL BARAI C/O VILL. MAHESH DANGA CAMP. 4 NO BAZAR PO- UTTARPAR, PS- MEMARI, DISTT. PURBA BURDWAN",9732366049,,BURDWAN,,713151,WEST BENGAL,DISTRICT
S/F SURAJ ENTERPRISES,"MANOJ KUMAR C/O AT MARANGA NAHAR,INDIAN READYMADE BIKASH BAZZAR NEAR BUS STAND DIST - PURNEA, BIHAR",7870687144,,PURNIA,,854301,BIHAR,DISTRICT
KANAK HHI DISTRIBUTER,SUBHASHIS SAHOO C/O AT: CHUNIDHIA POST OFFICE - BELTAL VIA :PATTAMUNDAI DIST KENDRAPARA GST NO ====21FWKPS6953K1ZU========,9439486450,,KENDRAPARA,,754215,ORISSA,DISTRICT
FIROZE ENTERPRISE,KH MD FIROZE AT Vill P.o. BANDPUR CHANDITALA HOOGHLY W.B,8918094799,,HOOGHLY,,712701,WEST BENGAL,DISTRICT
DP ENTERPRISES,"UDAYA CHAND BISWAL AT- MARSHAGHAI DIST- KENDRAPARA, ODISHA====21ALVPB2142C1ZR=====",9438235185,,KENDRAPARA,,754213,ORISSA,DISTRICT
SARVESHWAR TRADERS,"HEMANT BHATI S/O SHANKER SINGHBHATI, 1491/30 KRISHNA AASHISH, SHANKAR NAGAR, NAGARA, AJMER===GST NO===08ABIPB9409M2ZB",9829071816,,AJMER,,305001,RAJASTHAN,DISTRICT
MAA DURGA DEVI SHOPEE,"ANUPRAVA SWAIN AT-Giranga, Po- Marshaghai Dist- Kendrapara ORRISA",9937700543,,KENDRAPARA,,754213,ORISSA,DISTRICT
NEH ENTERPRISE,"PATEL NEHA MANISH KUMAR AT C 29, SAMAIBA BUNGLOW, 07 ROAD AHMADABAD GUJRAT=== GST NO === 24FUIPP1713C1ZY",9825044643,,AHMEDABAD LOCAL,,380058,GUJARAT,DISTRICT
VINOD KUMAR SHARMA,VINOD KUMAR SHARMA C/O KAILASH CHAND SHARMA 161 NEAR CHHATARIYA BUS STAND KE PICHHE,9887099741,,JAIPUR,,303802,RAJASTHAN,DISTRICT
K&K ENTERPRISE,"KRISHNA BAHADUR CHETTRI S/O KUL BAHADUR CHETTRI AT MIDDLE KOLTHANG PW, NEAR LINGMOO OUT POST LINGMO KOLTHANG GPU, KOLTHANG SIKKIM",6294330481,,SINGHWARA,,737134,SIKKIM,DISTRICT
KANJI SERVICES,"ANAND KUMAR S/O KANA RAM, ANAND BHAWAN, STREET DURGA MANDIR KE SAMANE, BUS DEPO KE PAS RAJASTHAN",9887553221,,SIKAR,,332001,RAJASTHAN,DISTRICT
ALLAHABAD HEALTH CARE CENTRE,"FARAN HUSSAIN C/O 37E/12P/1K , KARELI,V.I.P COLONY , GHOUSE NAGAR, GTB NAGAR , ALLAHABAD, U.P.",7084889653,,ALLAHABAD,,211016,UTTAR PRADESH,DISTRICT
MANISHA SAMAL,"SREE GANESH ENTERPRISE C/O AT- CHANDAN PADIA, NAUPATNA, MANGALABAG, DIST- CUTTACK, ODISHA",9178501897,,CUTTACK,,753001,ORISSA,DISTRICT
SREE MA CHANDI ENTERPRISE,"ANUPAMA MANNA MANDAL C/O PLOT NO. 199 , MOUZA SANDAIL , P.S.-BAGNAN , P.O.- BARUNDA , DIST - HOWRAH , WEST BENGAL",8535982691,,HOWRAH,,711303,WEST BENGAL,DISTRICT
CHITRA SHOPPING STORE,"CHITRA DE C/O GANAKBANI, RADHANAGAR STATION ROAD,PO- AMLAGORA, PS-GARHBETA,PASCHIM MEDINIPUR, W.B.",9732838108,,PURBA MEDINIPUR,,721121,WEST BENGAL,DISTRICT
NEW SAI BABA HHI,"MINTU KUMAR ROY C/O MOHAN ROY , NEAR PALL BUILDING, SOUTH NOLDANGA, CHINSURAH-MAGRA , HOOGHLY, W.B.",9681209827,,HOOGHLY,,712123,WEST BENGAL,DISTRICT
M/S MAA LAXMI TRADERS CHANDIKHOLE,"MRS RITANJALI PARIDA AT CHANDIKHOLE, POST-SUNGUDA, DIST JAJPUR ODISHA",9777072077,,JAJPUR ROAD,,755044,ORISSA,DISTRICT
NEW VISHWAKARMA STORE HAPPY HEALTH INDIA,"SARITA DEVI AT BORA MARKET NEAR STATE ZOO, R G BARUA ROAD, GUWAHATI",9706842632,,GUWAHATI,,781024,ASSAM,DISTRICT
FR MARKETING,"RAVINDRA MEENA C/O AT- 40, TRIVENI NAGAR, BHERU KHEJARA, TODI MOD, JAIPUR, RAJASTHAN",7339784981,,JAIPUR,,303805,RAJASTHAN,DISTRICT
NANU RAI,"NANU RAI C/O UTTARPAN COMPLEX, F-34 DTDC COURIER, HILL CART ROAD OPP. BISWADEEP CINEMA HALL",7797425683,,DARJEELING,,734223,WEST BENGAL,DISTRICT
LILI ENTERPRISES,"SUSHANTA PATTANAIK C/O SOMNATH BHADRAK, AT- GOPINATHPUR, GHANTESWAR, DIST-BHADRAK, ODISHA",9606861903,,BHADRAK,,756100,ORISSA,DISTRICT
NEWFEEL ENTERPRISES,"PURNA CHANDRA JENA C/O WARD NO. 57, GOPALPUR, DIST- CUTTACK , ODISHA === GST NO=== 21ADYPJ2238G1ZK",7873336243,,CUTTACK,,733011,ORISSA,DISTRICT
RM ENTERPRISES,"MR.GAICHAENGSUI JEEVAN & MR.SURYA VIKRAM RIZAL C/O KANGLATONGBI, IMPHAL WEST, MANIPUR GST NO ===14FXXPM7179H1ZJ",7005335425,,IMPHAL,,795136,MANIPUR,WAREHOUSE
SOMA MANDAL,"SOMA MANDAL W/O MINTU KUMAR MANDAL, VILL- PASCHIM BEGUNI,PO - CHAKSHYAMPUR, PASCHIM MEDINIPUR, WEST BENGAL",9382740214,,PASCHIM MEDINIPUR,,721124,WEST BENGAL,DISTRICT
VL DUHAWMI,"VL DUHAWMI C/O AIZWAL ROAD, KEIFANG, AIDUZWAL, SAITUAL, MIZORAM",9862531909,,SAITUA,,796261,MIZORAM,DISTRICT
ATTRI GOODS & SERVICES,"AMANDEEP KUMAR S/O SAT PAL, H.NO. 233/34, GURU HAR RAI AVENUE, MAJITHA ROAD, AMRITSAR",9914833274,,AMRITSAR,,143001,PUNJAB,DISTRICT
CHOKADALA HHI CENTER,"SURESH CHANDRA PRADHAN C/O CHOKADALA, JALESWARPUR, BHOGRAI , DIST- BALESWAR, ODISHA",7683985995,,BALESWAR,,756036,ORISSA,DISTRICT
LG POINT,"SANJAY SHARMA C/O NEAR BHAGAT SINGH CIRCLE, CHIRAWA ROAD , PILANI , DIST - JHUNJHUNU, RAJASTHAN",9887422305,,JHUNJHUNU,,333031,RAJASTHAN,DISTRICT
GEHLOT SERVICES,"NARENDRA GEHLOT C/O NEAR JAI SHREE PETROL PUMP, IN FRONT OF VIVEK VIHAR BYPASS ROAD, SANGARIYA, DIST- JODHPUR , RAJASTHAN",9887674589,,JODHPUR,,342013,RAJASTHAN,DISTRICT
ANNAPURNA PANDA,"ANNAPURNA PANDA C/O C.225, SECTOR - 06, ROURKELA, DIST- SUNDERGARH, ODISHA",9437221358,,SUNDERGARH,,769002,ORISSA,DISTRICT
ROHIT ENTERPRISE,"MADHU SINGH BHANWAR C/O MIRCH KARKHANA HOLI FALIYA RAILWAY BREEZE KE PASS DEHADLA,JOBAT,DIST- ALIRAJPUR, M.P.",9926978035,,ALIRAJPUR,,457990,MADHYA PRADESH,DISTRICT
DRISHTI HERBAL CENTRE,"HEMANT KUMAR RAJWADE C/O Q.N - 870, W.NO. -26, SECL, MUDAPUR, KORBA, CHHATISGARH",9039992518,,KORBA,,495677,CHATTISGARH,DISTRICT
R.G. ENTERPRISES,"SUNITA DEVI C/O AT NARAYANA HOUSE SA 19/10 A-K DANIYALPIR, PO- NAKKHIGHAT DIST- VARANASI( U.P.) === GST NO ==== 09AIAPD3115D1Z1",9044804440,,VARANASI,,221007,UTTAR PRADESH,DISTRICT
SANIYA ENTERPRISE,"ANUWAR HOSSAIN C/O GIGRI MORE NH 34, PO- BHABANIPUR, PS- FARAKKA , DIST- MURSHIDABAD, WEST BENGAL",9563341043,,MURSHIDABAD,,742202,WEST BENGAL,DISTRICT
MAA LAXMI HHI CITY SHOP,"DILIP MONDAL C/O VILL- CHAIPAT, PS- DASPUR, DIST- PASCHIM MEDINIPUR, WEST BENGAL",7602665746,,MEDINIPUR,,721148,WEST BENGAL,DISTRICT
MD AKHTAR ANSARI,"MD AKHTAR ANSARI C/O KANCHANDIH, KAPASARA, CHIRKUNDA, DHANBAD, JHARKHAND",7004053841,,DHANBAD,,828204,JHARKHAND,DISTRICT
ANZAL HEALTH CARE POINT,"UMAIRA BEGUM C/O H.NO.117, MIRDAHI TOLA NEAR WATER TANK, DIST - SITAPUR , UTTAR PRADESH",8353916512,,SITAPUR,,261001,UTTAR PRADESH,DISTRICT
DHABAL STORES,"KOCHIN KUMAR DHABAL C/O SCHOOL DANGA .NEAR DI OFFICE, DIST- BANKURA, WEST BENGAL",9382924609,,BANKURA,,722101,WEST BENGAL,DISTRICT
PAWAN TAMANG,"PAWAN TAMANG C/O CHOWKI DARA PETROL PUMP, SONADA, KHASMAHAL, DARJEELING, SONADA,WEST BENGAL",6296052803,,DARJEELING,,734209,WEST BENGAL,DISTRICT
SAI PRASAD AGENCIES,"KISANRAO YASHWANTRAO JORVEKAR C/O PLOT NO.40, SAIDHAM, SANJAY GRAHNIRMAN SANGH, BHADGAON ROAD, TAKLI CHALISGAON, DIST- JALGAON, MAHARASHTRA",9423954087,,JALGAON,,424101,MAHARASHTRA,DISTRICT
M/S UNNATI ENTERPRISES,"ARUNA GUPTA C/O F19/B1,GROUND FLOOR,F BLOCK,DILSHAD COLONY, DELHI === GST NO === 07AIGPG0997E1ZA",9971015122,,ALIPUR,,110095,NEW DELHI,DISTRICT
M/S MOUTUSI CHAKRABORTY,"MOUTUSI CHAKRABORTY C/O Add -35/D/B RAJMOHAN ROAD, UTTARPARA ,Dist HOOGHLY , WEST BENGAL",9007650389,,HOOGHLY,,712258,WEST BENGAL,DISTRICT
SWAMI SAMARTH ENTERPRISES,"SATYANARAYAN RAMPAT SEHRAWAT C/O MILKAR NO. 0991 , PUNE SASWAD ROAD , OPP. HOTEL SAHYADRI , URULI DEVACHI , DIST - PUNE , M.H. GST NO ====27AQZPS1602F1ZJ",9850084924,,PUNE,,412308,MAHARASHTRA,WAREHOUSE
SAMIR BARAN DAS,"SAMIR BARAN DAS C/O MADANMOHANCHAK , CHANGRAKALAGANDA ,DIST - PURBA MEDINIPUR , W.B.",8918994524,,MEDINIPUR,,721651,WEST BENGAL,DISTRICT
M/S RUDRA ENTERPRISES,"RAKESH KUMAR C/O DEHRI ON SONE, MAKRAIN , WARD NO. 12, DEHRI ON SONE , ROHTAS , BIHAR",9504521965,,ROHTAS,,821305,BIHAR,DISTRICT
RUDRANSH HERBAL SHOPY,"SANJAY NAGPURE C/O W NO. 22 , NEAR MOTI TALAB , MOTI NAGAR , BALAGHAT , MADHYA PRADESH",7898445255,,BALAGHAT,,481001,MADHYA PRADESH,DISTRICT
SHREE SHYAM TRADING COMPANY,"TEJ RAM AGGARWAL = A - 129 , 130 , 131 , SUBHASH NAGAR SHOPPING CENTRE , JAIPUR , RAJASTHAN GST NO ---- 08AFGPA8770G2ZD",7357733631,,JAIPUR,,302016,RAJASTHAN,WAREHOUSE
AYUSH AUSHADHI KENDRA,"PANKAJ KUMAR TRIPATHI C/O 1, Baragaon Bazar, Baragaon, Varanasi, Uttar Pradesh, 221204--- 09AGRPT5784D1ZM--",8004356974,,VARANASI,,221204,UTTAR PRADESH,DISTRICT
MAA BHAWANI GENERAL STORE,"LAXMI PRASAD C/O D.B. ROAD ,SONADA , KHASMAHAL , DARJEELING ,WEST BENGAL",9800844228,,DARJEELING,,734209,WEST BENGAL,DISTRICT
LAXMI NARAYAN ENTERPRISE,"BHAGYADHAR SAMANTA C/O VILL - DEULIA BAZAR , NEAR UNION CORPORATION BANK , KOLAGHAT , PURBA MEDINIPUR , W.B.",9593924496,,MEDINIPUR,,721154,WEST BENGAL,DISTRICT
M/S SHRI KRISHNA ENTERPRISES,"ANIL KUMAR C/O NEAR RAJINDER PARDHAN HOUSE , CHHAJPUR KALAN , PANIPAT , H.R. === GST NO === 06AQYPK7703L1Z5",8685004000,,PANIPAT,,132104,HARYANA,DISTRICT
CHHANGTE SHOPPE,"CHRISTINA LALRINPUII C/O 26 , AIR ROAD , RAMTHAR VENG , NEUVA SECTION , LUNGLEI , MIZORAM === GST NO === 15AEQPL2754Q1ZR",8414906460,,LUNGLEI,,796701,MIZORAM,DISTRICT
KIRTI ENTERPRISES DELHI,"GEETA PATHAK C/O RZ - 1414 , 1414A, GF, SHOP NO. 16, GALI NO - 28 , TUGHLAKABAD EXTN. , SOUTH DELHI , DELHI === GST NO === 07ANYPP2257K2Z6",9555521021,,ALIPUR,,110019,NEW DELHI,WAREHOUSE
LAXMI HHI MART,"KOUSHLA KISHORE NAGAR C/O NRISINGH SCHOOL KE PASS ,SAROVAR NAGAR , WARD NO. 26 PIPEIDA , ITAWA , KOTA , R.J.",8432587928,,KOTA,,325004,RAJASTHAN,DISTRICT
JHARNA U SAMANTA,"JHARNA U SAMANTA C/O AT - P.O + P.S -CHANDRAKONA TOWN , DIST-PASCHIM MEDINIPUR , WEST BENGAL",9979208088,,MEDINIPUR,,721201,WEST BENGAL,DISTRICT
ANJALI TRADERS,"ANJALI MANDAL C/O VILL- PASCHIM BEGUNI , PO - CHAKSHYAMPUR , DIST - PASCHIM MEDINIPUR , WEST BENGAL=== GST NO === 19EYKPM0428L1ZY",9933325301,,MEDINIPUR,,721124,WEST BENGAL,WAREHOUSE
CHANDAN KUMAR YADAV,"CHANDAN KUMAR YADAV C/O AT - WARD NO. 8 , MUHAMMADPUR , DARBHANGA , BIHAR",8264864800,,DARBHANGA,,847306,BIHAR,DISTRICT
RAMA ENTERPRISE,"TARUN GOSWAMI C/O VILL - SAHID NITYA NANDA NAGAR , JOGPUR ROAD , CITY/ PO - RANAGHAT , DIST - NADIA , W.B.",9064866873,,NADIAD,,741201,WEST BENGAL,DISTRICT
M/S VIJAY KUMAR,"VIJAY KUMAR C/O 2/278 , N E B EXT. , ALWAR , R.J.",8233263960,,ALWAR,,301001,RAJASTHAN,DISTRICT
M/S ASHIRWAD TRADERS,"KAVITA NEERAJ SINGH C/O KAPTANGANJ ROAD , RAMKOLA , JANTA NEAR INTERCOLLEGE , MISHRA COMPLEX WARD NO. 3 , KUSHINAGAR , U.P.",9795783131,,KUSHINAGAR,,274403,UTTAR PRADESH,DISTRICT
TC.LALRAMCHHUANMAWIA,"TC ENTERPRISES C/O Z-11 ZAMPUIMANGA SECTION, VENGLAI PRESBYTERIAN CHURCH, CHAMPAI MIZORAM",8730971823,,ALIPUR,,796321,MIZORAM,DISTRICT
ROHIT KUMAR YADAV,"ROHIT KUMAR YADAV C/O SUNDARPURA , WARD NO. 13 , SIKAR , RAJASTHAN",8104448940,,SIKAR,,332402,RAJASTHAN,DISTRICT
ROYALY JAIN ENTERPRISES,"RITIK JAIN C/O 17/306, NEAR GURRDWARA , PATTI MEHAR , BARAUT , BAGHPAT , U.P.=== GST NO. === 09BQVPJ3808F1ZH",8273258257,,BAGHPAT,,250611,UTTAR PRADESH,DISTRICT
KC LALRAMCHHUANGI,"JOSEPH ENTERPRISE C/O 90, TUIKAUL , NORTH II , TOWN- AIZWAL MIZORAM",9862131990,,AIZAWL,,796001,MIZORAM,DISTRICT
D.K.R. INDUSTRY,"RAVINDER KUMAR C/O SHOP NO 11, BY 7092, AMAR MARKET, MOCHI MOHALLA, HANSI, HISAR, HARYANA=====06BTAPK8913L1ZG====",9813377707,,HISAR,,125033,HARYANA,DISTRICT
R.G. INFOTECH,"RAJIB NASKAR C/O BAISHNAB PARA , WARD NO.10 , KOLKATA , W.B.=== GST NO === 19ALCPN4718K1ZS",8478000088,,CALCUTTA,,700124,WEST BENGAL,DISTRICT
VRINDAVAN ENTERPRISE,"SACHIN BAGDI C/O SHARTI CITY COLONY , ARON , M.P.",9993474333,,ARONE,,473101,MADHYA PRADESH,DISTRICT
JAY SHIV TRADING,"ANIL KUMAR C/O MAROOFGANJ ROAD , P . DEVI , SAHARSA , BIHAR",9534933586,,SAHARSA,,852201,BIHAR,DISTRICT
A&V ENTERPRISE,"ANDREW LALENGLIANA C/O P E VENG , SERCHHIP , MIZORAM",9990624917,,SERCHHIP,,796181,MIZORAM,DISTRICT
DHIRAJ KUMAWAT,"DHIRAJ KUMAWAT C/O ADD. 771/8 , TATA NAGAR , RATLAM , M.P.",9827733304,,RATLAM,,457001,MADHYA PRADESH,DISTRICT
M/S MANALISA COMMUNICATION,"MUKUT DAIMARI C/O WARD NO. 3 , PND COMPLEX , (CENTRAL BANK ), NEAR POLICE STATION , PO- UDALGIRI , DIST - UDALGIRI BTAD , ASSAM=== GST NO.=== 18AIOPD3860F2Z7",9864045009,,UDALGIRI,,784509,ASSAM,DISTRICT
KH SURCHAND SINGH,"KH SURCHAND SINGH C/O VILL - SAGOLBAND TERA , LOUKRAAKPAM LEIRAK , IMPHAL , MANIPUR",8837309928,,IMPHAL,,795001,MANIPUR,DISTRICT
MADHAV ENTERPRISES,"RAKHI PUNDIR C/O AT 684/1, SHOP NO 5, RANA MARKET NEW ADARSH NAGAR,NEAR GREEN WAY SCHOOL ROORKEE ,UTTARAKHAND=== GST NO === 05FBOPP6719R1ZK",9897353920,,ROORKEE,,247667,UTTARAKHAND,DISTRICT
NEW ROHILLA ENTERPRISES,"VINIT C/O AHULANA (121) SONIPAT , HARYANA",9416985733,,SONIPAT,,131101,HARYANA,DISTRICT
DIYA STORE,"SAKHA DEVNATH C/O DHEKIAJULI , DHEKIAJULI , DIST - SONITPUR , ASSAM",6001079195,,SONITPUR,,784110,ASSAM,DISTRICT
ARUHI HHI CORNER DEPO,"SADANANDA MANDAL C/O VILL+PO-SENERA, PS -RAGHUNATHPUR , PURULIA ,WEST BENGAL--19ECUPM3859R1Z4",7063864244,,PURULIA,,723121,WEST BENGAL,DISTRICT
S.S ENTERPRISES,"SONU KUMAR GUPTA C/O AT KUND MUHALLA, OLD GARHWA ROAD, DIST- DALTONGANJ, JHARKHAND",7004690343,,DALTONGANJ,,822101,JHARKHAND,DISTRICT
HARSH ENTERPRISES,"ARJUN PRASAD C/O DEWAN CHOWK,NH28,SUGAULI, DIST - EAST CHAMPARAN , BIHAR",7903961363,,CHAMPARAN,,845456,BIHAR,DISTRICT
PURVA SALES,"POOJA MANMOHAN SOMANI C/O ADDRESS - 633, WEST MANGALWAR PETH BEHIND KOTAK MAHINDRA BANK TILAK CHOWK SOLAPUR , M.H.",9422409528,,SHOLAPUR,,413002,MAHARASHTRA,DISTRICT
G.R.P. ENTERPRISE,"NARAYAN CHANDRA PRAMANIK C/O VILL - ANDULIA PO- GEONKHALI , PS - MAHISHADAL , DIST - PURBA MEDINIPUR , W.B.",9434939649,,MEDINIPUR,,721603,WEST BENGAL,DISTRICT
ASHIRWAD TRADERS,"KAVITA NEERAJ SINGH C/O AJIT PLAZA BHAVAN SANKHYA , D 147 BUDDH VIHAR COMMERCIAL NIKAT LIC OFFICE TARAMANDAL ROAD , PANI TANKI SE PURAB , GORAKHPUR , U.P.",9987703873,,GORAKHPUR,,273001,UTTAR PRADESH,DISTRICT
ASHISH MARKETING HHI SHOPEE,"NAYAN CHANDULAL SANGHVI C/O PLOT NO 460, SECTOR 22, OPP MUNICIPAL HOSPITAL TURBHE, NAVI MUMBAI , M.H.",9029003160,,MUMBAI,,400703,MAHARASHTRA,DISTRICT
C.LALRINMAWIA,"HHI KOLASIB DISTRICT POINT C/O KHUANGPUILAM , KOLASIB , MIZORAM",7005641392,,KOLASIB,,796081,MIZORAM,DISTRICT
BIJAYA KUMAR SAHOO,"FRIENDS ENTERPRISES C/O AT/PO - MOTTO ,CHANDABALI ,DIST - BHADRAK, ORISSA",9938260736,,BHADRAK,,756132,ORISSA,DISTRICT
MY ANGEL STORES,"MY ANGEL STORES C/O AT GAT NO- 332, FLAT NO- 304, BHAGIRAH CLASSIC, NEAR MOSHI POLICE STATION, BORADEWADI MOSHI, Pune, Maharashtra, 412105--27ABRFM5040Q1ZI--",9207538957,,PUNE,,412105,MAHARASHTRA,DISTRICT
CHANDAN PANDA,"AVIK HHI ENTERPRISE C/O GHATUYA KANTHI , KANTHI , PURBA MEDINIPUR , WEST BENGAL",9434147011,,MEDINIPUR,,721433,WEST BENGAL,DISTRICT
M/S BASANTI ENTERPRISES,"SMT. BASANTI DASH PLOT .NO - 133/592 , KHATA NO 185/ 323 , KANTAPAL , CHARAMPA , BHADRAK GST NO ====== 21EAKPD5548A1Z7",7377372031,,BHADRAK,,756100,ORISSA,WAREHOUSE
YAWAN GURUNG,"YAWAN GURUNG C/O OLD ELECTRICITY JUDGE BAZAR , DARJEELING , WEST BENGAL =19AQRPG3196J1Z6",7908278505,,DARJEELING,,734101,WEST BENGAL,DISTRICT
SHREE SHYYAM ENTERPRISES,"TEJ RAM AGGARWALL ,WARD NO -6 , PACHIM BORAGAON , VIGYAN PATH , NIZARAPUR, GUWAHATI GST NO. ====18AEGFS3723N1ZK",9950330092,,GUWAHATI,,781028,ASSAM,WAREHOUSE
MALA DIPAK MAHESHGAWLI,"YES HERBAL INDIA C/O BRAHMKUMARI CHOWK, GONDIA , MAHARASHTRA",9421712665,,GONDIA,,441601,MAHARASHTRA,DISTRICT
SK MD JAVED,"JPS TRADERS C/O DN - 59 , SHASTRI AVENUE NEAR TENINS CLUB BIDHANNAGAR , DIST - DURGAPUR , W.B.",9161438802,,DURGAPUR,,713212,WEST BENGAL,DISTRICT
CHHOTI DEVI,"SAHAJ ENTERPRISES C/O BHILWARA , RAJASTHAN",7737836352,,BHILWARA,,311001,RAJASTHAN,DISTRICT
AASHIMA NIGHAWAN,"AASHIMA NIGHAWAN C/O H NO.106/15 , SAI DASS COLONY , ROHTAK , HARYANA",7206784366,,ROHTAK,,124001,HARYANA,DISTRICT
AL HERBAL INDIA,"YASMEEN HASSAN C/O H NO.123 , DABKI ROAD , GRAM DABKI JUNARDAR , SAHARANPUR , U.P.=== GST NO === 09BBRPH8281B1ZD",7060042724,,SAHARANPUR,,247001,UTTAR PRADESH,DISTRICT
PRADEEP KUMAR HRY,"PRADEEP KUMAR C/O H NO. 831/5, WARD NO.10 , MOHAN NAGAR , SARSWATI ,THANESAR , KURUKSHETRA , HARYANA",8708510790,,KURUKSHETRA,,136118,HARYANA,DISTRICT
VALASAREDDY INDIRA,"SRI KAMADHENU ENTERPRIS C/O 13-6-600/44/102,NEAR PARTHA DENTAL HOSPITAL,TIRUPATI,ANDHRA PRADESH",9666980566,,TIRUPATHI,,517501,ANDHRA PRADESH,DISTRICT
KUNAL HEALTHY PROSPEROUS LIFE CENTER,"SUSHMA C/O H NO.4 , ANAND GARDEN , SEC 105 , NEAR RAJENDRA PARK , THANA , GURGAON , HARYANA",9953148019,,GURGAON,,122001,HARYANA,DISTRICT
SUNEJA MULTITRADE,"LOKESH C/O B-15 , NAKODA COLONI , BARAN , BARAN , RAJASTHAN",9214432407,,BARAN,,325205,RAJASTHAN,DISTRICT
VISION GREEN CONSULTANCY SERVICES,"YES 11 MANAGEMENT SERVICES PVT LTS C/O POST OFFICE HARIPURNAYAK, H NO 32 A, CHINPUR, KUSUMKHERA, HARI ENCLAVE, COLONY, PHASE 2, HALDWANI, NANITAL UTTARAKHAND --05ASSPP9069J1ZT",9720003720,,HALDWANI,,263139,UTTARAKHAND,DISTRICT
ARUN TANEJA,"ARUN TANEJA C/O WARD NO. 5 , GALI NO. 8 , NAND COLONY , NO. 2 PEHOWA , KURUKSHETRA , HARYANA",9802125435,,KURUKSHETRA,,136128,HARYANA,DISTRICT
YUMNAM JENAN SINGH,"YUMNAM JENAN SINGH C/O NEAR MAIPAK HIGH SCHOOL , THOUBAL, HAOKHA MAMANG LEIKAI THOUBAL MUNICIPALITY , THOUBAL , MANIPUR",7085203330,,THOUBAL,,795138,MANIPUR,DISTRICT
TRUPTI AJAY MHATRE,"KAMALANANTTA ENTERPRISE C/O SHRI SAMPANDA BLDG G.5 NEAR GOD DEV NAKKA GOD DEV VILL - BHAYANDAR , EAST THANE , M.H.",8652334949,,THANE,,401105,MAHARASHTRA,DISTRICT
HVS ENTERPRISES,"MOBIN ALI C/O KANIHYA VIHAR , KARGI GRANT , DEHRADUN , UTTARAKHAND === GST NO === 05ALZPA3878N1ZA",8979957131,,DEHRADUN,,248001,UTTARAKHAND,DISTRICT
RAJU PRASAD,"R.P. ENTERPRISES C/O BILAYTI PLAZA (BAGHNATH) GORAKHPUR CHAURAHA , HATA BAZAR , KUSHINAGAR , U.P.",9336602990,,KUSHINAGAR,,274203,UTTAR PRADESH,DISTRICT
SINTU KUMAR,"JAY GURUDEV HERBAL STORE C/O KABRISTAN CHOK , BENGHA RODE , SAHARSA , BIHAR",8298262820,,SAHARSA,,852201,BIHAR,DISTRICT
SANTOSH SINGH,"ADITYA ENTERPRISES C/O WARD NO.8,H NO.19-3,NEAR ROADWAYS BUS STATION GAURI BAZAR , DEORIA , U.P.",9369359687,,DEORIA,,274202,UTTAR PRADESH,DISTRICT
GOPI NAIK R,"GOPI NAIK R C/O MADAN SINGH COMPLEX MALLIKRJUNA TALKIES, OPPOSITE SHIMOGA (D), KARNATAKA",9643485773,,SHIMOGA,,577201,KARNATAKA,DISTRICT
SUNIL KUMAR JAISWAL,"SUNIL KUMAR JAISWAL C/O SINDHORA , DIST - VARANASI , U.P.",9838481225,,VARANASI,,221208,UTTAR PRADESH,DISTRICT
C. VANLALRUATI,"HANNAH ENTERPRISE C/O SALEM VENG , DIAKKAWN , DIST - KOLASIB , MIZORAM",9862931030,,KOLASIB,,796081,MIZORAM,DISTRICT
MALSAWMDAWNGZELA,"PUIPUI STORE C/O Chaltlang Lily Veng , City : Aizawl , MIZORAM",8787528547,,AIZAWL,,796001,MIZORAM,DISTRICT
RAMNEIHMAWIA,"RAMNEIHMAWIA C/O Lower Chanmari II, Aizwal , MIZORAM",7005525870,,AIZAWL,,796261,MIZORAM,DISTRICT
PRINCE HHI DEPO,"YASHOMATI AJIT SAV C/O ADD .. GONDWANA NAGAR, OPP URDU SCHOOL, NEAR SHENDE POLICE HOUSE , KOSARA ( PADOLI ) CHANDERPUR",9921036377,,CHANDERI,,442401,MAHARASHTRA,DISTRICT
AMRENDRA KUMAR PRASAD,"MAA LAXMI ENTERPRISES C/O AT - RAM NAGAR , BY PASS ROAD , SANDHA , CHAPARA , (SARAN) , BIHAR",7979747336,,CHAPARA,,841301,BIHAR,DISTRICT
MUKESH KUMAR DF,"M/S HIMALAYA ENTERPRISES C/O AT - PRABHAT NAGAR , WARD NO. 13 , NEAR HOTEL SAROVAR GRAND BHAGWANPUR , MUZAFFARPUR , BIHAR",7461029238,,MUZAFFARPUR,,842002,BIHAR,DISTRICT
SALEHA TABASSUM,"SALEHA TABASSUM C/O VILL - PESRABAHIYAR 6 NO. PO CHAITADIH , PS - GIRIDIH MU , GIRIDIH , JHARKHAND",9334188662,,GIRIDIH,,815301,JHARKHAND,DISTRICT
S.G. ENTERPRISES,"BANITA C/O BENIWAL MOHALLA , MATA MANDIR ROAD , SAMALKHA , PANIPAT , SAMALKHA , HARYANA === GST NO === 06AQCPB4363K1Z0",9215624428,,PANIPAT,,132101,HARYANA,DISTRICT
D/F ANIL KUMAR,"ANIL KUMAR C/O AT - 108 , WARD NO. 10 , GOHANA , JANAK PURA , GOHANA , SONIPAT , HARYANA",9034740016,,SONIPAT,,131301,HARYANA,DISTRICT
SUNYABASI JENA,"SUNYABASI JENA C/O AT - NETAPUR , PO - ARILO , VIA - BALIKUDA , JAGATSINGHPUR , ORISSA",9777484954,,JAGATSINGHAPUR,,754106,ORISSA,DISTRICT
HARE KRISHAN SHARMA,"HARE KRISHAN SHARMA C/O JANTA COLONY , WARD NO. 17 , LADNU , NAGAUR , LADNUN , RAJASTHAN",6350534993,,LADNUN,,341306,RAJASTHAN,DISTRICT
SATYANARAYAN PATRA,"PATRA COMMUNICATION C/O AT - MAHARAKUL , PO - ARGAL , GOBINDPUR , KUTCHERY , AUL , DIST - KENDRAPARA , ORISSA",7008631543,,KENDRAPARA,,755061,ORISSA,DISTRICT
BHAWANI JWELERS,"HARINARAYAN BARVE C/O AT - HATTA DIST - BALAGHAT , MADHYA PRADESH === GST NO === 23AXQPB2082G1ZP",8989523919,,BALAGHAT,,481226,MADHYA PRADESH,DISTRICT
HARDEEP KUMAR DF,"HARDEEP KUMAR C/O AT - BHERTHAL , YAMUNA NAGAR , HARYANA",7082172500,,YAMUNANAGAR,,135001,HARYANA,DISTRICT
VIDYA DEVI PUROHIT,"VIDYA DEVI PUROHIT C/O AT - WARD NO. - 8 , GANESHPURA , NAVALGARH , JHUNJHUNU , R.J.",8279233104,,JHUNJHUNU,,333042,RAJASTHAN,DISTRICT
JEWSANE ASSOCIATION,"JEWSANE ASSOCIATION C/O VILL + PO - ONDA , DIST - BANKURA",9091673398,,BANKURA,,722144,WEST BENGAL,DISTRICT
KAMAL GASES,"KAMAL KISHORE C/O OPP. ST. FRANCIS ACADEMY , NARAINGARH ROAD , KALA AMB , TEH - NARAINGARH , DIST - AMBALA , HARYANA === GST NO === 06ASQPK9776R1ZC",9812640908,,AMBALA,,134203,HARYANA,DISTRICT
VAISHNAVI ENTERPRISES,"ASHISH AGGARWAL C/O AT - Gali No 12, Near Geeta Ashram School,Gandhi Colony, Muzaffarnagar, Uttar Pradesh === GST NO === 09AKZPA2199P1Z4",9412112305,,MUZAFFARNAGAR,,251001,UTTAR PRADESH,DISTRICT
SAVIDGE M. MALSAWMSANGA,"CHHAKCHHUAK HHI C/O AT - 45 , LAWNGTLAI , NEAR UPC (NE) CHURCH , LAWNGTLAI , MIZORAM",9612979228,,LAWNGTLAI,,796891,MIZORAM,DISTRICT
NIGAM ENTERPRISES,"TANMAYA KUMAR BARAL C/O GROUND FLOOR, PLOT NO. 1870, AT- RAHAMA, POST- RAHAMA, Jagatsinghapur, Odisha === GST NO === 21ARJPB6702G2ZC",7735305825,,JAGATSINGHAPUR,,754140,ORISSA,DISTRICT
SHARMA S SONS,"NARINDER KUMAR SHARMA C/O AT - SHOP NO. 6 , SM 6 , SHASTRI NAGAR , GHAZIABAD , UTTAR PRADESH === GST NO === 09CLGPS5641L1ZG",9911477369,,GHAZIABAD,,201002,UTTAR PRADESH,DISTRICT
BHAGYALAKSHMI C,"BHAGYALAKSHMI C C/O # 218-1053 , C P ROAD , MALUR , KOLAR , KARNATAKA",9738522712,,KOLAR,,563130,KARNATAKA,DISTRICT
MALSAWMKIMA,"NUNMAWII VARIETY STORE C/O L72/A-4 , SEC - 111 , NEAR H/S CHAWNPUI , AIZAWL , MUNICIPAL COUNCIL , AIZAWL , MIZORAM",8259003944,,AIZAWL,,796009,MIZORAM,DISTRICT
ANAMIKA PUJA,"ANAMIKA PUJA C/O AT SDO ROAD,NEAR G A INTER SCHOOL,HAJIPUR,VAISHALI,BIHAR",9999992985,,VAISHALI,,844101,BIHAR,DISTRICT
J F LALREMRUATA,"MS STORE C/O Hunthar, Company Peng, Aizawl , Mizoram",9612195512,,AIZAWL,,796001,MIZORAM,DISTRICT
JADAV JIGNESH JAYENDRABHAI,"JADAV JIGNESH JAYENDRABHAI C/O AT - OLD DARSHAN SCHOOL,BEHIND RATANPUR,SURENDERNAGAR,GUJRAT",9898259679,,SURENDRANAGAR,,363020,GUJARAT,DISTRICT
RINKU SINGH,"RINKU SINGH S/O CHAMAN LAL , VILL - DALLA , PO - QADIAN , TEH - BATALA , DIST - GURDASPUR , PUNJAB",6284719510,,GURDASPUR,,143516,PUNJAB,DISTRICT
SARITA DEVI DF,"SARITA HHI HERBAL ENTERPRISES C/O AT / PO - NARPATGANJ , HAAT ROAD ,NH 57 , FORBESGANJ , DIST - ARARIA , BIHAR",8002731551,,ARARIA,,854335,BIHAR,DISTRICT
S/F POOJA MANN,"POOJA MANN C/O DHOLA , KUVA , HAJWANA , KAITHAL , HARYANA",9541239004,,KAITHAL,,136026,HARYANA,DISTRICT
MARUTI ENTERPRISES,"SURENDRA KUMAR KUMAWAT C/O AT -NEAR GATE OF SHYAM MANDIR , FRONT OF DHAYAL HOSPITAL , RINGS , SIKAR , R.J.=== GST NO === 08GKKPK0958P1ZA",7222818872,,SIKAR,,302020,RAJASTHAN,DISTRICT
LALRAMDINTHARI,"HHI 07 C/O AT - CHANMARI , LAWNGTLAI , MIZORAM",8794025035,,LAWNGTLAI,,796891,MIZORAM,DISTRICT
GOKUL CHANDRA SARKAR,"SADHANA STORE C/O AT -4A / 63 , ashoke avenue open market durgapur , WEST BARDDHAMAN , W.B.",8101738824,,BARDHAMAN,,713204,WEST BENGAL,DISTRICT
GUNJAN KARN,"GUNJAN KARN C/O AT - C-7 , BRIJ VIHAR AGAR NAGAR , PREM NAGAR , KIRARI SULEMAN NAGAR , NORTH WEST DELHI",9212328145,,DELHI TANDA,,110086,NEW DELHI,DISTRICT
DINESH KUMAR KUMAWAT,"KUMAWAT ENTERPRISES C/O AT - WARD NO.22 , PURA CHABARA RASTA , CHHIPA BAROD , BARAN , R.J.",9571147495,,BARAN,,325221,RAJASTHAN,DISTRICT
ERIC LALHRUAITLUANGA,"ERIC LALHRUAITLUANGA C/O AT - 1, Siaha Vaiphi -II, Siaha, Saiha, Mizoram === GST NO === 15APOPL6022Q1ZD",8974213445,,SAIHA,,796901,MIZORAM,DISTRICT
RAKESH KUMAR DF,"MAA JAANKI ASSOCIATE C/O AT - SIMRAHI BAZAR, IN FRONT OF POLYTECHNIC COLLEGE GATE, (MANSAPUR CHOWK) SUPAUL, BIHAR",9570818837,,SUPAUL,,852215,BIHAR,DISTRICT
SANJAY KUMAR PUC,"MOON ENTERPRISES C/O AT - GAZIPUR SABHACHAND, HARGANPUR , BIJNORE, U.P.",7248741532,,BIJNORE,,246762,UTTAR PRADESH,DISTRICT
CHAWNGMAWLII,"J.R.J. Variety store C/O AT - Tuikhur hlu, Seling , dist - Aizawl , Mizoram",9366434962,,AIZAWL,,796161,MIZORAM,DISTRICT
BHASKAR SAIKIA,"GORIMA ENTERPRISE C/O AT - SIVASAGAR TOWN.P.O.- SIVASAGAR , P.S.- SIVASAGAR , Dist.-SIVASAGAR , ASSAM",8638968584,,SIVASAGAR,,785640,ASSAM,DISTRICT
AASHISH KUMAR,"AASHISH KUMAR C/O AT - H. NO. 343 , WARD NO . 8 , RAJAN CHOWK, HANSI , HISAR , HARYANA",7988904103,,HISAR,,125033,HARYANA,DISTRICT
MOHINI SANTOSH GANDHILE,"SHRI SAI MART C/O AT - Aaba Mandhare Collony, Karanje Nagar No. 2 ,Shikrapur , Tq. Shirur , Dist. Pune",8308557083,,PUNE,,412208,MAHARASHTRA,DISTRICT
RAKESH KUMAR DISTRICT SHOP,"HHI Kamla ayurved &Genral store C/O AT - MOTIPUR , MUZAFFARPUR , BIHAR",7634975657,,MUZAFFARPUR,,843111,BIHAR,DISTRICT
M S ENETRPRISES,"MOHD. SHUAIB C/O AT GALI NO 1, KAILASH VIHAR, BEHAT ROAD, SAHARANPUR, Saharanpur, Uttar Pradesh, 247001--09FEDPS9279R1Z1--",7599316815,,SAHARANPUR,,247001,UTTAR PRADESH,DISTRICT
M/S HANUMAN ENTERPRISES,"NAVIN KUMAR C/O AT NA, BERAI, KATRA, Muzaffarpur, Bihar,=====10BXHPK3955R1Z0=====",8789151610,,MUZAFFARPUR,,843129,BIHAR,DISTRICT
SRIKRISHNA ENTERPRISE,"ADD - SHOP NO. 594 , NETAJI SUBHAS ROAD , AGARTALA , TIRPURA === GST === 16AAVFS7516A1Z1",9436122300,,AGARTALA,,799001,TRIPURA,DISTRICT
AMARJIT KAUR,"LAVANYA ENTERPRISES C/O AT - H NO. 404 , SHAHEED BHAGAT SINGH COLONY BY PASS ROAD , JALANDHAR , PUNJAB",8968898646,,JALANDHAR,,144008,PUNJAB,DISTRICT
MISTRY & SONS,"MUKESH JAYANTIBHAI MISTRY HUF C/O GROUND FLOOR, SHOP GF A-8, MALAGAR COUNTY 2, B/H NIRMA UNIVERSITY S G HIGHWAY, TRAGAD, Ahmedabad, Gujarat, 382470 24AASHM0716P1ZQ",9023073776,,AHMEDABAD,,382470,GUJARAT,DISTRICT
KRITIKA ENTERPRISES,"KUMARI BHARTI C/O AT VILLAGE-SALARPUR, OPP- CHANDRA HIGHTS, MAIN DADRI ROAD, SECTOR-101 NOIDA, Gautam Buddha Nagar, Uttar Pradesh, 201304--09BKQPB2246A1ZI--",9654066630,,NOIDA,,201304,UTTAR PRADESH,DISTRICT
PARDEEP KUMAR UP,"Deepu Health Enterprises C/O AT - Nawabganj Tiraha, Bartal, Farukkhabad, U.P.",9936201923,,FARRUKHABAD,,207501,UTTAR PRADESH,DISTRICT
ANITA TRADERS,"JADABENDRA MAHATA C/O AT - KADAMKANAN , JHARGRAM , PASCHIM MEDINIPUR , WEST BENGAL , W.B.--19CQNPM0296D1ZK--",7900012450,,JHARGRAM,,721507,WEST BENGAL,DISTRICT
BISWANATH GOPE,"BISWANATH GOPE C/O AT - FILTER HOUSE , ALIPURDUAR , JALPAIGURI , DAMANPUR , W.B.",6294356317,,JALPAIGURI,,736123,WEST BENGAL,DISTRICT
CHANDRA KUMAR PRADHAN,"CHANDRA KUMAR PRADHAN C/O ASHOK PRADHAN, ASHOK PRADHAN, GOLITAR, GOLITAR, East Sikkim, Sikkim, 737134--11CSMPP5906Q1Z4",8016668019,,RANGPO,,737134,SIKKIM,DISTRICT
HINGULA RANA,"Hingula Enterprice C/O AT - Mankadjhola, Bankamba, Rayagarh,ORISSA",8280425647,,RAYAGADA,,765016,ORISSA,DISTRICT
PRADEEP KUMAR DISTRICT SHOP,"PRADEEP KUMAR C/O AT - JIGNA , MANJHRIYA , VIKRAM , BASTI , U.P.",9984675660,,BASTI,,272002,UTTAR PRADESH,DISTRICT
SANJEETA MOHANTY,"LUCKY STORE C/O AT - UPARDIHA PO:-KUSUNPUR DIST:- KEONJHAR , ODISHA",7978786228,,KENDUJHAR,,758027,ORISSA,DISTRICT
MAA SHARDA ASSOCIATE,"ALOK KUMAR C/O H/O DHARMENDRA KUMAR, PUNPUN MASAURHI ROAD, VILL MANORA TOLA-ALLAUDINCHAK, PATNA BIHAR----10DHZPK8375R1Z5----",8083209814,,PATNA,,804453,BIHAR,DISTRICT
LAKSHAY RANA,"JATTRANA ENTERPRISES C/O AT -H NO. 47 , JAVAHAR NAGAR BANAT , PS - AADARSH MANDI , SHAMLI , U.P.",9759668828,,MUZAFFARNAGAR,,247776,UTTAR PRADESH,DISTRICT
SARSWATI GANPAT GOTARANE,"SARSWATI GANPAT GOTARANE C/O AT - 1088/002, Saraswati Apt, Panchshil Nagar, Wafale Road, Padgha, Tal. Bhiwandi, Dist. Thane, M.H.",8668655529,,THANE,,421101,MAHARASHTRA,DISTRICT
JAYASHREE PAUL,"JAYASHREE PAUL C/O AT - SARENGA , HAORA , W.B.",6291532892,,HOWRAH,,711309,WEST BENGAL,DISTRICT
DEEPAK KUMAR DF,"MAA BHAGWATI HERBAL CENTRE C/O AT - Sikarhatti, Shipur Gadhiya, Kumarkhand , Madhepura , Bihar",9608882125,,MADHEPURA,,852112,BIHAR,DISTRICT
SUCHITRA TIWARY,"SUCHITRA TIWARY C/O AT - LOCO BAZAR , PATHERDIH , SABALDIH , DHANBAD , JHARKHAND",8825397669,,DHANBAD,,828119,JHARKHAND,DISTRICT
VMS LOGISTICS INDIA PVT LTD,BHAVYA GURUPRASAD C/O AT - No.KT-4-242/2A | Kote Village | Udupi |Karnataka=== GST === 29DBFPS6780A1ZC,9740218147,,UDUPI,,574105,KARNATAKA,DISTRICT
MD TAHIR,"MD TAHIR C/O AT - MAMAAHRI , KHORIMAHA , RAJ DHANWAR , GIRIDIH , JHARKHAND",9386342655,,GIRIDIH,,825412,JHARKHAND,DISTRICT
MRITUNJAY SINGH,"MRITUNJAY SINGH C/O AT - PATPUR , BAHARAGORA , EAST SINGHBHUM , JHARKHAND",7667117075,,SINGHBHUM,,832101,JHARKHAND,DISTRICT
HARDIK,"HARDIK C/O AT - H NO. 39B , BLOCK , KALKAJI , SOUTH DELHI , DELHI",9877557661,,DELHI TANDA,,110019,NEW DELHI,DISTRICT
SURYA SEN SINGH DF,"SURBHI HERBAL ENTERPRISES C/O AT - DEVI DYAL MARG , LODHIPUR , JAMANIA , GHAZIPUR ,U.P.",6306738647,,GHAZIPUR,,232329,UTTAR PRADESH,DISTRICT
SABEK KHAN,"SABEK KHAN C/O AT -BAHERI , BALLIA , U.P.",9129264988,,BALLIA,,277001,UTTAR PRADESH,DISTRICT
SHARAFAT HUSAIN,"SHARAFAT HUSAIN C/O AT - KANAPUR , SHEOPUR , M.P.",9685331367,,SHEOPUR,,476337,MADHYA PRADESH,DISTRICT
BS TRADERS,"SOUDAMINI SAHOO C/O AT - PO-M ACHHALO , DIST - KEONJHAR , ODISHA",7978238258,,KEONJHAR,,758043,ORISSA,DISTRICT
SHIYA ENTERPRISES,"VIJAY KUMAR VERMA C/O AT - KHATA NO. 14, MOUZA - BERGO, GIRIDIH, Giridih, Jharkhand,=== GST NO === 20BGQPV0785G1Z3",7903023283,,GIRIDIH,,815301,JHARKHAND,DISTRICT
MD.EMAM BISWAS,"BISWAS ENTERPRISE C/O AT - SR COMPLEX SHOP NO. 4 NEAR INDIAN OIL PETROL PUMP RAJMAHAL ROAD BARHARWA VILLEGE-TETULIA, PO. BARHARWA DIST:- SAHIBGANJ JHARKHAND",7462020614,,SAHIBGANJ,,816101,JHARKHAND,DISTRICT
SMART SHOPPY,"UPENDRA MISHRA C/O KAREEM NAGAR C 344 PHASE 4 RAPTINAGAR GORAKHPUR , U.P.=== GST NO === 09ACZFS4214M1ZA",9839212260,,GORAKHPUR,,273003,UTTAR PRADESH,DISTRICT
OSIYA SALES CORPORATION,"GANESH PRAVIN OSTWAL C/O AT - G. NO. 264, KAREGAON, KAREGAON, Pune, M.H. === GST NO === 27AALPO6620P2Z0",9850246666,,PUNE,,412208,MAHARASHTRA,DISTRICT
DOLI BISWAS,"SRI GOPAL ENTERPRISE C/O AT -DEBIPUR, CHANDPARA NORTH 24 PARGANAS ,WEST BENGAL,",8250291514,,PARGANAS,,743245,WEST BENGAL,DISTRICT
SRI VEERA VENKATA LAKSHMI TRADERS,"KAKARLA SIVA SANKARA PRASAD C/O 12-49, KANKIPADU, KANKIPADU, Krishna, Andhra Pradesh === GST === 37JCRPK5307J1ZZ",7075882805,,KRISHNA,,521151,ANDHRA PRADESH,WAREHOUSE
MAHATA ASHITBARAN,"MAHATA ASHITBARAN C/O AT - 55,Mansi Residency , Near C.R. patil road, Dindoli, udhna , Surat , GUJARAT",9824406501,,SURAT,,394210,GUJARAT,DISTRICT
MD ISARAFIL,"MD ISARAFIL C/O AT - PRATAPUR , BARAHAKURWA , WARD NO. 1 , SUPAUL , BIHAR",8873224713,,SUPAUL,,852139,BIHAR,DISTRICT
LALZIKPUII,"Pachuau Store C/O AT - Hnahthial, Chandmari , LUNGLEI , MIZORAM",9862803211,,LUNGLEI,,796571,MIZORAM,DISTRICT
KAVITA SUBHASH KEMAYE,"SHRI SAI SWADESHI ORGANIC BHANDAR C/O AT - PRAGATI COLONY PIMPALNERI ROAD , CHIMUR ,",9637681366,,CHANDRAPUR,,442903,MAHARASHTRA,DISTRICT
DEEPAK SUMAN,"DEEPAK SUMAN C/O AT - NAGDI , NAGDA , SHEOPUR , M.P.",9977365010,,SHEOPUR,,476337,MADHYA PRADESH,DISTRICT
M/S INDIAN ASSOCIATES,"SHAMSHER KHAN C/O AT - H.NO- 99 H.I.G, FASE-3, TATYA TOPE NAGAR, TATYA TOPE NAGAR, Kanpur Nagar, Uttar Pradesh, 208022--09DNZPK5881A2ZC",8081398174,,KANPUR,,208022,UTTAR PRADESH,DISTRICT
KIRTI ENTERPRISES,"ROSHAN RAI C/O BHARAT RAI , TRIKALESHWAR MW , NEAR PRAKING PLAZA , JORETHANG NAGAR PANCHAYAT , SILIGURI GST NO ==== 19BTVPR0049B1ZF",8348379282,,SILIGURI,,734001,WEST BENGAL,WAREHOUSE
PINTU KUMAR DF,Hindustan trending company C/O AT - Chandravanshi Nagar G.T Road Near Hotel shersah vihar Sasaram Rohtas Bihar,7070149592,,ROHTAS,,821115,BIHAR,DISTRICT
GANGISETTI RAMBABU,"GANGISETTI RAMBABU C/O AT - 5-69 , CHALLAPALLE , KRISHANA , ANDHRA PRADESH",9440757374,,KRISHNA,,521126,ANDHRA PRADESH,DISTRICT
MOHAN LAL,"MARK ENTERPRISES C/O AT - AJAIB (108) , ROHTAK , HARYANA",9891864862,,ROHTAK,,124111,HARYANA,DISTRICT
SANGKUNGI,"SK ENTERPRISE C/O AT - NGOPA , CHAMPHAI , MIZORAM",9612874624,,CHAMPHAI,,796290,MIZORAM,DISTRICT
RAJU YADAV DF,"RIYA ENTERPRISES C/O AT - LALDIH , NEAR EMP. EXCHANGE OFFICE , PO - GHATSILA , DIST - EAST SINGHBHUM , JHARKHAND",8340614478,,SINGHBHUM,,832303,JHARKHAND,DISTRICT
P.C.LALLIANMAWII,"PARADISE 37:5 SWEET SPOT C/O AT - SELLING , DAWRKAWN , AIZAWL , MIZORAM",9862248990,,AIZAWL,,796161,MIZORAM,DISTRICT
AVADHSHARAN RAMSUNDER KUSHVHA,"AVADHSHARAN RAMSUNDER KUSHVHA C/O AT RAM CHANDRA NIWAS BUILDING,SHOP NO.23,RAM MARUTI MARG,N.C KEL KAR ROAD,OPPOSITE SHIVAJI PARK,POLICE STATION,DADAR,MUMBAI,MAHARASHTRA",8655191923,,MUMBAI,,400028,MAHARASHTRA,DISTRICT
NEW VARINDER ENTERPRISES,"DALBIR KAUR C/O AT -Shop No. 949, Ground Floor, Mattour, Sector-70, SAS Nagar, SAS Nagar, MOHALI , PUNJAB ===03EBTPS6100R1ZY===",9815573065,,KHARAR,,160071,PUNJAB,WAREHOUSE
SHUBH KARAN DF,"S.K.ENTERPRISES C/O AT - MANASI , SIKAR , KUMAS , RAJASTHAN",9571465611,,SIKAR,,332311,RAJASTHAN,DISTRICT
SEBASTIAN KACHHAP,"SEBASTIAN KACHHAP C/O AT - 155 DHUPGURI , JALPAIGURI",7001592805,,JALPAIGURI,,735312,WEST BENGAL,DISTRICT
DANDEKAR BABASAHEB,"DANDEKAR BABASAHEB C/O AT - Opp. LIC Building Complex, Ramgopal Area, Bhainsa Dist. Nirmal , TELANGANA",9848037481,,NIRMAL,,504103,TELANGANA,DISTRICT
ZANEISANG THIEK,"Happy Health Store C/O AT - Bridge Street, Rengkai, Churachandpur, Manipur",7005925281,,CHURACHANDPUR,,795128,MANIPUR,DISTRICT
GANESH SOPANRAO BHOGE,"Shree Mangalmurti Swadeshi Organic Bhandar C/o Nilesh Ambatkar, behind old pawade nursing home, Gondplot wardha. M.H.",9096968089,,WARDHA,,442001,MAHARASHTRA,DISTRICT
ASHIYA ANSARI,"ASHIYA ANSARI C/O AT - NIZAMUDIN MARKET , HARIJANO WALI PULIA , SEOHARA , BIJNORE , U.P.",9410263297,,BIJNORE,,246746,UTTAR PRADESH,DISTRICT
HAPPY HEALTH,"NANU RAI C/O AT - 1, 1, HILL CART ROAD, SILIGURI, Darjeeling, West Bengal === GST NO === 19AFOPR4475D1ZY",9832079889,,SILIGURI,,734003,WEST BENGAL,DISTRICT
NARAYAN TIRKEY,"NARAYAN TIRKEY C/O AT - SOONGACHI T.E, MAL, MAL, Jalpaiguri, West Bengal, 735221-----19AJMPT8172B1ZR--",9749576533,,JALPAIGURI,,735221,WEST BENGAL,DISTRICT
BINA GUPTA,"BINA GUPTA C/O AT - NALANDA COLONI,NEAR OLD TOP TETAR TOLI.MORYA , COLONI,BARIYATU , RANCHI, JHARKHAND",7004690343,,RANCHI,,834001,JHARKHAND,DISTRICT
ASHISH MARKETING,"NAYAN CHANDULAL SANGHAVI C/O SHOP NO. 1,2, PLOT NO. 460, OPP. MUNICIPAL HOSPITAL, TURBHE, RAIGAD, MAHARASHTRA, ==GST NO. - 27AAKPS3068G1ZD",9594749197,,RAIGAD,,400705,MAHARASHTRA,WAREHOUSE
RAMA CHANDRA SAHOO,"R S ASSOCIATES C/O AT JAGATPUR, CUTTACK",9937472742,,CUTTACK,,753004,ORISSA,DISTRICT
RAKESH KUMAR DISTRICT,"RAKESH KUMAR C/O AT - KHERI , JAIPLA , BARAN , CHHABRA , R.J.",6375470655,,BARAN,,325220,RAJASTHAN,DISTRICT
DEEPAK KUMAR SHRIVASTAVA,"DEEPAK KUMAR SHRIVASTAVA C/O AT - DP KE PASS,MANOHAR JI KUSHWAHA KA MAKAN,NEHRU COLONY,STATION ROAD,SEHORE,MADHYA PRADESH",9425605071,,SEHORE,,466001,MADHYA PRADESH,DISTRICT
MAA HERBAL ENTERPRISES,"PRAVEEN KUMAR C/O AT - BANKMORE TEXTILE MARKET,2ND FLOOR,NEAR CITY STYLE, DHANBAD , JHARKHAND",7992322523,,DHANBAD,,828106,JHARKHAND,DISTRICT
JHILMIL ENTERPRISES,"RUBY C/O AT - MAIN BAZAR , NEAR BLOCK , VPO - BINAULI , BAGHPAT , U.P. === GST NO === 09CLBPR7766L1Z8",8218787581,,BAGHPAT,,250645,UTTAR PRADESH,DISTRICT
PAVAN KUMAR DIST.SHOP,"Kamalavati Enterprises C/O AT Rohaniya Gangapur road varanasi , U.P.",9026820159,,VARANASI,,221106,UTTAR PRADESH,DISTRICT
RAZIA SARKI,"SHOP VALUE STORE ,C/O AT RANGPO,NEAR FLYOVER BRIDGE,NH 10,RANGPO BAZAR,EAST SIKKIM,SIKKIM",8670029100,,RANGPO,,737132,SIKKIM,DISTRICT
LUSHA AANNI MENEKSHA,"MY ANGLE STORE C/O AT SHOP NO.517,1ST FLOOR,BISMI COMPLEX,PATHANAPURAM,KOLLAM,KERALA",9730258705,,KOLLAM,,689695,KERALA,DISTRICT
SAI SWASTIK ENTERPRISES,"SIBA SAHOO C/O AT KAKATPUR, DIST- PURI, ORISHA",9583538849,,ALIPUR,,754145,ORISSA,DISTRICT
DURGA BHARAT MOHALIK,"CHAITAN ENTERPRISES C/O AT POST - HENGUPATI, VIA - PIRHAT, DIST - BHADRAK ORRISA",9438003959,,BHADRAK,,756131,ORISSA,DISTRICT
EMA EMOINU GROUPS,"LAISHRAM MEMCHA DEVI C/O AT THANGMEIBAND LOURUNG PUREL LEIKAI, IMPHAL MUNICIPAL COUNCIL IMPHAL MUNICIPAL COUNCIL IMPHAL WEST MANIPUR",8787716268,,IMPHAL,,795004,MANIPUR,DISTRICT
MUKESH YADAV,"KANHA ASSOCIATE C/O AT WARD NO 07, BADI KUNDI KE PASS, KARANAS, RAJGARH, MADHYA PRADESH",9770370727,,RAJGARH,,465683,MADHYA PRADESH,DISTRICT
JITENDRA BAIRAGI,"JITENDRA BAIRAGI C/O AT HOUSE NO - 77, WARD NO - 20, PAWAR, HAUSMOHALLA, SINGAWADA, DEWAS, MADHYA PRADESH",9926482863,,DEWAS,,455001,MADHYA PRADESH,DISTRICT
MANAS KUMAR DAS D/F,"MANAS KUMAR DAS C/O AT BINAYAKPUR, KHARIDA, BHADRAK ORRISA",9668299604,,ALIPUR,,756125,ORISSA,DISTRICT
DHANRAJ SONI,"DHANRAJ SONI C/O AT GAYATRI MANDIR KE PASS , CHOUTH MATA KE MANDIR KE SAMNE, BARAN, MDG RAJASTHAN",9782791414,,BARAN,,325205,RAJASTHAN,DISTRICT
LALRUATSANGA,"FAITH HILL C/O AT V-91,DAWRVENG,CHAMPHAI,NEAR CHANEM,CHAMPHAI,MIZORAM",8257943112,,CHAMPHAI,,796321,MIZORAM,DISTRICT
ERD SIAKENG,"ROSY ZORAMTHARI RALTE C/O AT H/No E-8, Near Faith Academy, Zonuam AIzawl, Aizawl, Mizoram ===15CRCPR1906H1ZX====",9362298843,,ALIPUR,,796009,MIZORAM,DISTRICT
YASH CHAUHAN,"YASH CHAUHAN C/O AT KANDELA SHAMLI, UTTAR PRADESH",9837825842,,MUZAFFARNAGAR,,247776,UTTAR PRADESH,DISTRICT
SRI SAI ASSOCOATE,"VINOD KUMAR S/O YOGENDRA, LIFELINE ARCADE, D NO. 19-10-562/11, FIRST FLOOR, PANDESHWRARA, MANGALURU === GST NO =29AHNPV5269J1ZB",8147068188,,MANGALORE,,575001,KARNATAKA,DISTRICT
DURGAMBHA DISTRIBUTORS,"RAGHUKUMAR C/O AT 681/1, NAZARBAD MAIN ROAD, MYSORE, MYSORE (MYSORE) KARNATKA==29AFKPR3084C1Z8==",9663332269,,MYSORE,,570010,KARNATAKA,WAREHOUSE
LALCHAND MAHTO,"PAMMI ENTERPRISES C/O HOSPITAL CHOWK , AT -BISHNUGARH , DIST - HAZARIBAG JHARKHAND",9525101095,,HAZARIBAGH,,825312,JHARKHAND,DISTRICT
LALMUANKIMI,"HHI Mamit District Stock Point C/O AT HOUSE NO - 22, FIELD VENG, NEAR FIELD, MAMIT, MIZORAM",6909703915,,MAMIT,,796441,MIZORAM,DISTRICT
M/S BHARAT ASSOCIATE,"ANIL KUMAR C/O AT SECOND FLOOR, PLOT NO. A, KHESRA NO.493, M.K COMPLEX, INDRA NAGAR, SUGAMAU CHINHAT, Lucknow, Uttar Pradesh, 226010--09DSIPK4093J1Z7--",8423039842,,LUCKNOW,,226010,UTTAR PRADESH,DISTRICT
MITHI MULTI SHOP,"ARPANA JAISWAL C/O AT KRISHNA BASANT ENCLAVE, NEAR RANI SATI MANDIR LANE, RATU ROAD, Ranchi, Jharkhand, 834001--20BRPPJ7127Q1ZA--",8709382039,,RANCHI,,834001,JHARKHAND,DISTRICT
AMIT KUMAR D/F,"ARADHYA MEGA MART C/O AT H NO - 106, WARD NO - 3, AGGDARAL MANDI, BAGPAT, TATIRI RURAL BAGPAT UTTAR PRADESH",9990473772,,BAGPAT,,250601,UTTAR PRADESH,DISTRICT
BALASAHEB BHASKAR DIGHE,"BALASAHEB BHASKAR DIGHE C/O AT SHIRUR GOLEGAONROD SHIWAJI NAGAR, TEH - SHIRUR, DIST - PUNE MAHARASHTRA",9767892817,,PUNE,,412210,MAHARASHTRA,DISTRICT
SYANBOSHREE ENTERPRISES,"MANJU TAMANG W/O C.B. TAMANG, KAIJALIA, KAIJALIA BUSTY, KAIJALIA, DARJEELING",6295858367,,DARJEELING,,734201,WEST BENGAL,DISTRICT
JAI ENTERPRISES,"VIVEK KUMAR C/O AT Near Ojha Market, Janak Nagar, Hesal, Gas Godown Road, Hehal, Ranchi, Jharkhand===20BABPK2255F1ZE====",9835746964,,RANCHI,,834005,JHARKHAND,WAREHOUSE
GINNI DEVI,"GINNI AYURVEDA HAPPY HEALTH CENTER C/O AT JASIDIH RAILWAY STATION ROAD JASIDIH,DEOGHAR, JHARKHAND",9006402733,,DEOGHAR,,814142,JHARKHAND,DISTRICT
AMALESH MAITI,"AMALESH MAITI C/O AT JOY KRISHNA PUR,MANGLAMARO,JOYKRISHNAPUR,PURBA MEDINIPUR,WEST BENGAL",9609396641,,MEDINIPUR,,721434,WEST BENGAL,DISTRICT
HARDIK PRAFUL KUMAR JAIN,"HARDIK HHI HUB C/O AF AT 26/28, SHRI GURU GANESH APRT, GRAUND FLOOR, NIVRITTI NAGAR, NEAR KARTIKEY SAWMI MANDIR JALGAON, MAHA",9156755516,,JALGAON,,425001,MAHARASHTRA,DISTRICT
MRS SOON MONI NATH,"SOON MONI ENTERPRISE C/O AT DA-HUKUTA, DULIAJAN, P.O - DULIAJAN, DIST-DIBRUGARH ASSAM",7002689097,,DIBRUGARH,,786602,ASSAM,DISTRICT
YASH BANSAL,"YASH BANSAL C/O AT CHALSA,CHALSA MAHABARI ,JALPAIGURI,WEST BENGAL",7076688679,,JALPAIGURI,,735206,WEST BENGAL,DISTRICT
ROSHANI KUMARI,BHARATI ENTERPRISES C/O AT SHUKLA TOLI (BEHIND SHEKHAR CINEMA ) SIWAN BIHAR,7654766301,,SIWAN,,841226,BIHAR,DISTRICT
PRAVIN SUBHASH CHANDANKAR,"PRAVIN SUBHASH CHANDANKAR C/O AT SR NO.75/4/1,KRUSHAN VIHAR,LANE NO-9,WAGHOLI ROAD,LOHEGAON,PUNE CITY,PUNE MAHARASHTRA",9850222139,,PUNE,,411047,MAHARASHTRA,DISTRICT
SANIDHYA SADAUL,"SANIDHYA SADAUL C/O AT ROURKELA(M),ROURKELA-4,SUNDARGARH,ODISHA",7303984492,,SUNDERGARH,,769004,ORISSA,DISTRICT
MANGUPURI GOSWAMI,"SHREE SHIDDHI VINAYAK ENTERPRISES C/O AT WARD NO.8,SHUJALPUR ROAD PACHORE,",7999191903,,RAJGARH,,465683,MADHYA PRADESH,DISTRICT
LALITA BEHERA,"LALITA BEHERA C/O AT JANUGANJ,REMUNA,SIDHESWAR COLONY,GANESWARPUR,BALESHWAR,ORISSA",9337331107,,BALESWAR,,756019,ORISSA,DISTRICT
VINOD KUMAR.,"VINOD TRADING COMPANY JHUNJHUNU C.O AT A-254 RIICO 2ND PHASE,JHUNJHUNU,RAJASTHAN",9413395011,,JHUNJHUNU,,333001,RAJASTHAN,DISTRICT
RAMBARAN KUMAR,"BUDDHA ENTERPRISES C/O AT VILLAGE BHAGAL PUR,NEAR DHIBRI POKHAR SUJATA BYPAS BODHGAYA,DIST.GAYA,BIHAR",9934693354,,GAYA,,828231,BIHAR,DISTRICT
SHAHIN PRAWEEN,"S.S GROCERY MART C/O AT MAJAR ROAD,JUNADIH,P.O-LAKHANPUR,SURGUJA,DIST-SURGUJA,STATE-CHATTISGARH",7089023557,,SURGUJA,,497116,CHATTISGARH,DISTRICT
SWEETY GUPTA,"BHAVYA MARKETING C/O AT MUNSAF ROAD JAILHATA DALTONGANJ,DISST-PALAMU,JHARKHAND",7004084841,,PALAMU,,822101,JHARKHAND,DISTRICT
MD JAMIL,"ROYAL HERBAL ENTERPRISES C/O AT VILLAGE-MOHANIA,WARD NO.16,MOHANIA,KAIMUR,BIHAR",7464071213,,KAIMUR (BHABUA),,821109,BIHAR,DISTRICT
SANTOSH KUMAR DF,"SANTOSH ENTERPRISES C/O AT KHINMINI,FARRUKHABAD,UTTAR PRADESH",9454526813,,FARRUKHABAD,,207504,UTTAR PRADESH,DISTRICT
RAM KARAN,"SHREE SALASAR BALAJI TRADING C/O AT GANPATI PLAZA NEAR HDFC BANK KE PASS,SUJANGARH,CHURU,RAJASTHAN",9950791414,,SUJANGARH,,331507,RAJASTHAN,DISTRICT
SATYANARAYAN,"SATYANARAYAN C/O AT BIJOLIYA KALAN ,BHILWARA,RAJASTHAN",9772333041,,BHILWARA,,311602,RAJASTHAN,DISTRICT
PIYUSH GANDHI,"DHANWANTRI HERBAL STORES C/O AT BESIDE NEW BUS STAND ,BHANUPRATAPPUR,KANKER CHHATTISGARH",7587889999,,KANKER,,494669,CHATTISGARH,DISTRICT
DILIP KUMAR DF,"MANGALAM AYURVEDA C/O AT MACHHALI BAZAR ROAD ,NEAR PANCHMUKHI HANUMAN MANDIR,RAXAUL,EAST CHAMPARAN,BIHAR",7903472703,,RAXAUL,,845305,BIHAR,DISTRICT
KAMAL MUKHI RAY,"KAMAL MUKHI RAY C/O AT H NO.74,NRIPEN BORA PATH,LOKHRA ROAD,NEAR B BLOCK,FATASHIL AMBARI,GUWAHATI,KAMRUP ,ASSAM",8638112397,,GUWAHATI,,781025,ASSAM,DISTRICT
DATTATRAYA GOVINDRAO PURI,"TRIMURTI C/O AT 82,GEETGOVIND,VISHAL NAGAR,LATUR,MAHARASHTRA",9822556729,,LATUR,,413531,MAHARASHTRA,DISTRICT
ARVIND KUMAR,"AGARWAL ASSOCIATE C/O AT SAKRI,SAKRI CINEAM HALL,KARI JHA MARKET,MADHUBANI,BIHAR",8409501480,,MADHUBANI,,847239,BIHAR,DISTRICT
AVILLI TUCCU,"AVILLI TUCCU C/O AT H/NO.193/B,SUPPLY COLONY,WARD NO-09,DIMAPUR SADAR,DIMAPUR,NAGALAND",8413079952,,DIMAPUR,,797112,NAGALAND,DISTRICT
MOHAMMAD KHURSHID ALAM DF,"MAHI ENTERPRISES C/O AT RAJOPATTI DUMRA ROAD ,SITAMARHI,BIHAR",7004053954,,SITAMARHI,,843301,BIHAR,DISTRICT
ARUN KUMAR MAHTO,"ARUN ENTERPRISES C/O AT PO-KAITHA,PS-RAMGARH,KAITHA,PS-RAMGARH,JHARKHAND",9835337792,,RAMGARH,,829122,JHARKHAND,DISTRICT
ASHOK DAYAL,"DAYAL AYURVEDA C/O AT TILAIYA BASTI,NEAR KALI MANDIR,JHUMRI TILAIYA,KODERMA,JHARKHAND",9661226072,,KODERMA,,825409,JHARKHAND,DISTRICT
MANGESH ANANDA ALHAT,"NATURAL PRODUCT AND HERBAL KRIYANA MALL C/O AT M MALL CHAKAN-SHIKRAPUR ROAD,SHELPIMPALGAON,TEH-KHED,DIST-PUNE,MAHARASHTRA",9117474747,,PUNE,,410501,MAHARASHTRA,DISTRICT
PALASH BORUAH,"PALASH BORUAH C/O AT SAITYA SAI MANDIR PATH ,WARD NO-08,NORTH LAKHIMPUR,ASSAM",9957049327,,LAKHIMPUR,,787001,ASSAM,DISTRICT
RAVINDRA KUMAR MEHTA,"UMA ENTERPRISES C/O AT ROOM NO.1,IST FLOOR ,CHANCHALA MARKET,HAZARIBAG,JHARKHAND",9031472717,,HAZARIBAGH,,825301,JHARKHAND,DISTRICT
TAAJ MOHAMMAD,"TAAJ MOHAMMAD C/O AT ISLAM NAGAR,JHODAL KA RASTA,ITAWA,PIPALDA,RAJASTHAN",9928751292,,PIPALDA,,325004,RAJASTHAN,DISTRICT
GIFTSON KHALING DF,"G.K. ENTERPRISES C/O AT BIYANG VILLAGE,MACHI SUB-DIVISION,CHANDEL,MANIPUR",7005019534,,CHANDEL,,795135,MANIPUR,DISTRICT
PREET SHOPING CENTER,"MANPREET SINGH C/O KOT ISE KHAN ROAD,DHARMKOT,MOGA ,PUNJAB",8872489900,,MOGA,,142042,PUNJAB,DISTRICT
DHARMPAL SAINI,"DHARMPAL SAINI C/O AT NEAR GOV.PRATHMIK SCHOOL,JALWALA,GADRATA KHETRI,GADRATA,JHUNJHUNUN,RAJASTHAN",9351233682,,JHUNJHUNU,,333501,RAJASTHAN,DISTRICT
TARUN CHAKRABORTY,"TARUN CHAKRABORTY C/O AT NACHNA,TUNGCHARAR,RANIBUNDH,BANKURA,WEST BENGAL",7551011204,,BANKURA,,722148,WEST BENGAL,DISTRICT
KANIKA DEBNATH,"KAMALPUR SHOPPING CENTER C/O Kamalpur, Dhalai, Tripura,",8974579701,,DHALAI,,799285,TRIPURA,DISTRICT
DR.BARNABAS HEMBROM,"DR.BARNABAS HEMBROM C/O AT GIRIDIH,JHARKHAND",9955773473,,GIRIDIH,,815301,JHARKHAND,WAREHOUSE
TIKAM SINGH,"AYURVEDA HEALTH CARE CENTER C/O AT DHABAIYO KA CHOK,BUNDI,RAJASTHAN",9950302038,,BUNDI,,323001,RAJASTHAN,DISTRICT
GITANJALI MISHRA,"GITANJALI MISHRA C/O AT SASTRI NAGAR,1ST LANE,GOSANINUAGAM,BRAHMAPUR,GANJAM,ODISHA",9658162147,,GANJAM,,760003,ORISSA,DISTRICT
PRINCE JAYSWAL,"JAISWAL ENTERPRISES C/O AT NAYA BAZAR,BIHARIGANJ,MADHEPURA,BIHAR",9546400266,,MADHEPURA,,852101,BIHAR,DISTRICT
SANJEET MUKHIYA,"GEETA ENTERPRISES C/O AT LALGANJ,P.O-LOHNA,SARISAB PAHI,DIST-MADHUBANI,BIHAR",7033588818,,MADHUBANI,,847424,BIHAR,DISTRICT
RAM SAHAY,"RAM SAHAY C/O AT BADEBAN CHOWNK,MNDWA NAGAR,BLAK ROAD,BASTI,UTTAR PRADESH",9839812861,,BASTI,,272001,UTTAR PRADESH,DISTRICT
BISWAS DEBNATH,"BISWAS DEBNATH C/O AT LACHIT NAGAR ,WARD NO-3,P.O-SONARI,PS-SONARI,DIST-SARAIDEW,SIBSAGAR,ASSAM",9101529277,,SIBSAGAR,,785690,ASSAM,DISTRICT
BHOK KUMAR LUITEL,"BHOK KUMAR LUITEL C/O AT RAMDHAN JOTE,UTTAR RAMDHAN,DULAL JOTE,DARJEELING,WEST BENGAL",8167392885,,DARJEELING,,734429,WEST BENGAL,DISTRICT
SAVITA,"ANUJ BHUVI BAHADURGARH SHOPPY C/O AT GALI NO .2,NEAR MEDICAL STORE ,HOUSE NO.731,WARD NO.8,SHASHTRI NAGAR ,LINE PAR,BAHADURGARH,JHAJJAR,HARYANA",9050505090,,JHAJJAR,,124507,HARYANA,DISTRICT
TSHEYANG TEMPAR NAMGYAL,"TSHEYANG TEMPAR NAMGYAL C/O AT GYALSHING,MIDDLE GYALSHING,NEAR DISTRICT HOSPITAL,LINGMO COLONY,GYALSHING,WEST SIKKIM,GYAZING,SIKKIM",9711101718,,GYALSHING,,737111,SIKKIM,DISTRICT
V CATHERINE,"V CATHERINE C/O AT 051,SEIPET RAMLUNG,P.O.UKHRUL,MANIPUR",8787682253,,UKHRUL,,795142,MANIPUR,DISTRICT
BANANI ROUT,"BANANI ROUT C/O AT BALRAMPUR,VIA-KUSHALESHWAR,PS-GHASIPURA,KENDUJHAR,ODISHA",7008409602,,KENDUJHAR,,758025,ORISSA,DISTRICT
HARSHIT GUPTA,"HARSHIT ENTERPRISES C/O AT PLOT NO.1/461,HERO KARGIL KOOTI,CHTRAKOOT YOJNA,VAISHALI NAGAR,JAIPUR,RAJASTHAN",8619933521,,JAIPUR,,302021,RAJASTHAN,DISTRICT
"M/S N.LEATHER,M/S N.ENTERPRISE","NAKIB UDDIN MOLLA C/O AT VILL - CHALTABERIA, P.O - B.CHALTABERIA, KASHIPUR, KOLKATA, South 24 Parganas, West Bengal, 743502--19BAVPM0491H1Z5--",9732677609,,PARGANAS,,743502,WEST BENGAL,DISTRICT
VISHVA PRAKASH JHAKAL,"SHUBHAM ENTERPRISES C/O AT FARRASH MOHALLA,ANGHORA,JHALAWAR,RAJASTHAN",9887068279,,JHALAWAR,,326001,RAJASTHAN,DISTRICT
SATENDRA KUMAR PUC,"SATENDRA KUMAR C/O AT GOPALPURA CITY BAZAR KE PECHHE,THATIPUR,GWALIOR,MADHYA PRADESH",9622088099,,GWALIOR,,474011,MADHYA PRADESH,DISTRICT
GANESH CHETTRI,"GANESH CHETTRI C/O AT NECHU 9TH MILE PW,LINGDOK MANPONG GPU,NAMPONG,LINGDOK,EAST,SIKKIM",7797888932,,GANGTOK,,737103,SIKKIM,DISTRICT
MAN SINGH RANGA,"KHUSHI ENTERPRISES C/O AT NEAR GOVT PRIMARY SCHOOL,DHARAMPUR ROAD,PINJOR,PANCHKULA,HARYANA",8053512577,,PANCHKULA,,134102,HARYANA,DISTRICT
TUSARKANT SWAIN,"SWAIN ENTERPRISES C/O AT KOTAPOKHARI,PS-KHANDPADA,KOTAPOKHARI,KHALISAHI,KHANDAPADA NAYAGARH,ODISHA",9861233200,,NAYAGARH,,752077,ORISSA,DISTRICT
KRUSHNA AGENCIES,"KRUSHNA AGENCIES C/O AT ITI COLLEGE ROAD,GANESH NAGAR,BULDHANA,MAHARASHTRA",9822926534,,BULDHANA,,443001,MAHARASHTRA,DISTRICT
RINCHEN DOLMA,"RINCHEN DOLMA C/O AT KATPA,LEH,JAMMU AND KASHMIR",9906227479,,LEH,,194101,JAMMU AND KASHMIR,DISTRICT
DHAN KUMARI CHETTRI,"DHAN KUMARI CHETTRI C/O AT NAMTHANG,SOUTH SIKKIM,SIKKIM",8016630063,,NAMTHANG,,737132,SIKKIM,DISTRICT
ARCHANA SUNIL SATHE,"MANAS ENTERPRISES C/O AT SATHE COLONY,NEAR SATHE GARDEN,HIRABAG,BEHIND KOTHARI WHEELS SWARGATE,PUNE,MAHARASHTRA",9021383838,,PUNE,,411002,MAHARASHTRA,DISTRICT
AGGARWAL NEXUS TRADERS,"RAMESH CHAND AGGARWAL C/O AT IIND FLOOR, 203, NITIKA TOWER-I, COMMERCIAL COMPLEX, AZADPUR, North West Delhi, Delhi, 110033I----07AAJPA9424D2ZZ---",9667824160,,NORTH WEST DELHI,,110033,NEW DELHI,DISTRICT
DHIRENDRA JAYANTILAL VYAS,"DHIRENDRA JAYANTILAL VYAS C/O Building no. C-11, flat no. 003,ground floor, Suneet shantinagar CHS LTD, Sector 4, Besides S Kumar s Diamond Jewelry Mira road,THANE,MAHARASHTRA",9011927683,,PALGHAR,,401107,MAHARASHTRA,DISTRICT
SATYAJIT SALES AND SERVICES,"SATYAJIT VILAS DHOMSE C/O AT NEAR SOC PETROL PUMP,POST-UGAON ,TAL-NIPHAD,UGAON,NASHIK,MAHARASHTRA",9518524552,,NASHIK,,422304,MAHARASHTRA,DISTRICT
M/S SHRAVAN KIRANA,"ASARAM LAXMAN TAYADE C/O AT MUUKKADGAON.POST-RAJATAKLI TA GHANSAWANGI,JALNA,KUMBHAR PIMPALGAON,MAHARASHTRA",9529407272,,JALNA,,431211,MAHARASHTRA,DISTRICT
KAVITA,"KAVITA C/O AT D-1018,CAMP NP.02,NANGLAOI,TIKRI KALAN,WEST DELHI ,DELHI",8168398197,,WEST DELHI,,110041,NEW DELHI,DISTRICT
KRUSHNA SHOPPING MALL,"KRUSHNA LAXMAN DAKAVE C/O AT VRINDAVAN COLONY,AGASHIVNAGAR,KARAD,SATARA,MAHARASHTRA---27ABNPD6363M1Z6--",9764061639,,SATARA,,415539,MAHARASHTRA,DISTRICT
F VANLALLIANI,"F VANLALLIANI C/O AT 53,054,ZOHNUAI,SPO-LUNGLEI,ZOHNUAI,LUNGLEI,MIZORAM",9612135870,,LUNGLEI,,796691,MIZORAM,DISTRICT
SAYANI TRADERS,"MOU MAITY C/O AT ISHABPUR,THAKURCHAK,NARAYANGARH,PASCHIM MEDINIPUR,MEDINIPUR,WEST BENGAL",9064431693,,MEDINIPUR,,721424,WEST BENGAL,DISTRICT
MUKESH VERMA,"MUKESH VERMA C/O AT 26/1 SECTOR 41-A,CHANDIGARH",9815967799,,CHANDIGARH,,160036,CHANDIGARH,DISTRICT
SANDEEP KUSHWAH,"SANDEEP KUSHWAH C/O AT SHIV MENSION,FRUIT MANDI TIRAHA,KAMANIPUL,LAXMIGANJ,LASHKAR,GWALIOR,MADHYA PRADESH",7509300729,,GWALIOR,,474001,MADHYA PRADESH,DISTRICT
POOJA SHARMA,"BAG IT SHOPPE MALL C/O AT HOUSE NO.223,SECTOR 1,SHASTRINAGAR,NEAR CENTRAL MARKET,POLICE CHOWNKI,MEERUT,UTTAR PRADESH",8392862899,,MEERUT,,250003,UTTAR PRADESH,DISTRICT
M/S SHIVHARE BOOK STORE,"RAM SWARUP SHIVHARE C/O AT 01, GANDI PARK,SECOND FLOR, ASHOKNAGAR, Ashoknagar, Madhya Pradesh, 473331--23BIQPS9119D1ZZ--",9179345490,,ASHOKNAGAR,,473331,MADHYA PRADESH,DISTRICT
SOHAN LAL DORAYA,"SOHAN LAL DORAYA C/O AT A-23-A SEN COLONY,KABIR MARG,BANI PARK,JAIPUR,RAJASTHAN",7976357412,,JAIPUR,,302016,RAJASTHAN,DISTRICT
MOINUDIN DF,"HAZI MOINUDDIN ENTERPRISES C/O AT SHAHAJAHAPUR,SHAHZAADPUR,AKBARPUR,AMBEDKAR,NAGAR,UTTAR PRADESH",9140802894,,AMBEDKAR NAGAR,,224122,UTTAR PRADESH,DISTRICT
SATARUPA SINGHA,"SATARUPA SINGHA C/O AT KESHIARY,WEST MIDNAPORE,WEST BENGAL",9933940822,,MEDINIPUR,,721133,WEST BENGAL,DISTRICT
IDEES VENTURES,"IDEES VENTURES C/O 10-3-65B 16, OPAL ENCLAVE, VIDYASAMUDRA MARG, NEAR SAIRADA MOTORS, UDUPI CMC, Udupi, Karnataka, 576101-- 29AAIFI7615M1ZS--",9380757536,,UDUPI,,576101,KARNATAKA,DISTRICT
BINA STORE DF,"JIWAN BISWAKARMA C/O WB- DB/26,NEHRU ROAD, DHUTI BASTI, JAIGAON, ALIPURDUAR, ===GST NI== 19AHTPB8677J1ZG",9733068763,,JALPAIGURI,,736182,WEST BENGAL,DISTRICT
CAPITAL ENTERPRISES,"CAPITAL ENTERPRISES c/o AT Ground and First Floor, Plot No.- 735/858/1103, Village- Bijipur, Kashipur Road, Tamando, Bhubaneswar, Khordha, Odisha, 752054--- 21AAQFC4489F1ZB--",7735305825,,BHUBANESWAR,,752054,ORISSA,WAREHOUSE
RAHUL KALRA,"SANTOSH ENTERPRISES C/O AT NEAR CUT AND STYLE,ON NADA ROAD,NAYA GAON,MOHALI,,CHANDIGARH,PUNJAB",9915814990,,CHANDIGARH,,160103,PUNJAB,DISTRICT
PG ASSOCIATE,"SWARN LATA GOSWAMI C/O AT R N GOSHWAMI PLOT NO 4, BIHARI PUR, LUCKNOW, Lucknow, Uttar Pradesh, 226017--09AFZPG7336P1ZC---",8115999009,,LUCKNOW,,226017,UTTAR PRADESH,DISTRICT
SIYARAM SHARMA,"SIYARAM SHARMA C/O AT DELARI,DAUSA,RAJASTHAN",8003254234,,DAUSA,,303313,RAJASTHAN,DISTRICT
PRABHJIT SINGH,"PRABHJIT SINGH C/O AT JODHPUR,TARANTARAN,PUNJAB",9803362007,,TARAN TARAN,,143401,PUNJAB,DISTRICT
NONGTHOMBAM DASHUMATI DEVI,"M S LANCHENBA ENTERPRISES C/O AT KHONGHAMPAT AWANG LEIKAI,KHONGHMPAT,MANTRIPUKHRI,IMPHAL WEST,MANIPUR",9862135645,,IMPHAL,,795002,MANIPUR,DISTRICT
ROCOMARI ENTERPRISE,"SEKH MOHAMMAD BAKIBILLAH C/O AT N.A, DACHANDAPUR, JEJUR, HARIPAL, Hooghly, West Bengal, 712405--19BNTPB1317A1ZE --",8918288113,,HOOGHLY,,715405,WEST BENGAL,DISTRICT
RAJESH KUMAR BAJIYA,"HIMANSHU ENTERPRISES C/O AT PACHAR MODE,KIS.RENWAL,JAIPUR,RAJATHAN",6376491890,,JAIPUR,,303603,RAJASTHAN,DISTRICT
MARUTI ASSOCIATES DF,"LALAN KUMAR C/O AT DAUDNAGAR MOTALUKE DAMAIPATT, BIDUPUR, BIDUPUR, Vaishali, Bihar, 844503--10BAZPK2199C1ZM--",8789481867,,VAISHALI,,844503,BIHAR,DISTRICT
MUSHA MOHAMMAD,"MUSHA MOHAMMAD C/O AT NEAR CITY POLICE STATION,KAIRANA,UTTAR PRADESH",9084708000,,KAIRANA,,247774,UTTAR PRADESH,DISTRICT
TEX SPARES INTERNATIONAL,"SONIA JAIN C/O AT BEHIND PANIPAT FILLING STATION, G.T. ROAD, OPP SUVIDHA TRADER, Panipat, Haryana, 132103---06ADWPJ6324R1ZO--",9306983455,,PANIPAT,,132103,HARYANA,DISTRICT
NEHA BHARATI YADAV,"NEHA BHA C/O AT SHALBARI HAT,METHIBARI,GAYATRI NIWAS,DARJEELING,SUKNA,WEST BENGAL",8906710869,,DARJEELING,,734009,WEST BENGAL,DISTRICT
PALLAV BIKAS BORUAH,"BORUAH ENTERPRISES C/O AT WARD NO.2,BAZBORUAH PATH,NAZIRA,SIVASAGAR,ASSAM",6000927665,,SIVASAGAR,,785685,ASSAM,DISTRICT
PRAVIN KUMAR DF,"PRAVIN KUMAR C/O AT BANTHU SADHOPUR JIWAN,NEAR BHAGWANPUR THANA,VAISHALI,BIHAR",9931044558,,VAISHALI,,844114,BIHAR,DISTRICT
SANTOSH KUMAR PB,"C/O HARBHJAN YADAV ST NO 1, BAJW COLONY PATIALA PUNJAB",9478169394,,PATIALA,,147001,PUNJAB,DISTRICT
RAM CHANDER DF,"VINAYAK HEALTH CARE C/O AT BHAROO,JHUNJHUNUN,RAJASTHAN",9982683039,,JHUNJHUNU,,333041,RAJASTHAN,DISTRICT
RAVI KANT KYAL DF,"RAVI KANT KYAL C/O AT BUS STAND KE PAS ,WARD NO.07,LACHHMANGARH,SIKAR,RAJASTHAN",9875053859,,SIKAR,,332311,RAJASTHAN,DISTRICT
NEW NARAYAN ENTERPRISE,"ABHIJIT ROY C/O AT HOUSE NO. 2, JALARAM MANDIR LANE, A.K.DEB ROAD, FATASHIL AMBARI, GUWAHATI, Kamrup Metropolitan, Assam, 781025--18AUJPR4115N2Z3--",9864094911,,GUWAHATI,,781025,ASSAM,DISTRICT
SUSHIL KUMAR DF,"SUSHIL KUMAR C/O AT C 108,NATWAR NAGAR,DHOULI PYAU,MATHURA,UTTAR PRADESH",9528388088,,MATHURA,,281001,UTTAR PRADESH,DISTRICT
CREATIVE TRADERS,"ESHWARAPPA AKSHAYKUMAR C/O AT 134, CHANDRAGUTTI ROAD, HOLEJOLADAGUDDE, Shivamogga (Shimoga), Karnataka, 577429--29CSJPA5411Q1ZD--",9590357255,,SHIMOGA,,577429,KARNATAKA,DISTRICT
SUSHIL OKRAM,"SUSHIL OKRAM C/O AT SINGJAMEI MAKHA KHONGNANG PHEIDEKPI,KHONGNANG,PHEIDEKPI,IMPHAL WEST ,IMPHAL,MANIPUR",9366240719,,IMPHAL,,795008,MANIPUR,DISTRICT
AMAR LAL PRASAD DF,"UTAM AYURVEDA C/O AT TURKAULIA ,EAST CHAMPARAN,BIHAR",7903354849,,CHAMPARAN,,845315,BIHAR,DISTRICT
MUKESH KUMAR DIST SHOP,"HHI SUPER STORE C/O AT BADHRA ROAD,DHIGAWA MANDI,LOHARU,BHIWANI,HARYANA",9671126711,,BHIWANI,,127201,HARYANA,DISTRICT
BIRANCHI MAHARANA DF,"BIRANCHI MAHARANA C/O AT KULAGAN NO.2,SAMANTARAPUR,DHARMASALA,JAJAPUR,ODISHA",9938709824,,JAJPUR,,755009,ORISSA,DISTRICT
MOHD. MUZAMMIL,"MOHD. MUZAMMIL S/O ABDUL KAYYUM, SIRAJ COLONY, GALI NO. -1 , NEAR AYASHAPUBLIC SCHOOL , KHATA KHERI, SAHARANPUR",8445480070,,SAHARANPUR,,247001,UTTAR PRADESH,DISTRICT
CHANDRAN P,"GREEN HEALTH CARE C/O AT 333/17,INDHEEVARAM,MUTHAMBI ROAD,KOYILANDY,KOZHIKKODEDT,KERALA",9846145148,,KOZHIKODE,,673305,KERALA,DISTRICT
AVTAR SINGH DISTRICT SHOP,"AVTAR SINGH C/O AT BHUCHO KHURAD NEAR HIGH SCHOOL BATHINDA,BHATINDA,PUNJAB",8699050887,,BATHINDA,,151101,PUNJAB,DISTRICT
MOFAZZAL ALI,"ASIF HHI CENTER C/O AT VILL- CHOKA PARA, POST - LAKHI GANJ, PS - BILASIPARA, DIST - DHUBRI, ASSAM",9859070695,,DHUBRI,,783345,ASSAM,DISTRICT
ROHIT HEALTH CARE,RAJESH AGARWALA C/O -ROHIT HEALTH CARE JALPAIGURI WEST BENGAL,9002389360,,JALPAIGURI,,735101,WEST BENGAL,DISTRICT
SARA ENTERPRISES,"SAHISTABANU IRFAN SHAIKH AND LAIBA FIROZ SHAIKH C/O AT SHOP NO.5,OPP SAHYADRI HOSPITAL,DWARKA,NAGAJI WADALA ROAD,NASHIK,MAHARASHTRA",9423480391,,NASHIK,,422011,MAHARASHTRA,DISTRICT
SUPRIYA ENTERPRISE,"SUPRIYA NANDI C/O AT DIARA,SINGUR,HOOGHLY,WEST BENGAL",6290880724,,HOOGHLY,,712223,WEST BENGAL,DISTRICT
KHAIRWA TRADING COMPANY KHANDELA,"DHARAM VEER KHAIRWA C/O AT KHAIRWA TRADING COMPANY KHANDELA WARD NO - 1 , PRATAPPURA,POST-NEEMKI VIA-KANWAT, PRATAPPURA,SIKAR ,RAJASTHAN",9929552433,,SIKAR,,332708,RAJASTHAN,DISTRICT
WAHENGBAM ROBITA DEVI,"WAHENGBAM ROBITA DEVI C/O AT - NEAR LAIREMBI MANING, WAHENGBAM LEIKAI IMPHAL (MCI) (MAJOR PART),IMPHAL WEST MANIPUR",9002643141,,IMPHAL,,795001,MANIPUR,DISTRICT
SHREE GORAKHNATH ENTERPRISES,"RANENDRA PRATAP SWAIN C/O MARKAT NAGAR, CDA, SEC. 6, CUTTACK",8908844124,,CUTTACK,,753014,ORISSA,DISTRICT
HARIOM MISHRA,"HARIOM MISHRA C/O AT BHANIGAWAN,PAHAD KE KINARE,BHANIGAWAN,BARUA,REWA,MADHYA PRADESH",7389075143,,REWA,,486223,MADHYA PRADESH,DISTRICT
HAPPY SHOPPY,"GEETANJALI GANESH BANDKAR C/O AT SHOP NO G-04, POOJA CLASSIC APARTMENT, SHAMBHAJI CHOWK NEAR MOURIYA PETROL PUMP, SECTOR NO 26 NEAR PRADHIKARAN OFFICE, NIGDI BHOSARI, Pune, Maharashtra, 411044--27AGNPB8794M1ZJ--",7774018592,,PUNE,,411044,MAHARASHTRA,DISTRICT
JASMAN,"JASMAN C/O AT H.ON-115,JHAGDIYA,RAJGARH,NIPANIYAGARHI,MADHYA PRADESH",9669950442,,RAJGARH,,465685,MADHYA PRADESH,DISTRICT
RAJESH KUMAR MAURYA,"RISHIT HHI SHOPPING C/O AT JILA PANCHAYAT MARKET,SULTANPUR,UTTAR PRADESH",8528336436,,SULTANPUR,,228001,UTTAR PRADESH,DISTRICT
RAM KUMAR GUPTA,"NAGESHWAR ENTERPRISES C/O AT KOLUHAWA PAIGAMBARPUR,SAKETPURI ROAD NO.2,PARAS MALL,BAIRIYA,MUZZAFFARPUR,BIHAR",8340159727,,MUZAFFARPUR,,843132,BIHAR,DISTRICT
JITENDRA KUMAR DF,"J K TRADERS C/O AT AKYTHIRPUR,KAMALPUR BITHROUL,MOTIPUR,MUZAFFARPUR,BIHAR",8271111101,,MOTIPUR,,843111,BIHAR,DISTRICT
RAMVEER SINGH YADAV,"KRISHNA ENTERPRISES C/O AT WARD NO.14,ARJAR PURA MUNGAOLI,ASHOK NAGAR,MADHYA PRADESH",9425761875,,ASHOKNAGAR,,473443,MADHYA PRADESH,DISTRICT
OMM SHREE LAXMINARAYAN TRADERS,"BRAJ KISHORE DAS C/O AT ADANG,SORO,BALASORE,ODISHA",9090941543,,BALASORE,,756045,ORISSA,DISTRICT
MITALI CHOUDHURY,"MITALI ENTERPRISE C/O AT NEAR RADHAMADHAB AKHRA,ASHRAM ROAD,BILPAR,HOUSE NO,CHACHAR,ASSAM",8168456848,,SILCHAR,,788005,ASSAM,DISTRICT
LATA KIRAN VITHUBONE,"SWAMINI BOUTIQUE AND HERBAL KIRANA C/O AT STAR CITY DEVLOPERS,SIDDHIVINAYAK PARK,GATE NO.1025,PLOT NO.135,PUNE SOLAPUR ROAD,NEAR KAVDIPATH,TOLL PLAZA KALBHORE NAGAR,TALUKA HAVELI,PUNE,MAHARASHTRA",9561556572,,PUNE,,412201,MAHARASHTRA,DISTRICT
GAUTAM DEY,"BAJRANGBALI ENTERPRISES C/O AT SHILLONG ROAD,LANKA,ASSAM",8638592945,,LANKA,,782446,ASSAM,DISTRICT
SANTOSH KUMAR PICK UP CENTER,"SANTOSH KUMAR C/O AT BADKAJARA,BANDA,RAMGARH,JHARKHAND",7488189991,,RAMGARH,,829110,JHARKHAND,DISTRICT
YUMKHAIBAM IBOMCHA SINGH,"YUMKHAIBAM ENTERPRISES C/O AT MALOM TULIYAIMA,IMPHAL WEST,IMPHAL,MANIPUR",9436891647,,IMPHAL,,795140,MANIPUR,DISTRICT
RAJESH KUMAR RAIBARELI,"RAJESH KUMAR C/O AT KHAIGIPUR,SANDAWA,RAEBARELI,UTTAR PRADESH",9621552795,,RAIBARELI,,229125,UTTAR PRADESH,DISTRICT
DATTA SUDAMRAO DHUMAL,"CHAITANYA ENTERPRISES C/O AT MALI GALLI MANVAT,PARBHANI,MAHARASHTRA",9730539045,,PARBHANI,,431506,MAHARASHTRA,DISTRICT
MANOJ KUMAR REWARI,"KIRAN TRADING COMPANY C/O AT CITIZEN TAILORS,GOKAL BAZAR,NEAR PUNJAB MARKET,REWARI,HARYANA",7056662555,,REWARI,,123401,HARYANA,DISTRICT
RADHABALLAV MAHALA,"RADHABALLAV MAHALA C/O AT CHANGUAL,PASCHIM MEDINIPUR,CHANGULA,WEST BENGAL",9800826998,,MEDINIPUR,,721301,WEST BENGAL,DISTRICT
SRIDHAR BARIK,"SRIDHAR BARIK C/O AT SITALAGOBINDAPUR,KANTORE,KORAI,JAJAPUR,ODISHA",9040564548,,JAJPUR,,755022,ORISSA,DISTRICT
R RUDRESH DF,"R RUDRESH C/O AT Y N 1 YASHODHARANAGAR,BOGADI 2ND STAGE,NORTH,NEAR AMRUTHANANAMAI,ASHRAM BOGHADI 2 ND STAGE,MYSORE,KARNATAKA",8548988487,,MYSORE,,570026,KARNATAKA,DISTRICT
A LOHITH,"A LOHITH C/O AT GANESH NILAYA K T NAGARA,16TYH CROSS,NITTUVALLI,MAIN ROAD,DAVANGERE,KARNATAKA",9113818298,,DAVANAGERE,,577002,KARNATAKA,DISTRICT
MAMAN ALTAF MAMAD,"MAMAN ALTAF MAMAD C/O AT BEHIND CHAKI VADI,BHID GATE,NEAR BHUTESHVAR MANDIR,BHUJ CITY,BHUJ,KACHCHH,GUJARAT",9913931114,,BHUJ,,370001,GUJARAT,DISTRICT
V P ENTERPRISES,"PRASHANT DNYANDEO BOMBATKAR /O AT LAXMI GREEN COUNTY D WING,SHOP NO.4,KONDAVE DHAWADE NDA ROD,PUNE,MAHARASHTRA",7020382904,,PUNE,,411023,MAHARASHTRA,DISTRICT
NITU YADAV,"NITU YADAV C/O AT NEAR RAM BHABAN,PANCHBERIA,KHARAGPUR,PASCHIM MEDINIPUR,MEDINIPUR,WEST BENGAL",7407222442,,MEDINIPUR,,721305,WEST BENGAL,DISTRICT
LADKA SHABIR,"SAAZ HERBAL STORE C/O AT JUNI SUNDARPURI,NEAR RAGHUVANSHI HOSPITAL,TAGOR ROAD,GANDHIDHAM,KACHCHH,GUJARAT",9924136520,,KACHCHH,,370201,GUJARAT,DISTRICT
PITAMBER SINGH,"PRITAM AYRVEDIC SHOP C/O AT ARNA KOTHI ROAD, KASTA CHOWK,SARAN,BIHAR",8235092274,,SARAN,,841311,BIHAR,DISTRICT
DEBASISH RAY DF,"RAY STORE C/O AT PUTIMARI,COOCHBEHAR,WEST BENGAL",9832402463,,COOCH BEHAR,,736135,WEST BENGAL,DISTRICT
DEV ENTERPRISES DF,"SATYANARAYAN KHATANA C/O AT OPPOSITE MAJI SA MANDIR, LAWANTA ROAD, PARBATSAR DIST NAGAUR, Nagaur, Rajasthan, 341512--08LNGPK7828A1ZR--",7357725027,,NAGAUR,,341512,RAJASTHAN,DISTRICT
PREET ENTERPRISES,"KAILASH SINGH RAJPUT C/O AT RAILWAY PULIYA KE NICHE,, RAILWAY PHATAK KE PASS, BASSI, Jaipur, Rajasthan, 303301--08AEBPR0738M1Z7 ---",7791997912,,JAIPUR,,303301,RAJASTHAN,DISTRICT
VARSHA SANTOSH CHAVAN,"VARSHA SANTOSH CHAVAN C/O AT SR.NO.99,GOPALPATTI,MANJARI BK,HAVELI,PUNE,MAHARASHTRA",9850854227,,PUNE,,412307,MAHARASHTRA,DISTRICT
KHUSHBOO,"DEVANSHI ENTERPRISES C/O AT MANDRELA MODE,NEAR OLD INIDIAN PUBLIC SCHOOL,WARD NO.31,CHIRAWA,JHUNJHUNUN,RAJASTHAN",9468677676,,CHIRAWA,,333026,RAJASTHAN,DISTRICT
RASHEE ENTREPRENEUR,"SHEEJA RAJAN NARAYAN C/O 27/856, OPP PUMP HOUSE, TAGORE NAGAR - 8, VIKHROLI EAST, Mumbai Suburban, Maharashtra, 400083--27AGTPN1160D1ZE---",9004115098,,MUMBAI,,400083,MAHARASHTRA,DISTRICT
KRISHANDEV SAH,"JAY MA KALI ASSOCIATE C/O AT JITHAKI,BAGMA,BHUTAHA CHOWK,MADHUBANI,BIHAR",8051663099,,MADHUBANI,,847108,BIHAR,DISTRICT
GUJAR BHARAT ASHOK DF,"MURALI MEGA MART C/O AT SHOP NO.3,OPPOSITE QUALITY OIL DEPO,KUNDAN COMPLEX,NEAR SUKKAR CHOWK,NEW TILAK ROAD,AHMEDNAGAR,MAHARASHTRA",8329398391,,AHMEDNAGAR,,414001,MAHARASHTRA,DISTRICT
BARNAWAL ENTERPRISES AND KIRANA STORE,"VISHAL BARNAWAL C/O AT ROADWAYS JIYANPUR, AZAMGARH, Azamgarh, Uttar Pradesh, 276001--09AMOPB1792N1ZH",7080769905,,AZAMGARH,,276001,UTTAR PRADESH,DISTRICT
CHAMNO,"VAIBHAV MUDGAL ENTERPRISES C/O AT HOUSE NO .47,GRAM MOVA,MAVANA,MEERUT,UTTAR PRADESH",8791719240,,MEERUT,,250401,UTTAR PRADESH,DISTRICT
GAYATRI ENTERPRISES DF,"ANANT DIGAMBAR CHANDRATRE C/O AT MITRA NAGAR,TARABAD ROAD,SATANA,MAHARASHTRA",9890590439,,SATANA,,423301,MAHARASHTRA,DISTRICT
YOGESH ASHOK KSHIRSAGAR,"YOGITA HERBAL CARE C/O AT KOREGAON BHIMA,TALUKA SHIRUR,PUNE.MAHARASHTRA",7028372469,,PUNE,,412216,MAHARASHTRA,DISTRICT
MUKESH KUMAR BHIWANI,"NANDINI HHI STORE C/O AT CHANDWAS(38),BHIWANI,HARYANA",9050270111,,BHIWANI,,127308,HARYANA,DISTRICT
APASARI HALWA,"APASARI MLM C/O AT SHASTRI NAGAR,4TH LANE,ROYET COLONY, WARD NO.22,RAYAGADA,ODISHA",6370988632,,RAYAGADA,,765002,ORISSA,DISTRICT
S R ENTEPRISES,"ROHINA SAMEER SAYYED C/O AT FLAT NO.2,SHABNAM APARTMENT,PAKHAL ROAD,NASHIK,MAHARASHTRA",9657509988,,NASHIK,,422006,MAHARASHTRA,DISTRICT
ANAND RAJU TAWASE,"ANAND RAJU TAWASE C/O AT PATTNKUDI,BELAUM,KARNATAKA",9503001626,,BELGAUM,,591238,KARNATAKA,DISTRICT
GAGANDEEP SHOPPY,"GAGANDEEP C/O AT SHIVE COLONY KHAITIAL ROAD,NEAR PETROL PUMP ,KARNAL,HARYANA",8307697889,,KARNAL,,132001,HARYANA,DISTRICT
SRIDEVI ENTERPRISES,"CHANDRIKA C/O AT 142/A, ANKADAKATTE, ANKADAKATTE KOTESHWARA, Udupi, Karnataka, 576222---29CFMPC0483G1ZE--",7829069493,,UDUPI,,576222,KARNATAKA,DISTRICT
SATYA PRAKASH JENA,"SATYA MEGA STORE C/O AT BAINCHUA,GOKAN,MAHANGA,CUTTACK,ODISHA",9938703404,,CUTTACK,,754206,ORISSA,DISTRICT
CHINMAY KUMAR MOHANTA,"SHOPPING SOLUTIONS C/O AT BARIPADA,MAYURBHANJ,ODISHA",7008910051,,MAYURBHANJ,,757001,ORISSA,DISTRICT
SHITAL VIKASRAO KHAJONE,"SHITAL VIKASRAO KHAJONE C/O AT CIVIL LINE,PARATWADA,AMRAVATI,MAHARASHTRA",9420190794,,AMRAVATI,,444805,MAHARASHTRA,DISTRICT
KAILASH CHAND SHARMA DF,"KAILASH CHAND SHARMA C/O AT JATAWALI,JAIPUR,RAJASTHAN",9414255969,,JAIPUR,,303806,RAJASTHAN,DISTRICT
ARJUN KUMAR DF,"ANANYA HEALTH CARE C/O AT ERTI,SHAMLI,UTTAR PRADESH",7351955651,,MUZAFFARPUR,,247774,UTTAR PRADESH,DISTRICT
SANKALP SALES,"JAYESH ARUNKUMAR GANDHI C/O AT OPP FIRKE HOSPITAL, CHALIS BIGHA, MALKAPUR, Buldhana, Maharashtra, 443101--27AIBPG5104G1ZS--",7020459597,,BULDHANA,,443101,MAHARASHTRA,DISTRICT
JASWANT SINGH GHALOT,"JASWANT SINGH GHALOT C/O AT HOUSE NO.15,BHATTU ROAD,FATEHABAD,HARYANA",9878687823,,FATEHABAD,,125050,HARYANA,DISTRICT
AMRISH SHUBASH TANEJA DF,"AMRISH SHUBASH TANEJA C/O AT MANORAMA NAYYAR,BEHAIN AKASHAWANI,SHASHTRI NAGAR,AKOLA,MAHARASHTRA",9923297469,,AKOLA,,444001,MAHARASHTRA,DISTRICT
MAHESH SHARMA,"SHARMA SHOPPY C/O AT CHANDBAD,DHANKHEDI,SEHORE,MADHYA PRADESH",9165478037,,SEHORE,,466001,MADHYA PRADESH,DISTRICT
AMAR SINGH PATELIYA,"AMAR SINGH PATELIYA C/O AT BARAI KHEDA,SHIVPURI,MADHYA PRADESH",9009402660,,SHIVPURI,,473885,MADHYA PRADESH,DISTRICT
USHASI SAHOO,"PRAGATI HHI MART C/O AT GELAPUR,GOPINATHPUR,DHAULI CHAKA,BHUBNESHWAR,KHORDA,ODISHA",9040224548,,KHORDHA,,751002,ORISSA,DISTRICT
VIJAYALAKSHMI,"VIJAYALAKSHMI POOJARI C/O AT GANESH KRUPA,BADA,BYNDOOR VILLAGE,UDUPI,KARNATAKA",9535621190,,UDUPI,,576214,KARNATAKA,DISTRICT
JANANI ENTERPRISE,"VISHWANATH KUNDAPURA C/O AT THE CANARA LAND INVESTMENT LTD,DOOR NO.16-444,1ST FLOOR,MANIPAL COMMERCIAL COMPLEX,MANIPAL,UDUPI,KARNATAKA,==29AUYPK7488A1ZU==",8748027573,,UDUPI,,576104,KARNATAKA,DISTRICT
LATABAI PRAKASH RATHOD,"LATABAI PRAKASH RATHOD C/O AT MUKRAMABA,MUKHED,NANDED,MAHARASHTRA",7875173077,,NANDED,,431715,MAHARASHTRA,DISTRICT
POONAM SHRIRANG WAGHUNDE DF,"KAVYA HERBAL CARE C/O AT SANASWADI,OPP.BHAIAVNATH TEMPLE,SHIRUR,PUNE,MAHARASHTRA",9623367104,,SHIRUR,,412208,MAHARASHTRA,DISTRICT
POLEY PAPERS & STATIONERS,"RAJESH KUMAR c/o AT 40B, PRIYADARSHI NAGAR BHAGWAT NAGAR KUMHRAR, PATNA, Patna, Bihar, 800026--10CWUPK0276Q1ZY --",8540835170,,PATNA,,800026,BIHAR,DISTRICT
PRAMODA VENKATRAMAN NAIK,"NARAYAN CLINICAL CLUB C/O AT SIDDAPUR,UTTAR KANNADA,KANNADA,KARNATAKA",9481635859,,KANNADA,,581355,KARNATAKA,DISTRICT
SIRASAPALLI DINESH,"SIRASAPALLI DINESH C/O AT 24-91-11-2,GONTINAVANIPALEM KANITHI ROAD,GAJUWAKA,VISAKHAPATNAM,ANDHRA PRADESH",8328213654,,VISAKHAPATNAM,,530026,ANDHRA PRADESH,DISTRICT
JOANMARY,"JOANMARY C/O AT 63 NESHVILLA ROAD,NEAR DUSTANA FACTORY,DEHRADUN,UTTRAKHAND",7505022699,,DEHRADUN,,248003,UTTARAKHAND,DISTRICT
ATMARAM VITHAL MATALAKAR,"ATMARAM VITHAL MATALAKAR C/O AT POST-MUDANA TA MAHAGAON,MUDANA,YAVATMAL,MAHARASHTRA",9423612829,,YAVATMAL,,445205,MAHARASHTRA,DISTRICT
SHANTANU KUMAR MOHANTA,"FREEDOM EXPRESS C/O AT BAHARAGORA ,EAST SINGHBHUM,JHARKHAND",8895109128,,SINGHBHUM,,832101,JHARKHAND,DISTRICT
G RAJAGOPALA REDDY,"G RAJAGOPALA REDDY C/O AT 131,STREET NO.710,RVC REVENUE COLONY,NEAR RAMALAYAM,ANANTHAPUR,ANDHRA PRADESH",9985995658,,ANANTAPUR,,515001,ANDHRA PRADESH,DISTRICT
PURNA BAHADUR SUNUWAR,"PURNA BAHADUR SUNUWAR C/O AT MOURAY BUSTY,KUMAI FOREST,DARJEELING,WEST BENGAL",8597076549,,DARJEELING,,735206,WEST BENGAL,DISTRICT
MEERA ENTERPRISES DF,"KRISHANGOPAL CHHOTELAL C/O AT H.NO-5253, AWADH NAGAR, PO-MIDC TARAPUR, BOISAR, Palghar, Maharashtra, 401506--27ACHPK9108L1Z8--",7719898428,,PALGHAR,,401506,MAHARASHTRA,DISTRICT
RAVINDRA GAJANANRAO DIGHORIKAR,"PARMATMA EK HHI SHOP C/O AT PLOT NO.334,GAROBA MAIDAN,BEHIND KANCHAN BAR,DIGHORIKAR SQUARE,NAGPUR,MAGARASHTRA",9823290263,,NAGPUR,,440008,MAHARASHTRA,DISTRICT
LASKAR ENTERPRISE,"REBUL HOQUE LASKAR C/O AT NA, AMRAGHAT ROAD, KABUGANJ BAZAR, Cachar, Assam, 788121--18AMQPL5961K1Z9 -",8638923143,,CACHAR,,788121,ASSAM,DISTRICT
PRABHUNATH SHYAMBIHARI GUPTA,"SHYAM BIHARI GUPTA C/O AT 28, ground, prabhunathgupta, CENTRAL PARK, near police booth, South Sikkim, Sikkim, 737126--11ACVPG1269N1Z9 --",8967177122,,SOUTH SIKKIM,,737126,SIKKIM,DISTRICT
RAJENDRA PRAJAPATI,"RAJENDRA PRAJAPATI C/O AT PANI KI TANKI KE PASS,CEMENT FACTORY,CHITTORGARH,RAJASTHAN",9887466233,,CHITTORGARH,,312021,RAJASTHAN,DISTRICT
AJAY KUMAR DF,"KHUSHI HHI MART C/O AT COLLEGE ROAD BIBIRANI,NEAR GOVT.SEN.SEC SCHOOL,BIBRANI,KOTKASIM,ALWAR,RAJASTHAN",9636122267,,ALWAR,,301702,RAJASTHAN,DISTRICT
MAHALAKSHMI GENERAL STORE,"JAGADISH VENKTA DEVADIGA C/O AT 32/02, SHRI VIGNESHWARA COMPLEX, NEAR N.H 66 HEMMADI CIRCLE, HEMMADI VILLAGE KUNDAPUR, Udupi, Karnataka, 576230-- 29APKPD1537Q1ZE--",7738277948,,UDUPI,,576230,KARNATAKA,DISTRICT
DINESH KUMAR DF,"DINESH KUMAR C/O AT CHOCOLATE PALM A-502,OMAXE PALM GREENS,SECTOR-MU,GREATER NOIDA,GAUTAM BUDH NAGAR,UTTAR PRADESH",9953459970,,GAUTAM BUDDHA NAGAR,,201310,UTTAR PRADESH,DISTRICT
SHRI KALIKAMBHA SWADESHI AND AYURVEDIC PRODUCT,"shashidhar acharya C/O AT 5-602/2G, kabettu, karkala, Udupi, Karnataka, 574104 ---29CAKPA1081M1ZJ--",8867502735,,UDUPI,,574104,KARNATAKA,DISTRICT
FAKKIRAPPA NINGAPPA TAVARGERI,"FAKKIRAPPA NINGAPPA TAVARGERI C/O AT H NO 180,KAMAM BEEDI,KOPPA INDOOR,MUNDGOD,UTTAR KANNADA,KARNATAKA",9731693243,,KANNADA,,571349,KARNATAKA,DISTRICT
PRAMILA PANDA,"PANDA TRADERS C/O AT THAKURKUNDA,MAYURBHANJ,ODISHA",7008307891,,MAYURBHANJ,,757038,ORISSA,DISTRICT
TULU CHATTERJEE,"TULU CHATTERJEE C/O AT ANIL APARTMENT 4 ND FLOOR,NEAR DURGA MANDIR,1 NO.MOHISHILA COLONY,SIMUL TALA,ASANSOL,BARDHAMAN,WEST BENGAL",9732202245,,BARDHAMAN,,713303,WEST BENGAL,DISTRICT
DADASAHEB VISHNUPANT KARANDE,"DADASAHEB VISHNUPANT KARANDE C/O AT D K PATIL NIWAS,ALANDI MARKAL ROAD,BEHIND SANSKAR GURUKUL SCHOOL,CHARHOLI KHURD ALANI,CHARHOLI,KHURD,PUNE,MAHARASHTRA",9881152030,,PUNE,,412105,MAHARASHTRA,DISTRICT
ABDUL KHALEK,"SAHIL ENTERPRISES C/O AT DAKHIN DAYALPUR,URIAMGHAT,GOLAGHAT,ASSAM",8135866480,,GOLAGHAT,,785601,ASSAM,DISTRICT
KAVITA SINGH,"SHRI BALA JI ENTERPRISES C/O AT PUTTHA,HALDAUR,BIJNORE,UTTAR PRADESH",8433412426,,BIJNORE,,246726,UTTAR PRADESH,DISTRICT
VINAYKUMAR BADRIPRASAD MISHRA,"VINAYKUMAR BADRIPRASAD MISHRA C/O AT GADEGAON,MANORA,WASHIM,MAHARASHTRA",9021007435,,WASHIM,,444404,MAHARASHTRA,DISTRICT
SANJAY KUMAR DF,"S S TRADERS C/O AT MANSERPUR,PAHARPUR,BIHPUR,BHAGALPUR,BIHAR",8298332130,,BHAGALPUR,,853201,BIHAR,DISTRICT
PRASHANT DILIP BHOGAL,"PRASHANT DILIP BHOGAL C/O AT BEHIND MARATHI SCHOOL,SANTAJI NAGAR,JAMKHED,AHMEDNAGAR,MAHARASHTRA",7385899825,,AHMEDNAGAR,,413201,MAHARASHTRA,DISTRICT
AMIT KUMAR PASWAN,"GAURI SHANKAR TRADERS C/O AT PANIPATTI WARD NO.1,BIRPUR,SUPAUL,BIHAR",7319777968,,SUPAUL,,854340,BIHAR,DISTRICT
M/S MALA ENTERPRISES,"LAL JAY KUMAR NATH SHAHDEO C/O AT SOSO MORE,LOHARDAGA ROAD,GUMLA,JHARKHAND GST NO === 20AWJPS5185P1ZU",9304826055,,GUMLA,,835207,JHARKHAND,DISTRICT
PRASHANT BHARGAVA,"PRASHANT BHARGAVA C/O AT 165 KITIYANI,MANDSAUR,MADHYA PRADESH",9425977749,,MANDSAUR,,458001,MADHYA PRADESH,DISTRICT
DEEPAK KUMAR BAGHEL,"DEEPAK KUMAR BAGHEL C/O AT BILALI,KHARGONE,MADHYA PRADESH",9584061670,,KHARGONE,,451335,MADHYA PRADESH,DISTRICT
SHIVISH KUMAR CHAUDHARY,"PARIDHI ENTERPRISES C/O AT BASWARIYA,MAIN ROAD,SITAMARHI,BIHAR",9650519350,,SITAMARHI,,843331,BIHAR,DISTRICT
MOHAMMAD SAFIQ,"MOHAMMAD SAFIQ C/O ATNEAR JANNT COLD STORE,UNNAO,SANDILA,HARDOI,UTTAR PRADESH",8176922394,,HARDOI,,241204,UTTAR PRADESH,DISTRICT
TAPAN KUMAR MAHATO DF,"SACHIN HHI SHOPPE C/O AT KATIN,BANGURDA,KAMALPUR,EAST SINGBHUM,SINGBHUM,JHARKHAND",9546408775,,SINGHBHUM,,832105,JHARKHAND,DISTRICT
JOGINDRA MAHARANA,"HHI DAILY NEEDS POINT C/O AT BADA DANDA STREET ,KUMARPANI,HINJILICUT,GANJAM,ODISHA",7789070105,,GANJAM,,761106,ORISSA,DISTRICT
SHRI HARI ENTERPRISES,"AAKASH BEHL C/O AT 3F/101, ,, NIT, Faridabad, Haryana, 121001--06AHIPB2739E1ZQ",9667224657,,FARIDABAD,,121001,HARYANA,DISTRICT
SHILABAI SHARAD VIRPANKAR,"SHILABAI SHARAD VIRPANKAR C/O AT HOUSEC NO51,RADHAI BUILDING,NEAR SCHOOL NO.17,BALIRAM PETH,JALGAON,MAHARASHTRA",7796263588,,JALGAON,,425001,MAHARASHTRA,DISTRICT
SHIVJI SAHNI,"SHIVJI ENTERPRISES C/O AT CHAKIA ,EAST CHAMPARAN,CHAMPARAN,BIHAR",9546816556,,CHAMPARAN,,843128,BIHAR,DISTRICT
AJIT KUMAR SAHA,"AJIT HERBAL SOTE C/O AT FATEHPUR WARD NO.2,BIRPUR,SUPAUL,BIHAR",7903979021,,SUPAUL,,854340,BIHAR,DISTRICT
RAJENDRA ROHIDAS MANE,"RUJUTA ENTERPRISES C/O AT FLAT NO.I-8,SECOND FLOOR ,DEW DROPS HSG SOC,SASWAD,PUNE,MAHARASHTRA",9604032239,,PUNE,,412301,MAHARASHTRA,DISTRICT
PARVEEN KUMAR SHARMA,"PARVEEN KUMAR SHARMA C/O AT HOUSE NO.1857,URBAN ESTATE,SECTOR 13,KARNAL,HARYANA",9416951719,,KARNAL,,132001,HARYANA,DISTRICT
TARA CHAND SAINI,"M/S SHREE MAHALAXMI AGENCY C/O AT MALIYO KA MOHALLA,BAGDI ROAD,PEEPLOO,TONK,RAJASTHAN",9460591595,,TONK,,304801,RAJASTHAN,DISTRICT
SATISH KUMAR DF,"SATISH KUMAR C/O AT DEV TRADING COMPANY,WARD NO.5,SURAJGARH MANDI,SURAJGARH,JHUNJHUNUN,RAJASTHAN",9783944209,,JHUNJHUNU,,333029,RAJASTHAN,DISTRICT
SANTOSH PANDHARINATH VARE,"SEJAL SERVICES C/O AT DIGHI ROAD,BOSHARI,PUNE,MAHARASHTRA",9765392553,,PUNE,,411039,MAHARASHTRA,DISTRICT
YOGESH DF,"YOGESH C/O AT GADDEHUNDI KANDALIKE,HOBALI B,MYSORE,KARNATAKA",9035348127,,MYSORE,,571121,KARNATAKA,DISTRICT
PRIYANKA PRIYADARSHINI SAHOO,"SHREE JAGNATH MEGA STORE C/O AT WARD NO.4,BACK OF CENTRAL,LODGE,BRAHMANIDEIPADA,ANUGUL,ODISHA",9437382773,,ANUGUL,,759122,ORISSA,DISTRICT
SUNIL GANGADHAR POPHALE,"SUNIL GANGADHAR POPHALE C/O AT BHIGWAN ROAD,BARAMATI,PUNE,MAHARASHTRA",7588292031,,PUNE,,413133,MAHARASHTRA,DISTRICT
NITYA RAJKONWAR,"GNM STORE C/O AT NAHARPUKHURI,BORHAT,CHARAIDEO,ASSAM",9101079366,,SIBSAGAR,,785693,ASSAM,DISTRICT
KULVINDER SINGH,"1313 HERBAL STORE C/O AT DEHAR,LALRU,SAS NAGAR,MOHALI,PUNJAB",7973808043,,SAS NAGAR,,140501,PUNJAB,DISTRICT
WILSON LAKRA,"WILSON LAKRA C/O AT NEW MARKET LINE,NAGRAKATA,JALPAIGURI,WEST BENGAL",7586983880,,JALPAIGURI,,735225,WEST BENGAL,DISTRICT
MD RUKNUDDIN DF,"MD RUKNUDDIN C/O AT BARA FALIMARI,BALAKUNDI,DINHATA,COOCH BEHAR,WEST BENGAL",8013843515,,COOCH BEHAR,,736173,WEST BENGAL,DISTRICT
SURENDER RAJ PAUDEL,C/O TIKA RAM PAUDEL HIMALI SAHID NAGAR ROAD NO 14 DARJEELING,7478665105,,ALIPUR,,734001,WEST BENGAL,DISTRICT
UTKARSH RAMESH JAGTAP,"UTKARSH RAMESH JAGTAP C/O AT OPP.JEJUI NAGARPALIKA,JEJURI,PUNE,MAHARASHTRA",9665594141,,PUNE,,412303,MAHARASHTRA,DISTRICT
R & R ENTERPRISES,"R & R ENTERPRISES C/O AT PLOT NO 27, GOPAL VIHAR, BARRA-6, Kanpur Nagar, Uttar Pradesh, 208027--09ABDFR4011Q1ZW--",9009999615,,KANPUR,,208027,UTTAR PRADESH,WAREHOUSE
THNANGJAM SANATHOI DEVI,"THNANGJAM SANATHOI DEVI C/O AT C/O AT NONGCHUP KAMENG MAMNG LEIKAI,LAMSHANG SUB-DIVISION,IMPHAL WEST,MANIPUR",9862923086,,IMPHAL,,795146,MANIPUR,DISTRICT
AVINASH KUMAR,"UMA & AMAR ENTERPRISES C/O AT GADAI SARAI,HAJIPUR SADAR,VAISHALI,BIHAR",7970329879,,VAISHALI,,844102,BIHAR,DISTRICT
OM MART,"SANTOSH SAHOO C/O MOUZA- ANDHIA, PLOT NO-2628, KHATA NO-633, JAGANNATH VIHAR COLONY, NIMAPARA, NIMAPARA, Puri, Odisha, 752106--21DTOPS0950P1Z3--",9556687831,,PURI,,752106,ORISSA,DISTRICT
AJAY SAH DF,"SATYAM ENTERPRISES C/O AT CHIRIYA ROAD,SAHIJANANA,NEAR OLD ITI,GARHWA,JHARKHAND",9304778739,,GARHWA,,822114,JHARKHAND,DISTRICT
VISHNU KUMAR JAISWAL,"VISHNU HHI SHOPPE C/O AT MUBARAKPUR,AZAMGARH,UTTAR PRADESH",7800036664,,AZAMGARH,,276404,UTTAR PRADESH,DISTRICT
PARVESH DF,"PALAK ENTERPRISES C/O AT SHOP NO,51,NEAR UNION BANK ATM,SECTOR 7,GOHANA,SONIPAT,HARYANA",9350001969,,SONIPAT,,131301,HARYANA,DISTRICT
MAINA JAGANNATH SALGAR,"VAISHNVI HERBAL & ORGANIC SHOPPY C/O AT DEVICHAMAL,KARMALA,SOLAPUR,MAHARASHTRA",7218874077,,KARMALA,,413203,MAHARASHTRA,DISTRICT
ANAND CENTRE,"ANAND PRASAD C/O AT RANIPOOL BAZAR, RANIPOOL NH 31A, GANGTOK, East Sikkim, Sikkim, 737135--11ANGPP1389L1ZR",8001882222,,GANGTOK,,737135,SIKKIM,DISTRICT
NAND KISHOR ROY,"NAND KISHOR ROY C/O AT WARD NO.02,KAMARGAMA,NEAR BRAHAMASTHAN,POST-TEERA JATMALPUR,THANA-KALYANPUR,SAMASTIPUR,BIHAR",9576839750,,SAMASTIPUR,,847301,BIHAR,DISTRICT
RUPESH KUMAR,"RIDHIKA ENTERPRISES C/O AT SHIV GANGA CHOWK MAINHI,AMAHI,GHOGHARDIHA,MADHUBANI,BIHAR",8340705776,,MADHUBANI,,847402,BIHAR,DISTRICT
BASANTA KR GOGOI DF,"DREAMZ C/O AT BABUPATTY,SIVASAGAR,ASSAM",9854026661,,SIBSAGAR,,785640,ASSAM,DISTRICT
ANANT KUMAR,"ANANT ENTERPRISES C/O AT NIRMALI,NEAR H.P.S COLLAGE GATE,SUPAUL,BIHAR",9102765065,,SUPAUL,,847452,BIHAR,DISTRICT
SARVESH KUMAR,"DHARMESH ENTERPRISES C/O AT PAKHANAHIYA,PELANWA,EAST CHAMPARAN,CHAMPARAN,BIHAR",6200242162,,CHAMPARAN,,845440,BIHAR,DISTRICT
ROOHULLAH ANSARI,"SONAM HERBAL C/O AT GULAM RASUL LANE MOJAHIDPUR GURHATTA,BEHIND UCO BANK,BHAGALPUR,BIHAR",9060363559,,BHAGALPUR,,812002,BIHAR,DISTRICT
VIKASH YADAV,"M ENTERPRISES C/O AT BETTIAH,WEST CHAMPARAN,CHAMPARAN,BIHAR",9973353693,,CHAMPARAN,,845305,BIHAR,DISTRICT
TRINAYAN PHUKAN,"PHUKAN ENTERPRISE C/O AT TEOK,JORHAT,ASSAM",8811988907,,JORHAT,,785112,ASSAM,DISTRICT
SRI SAI TRADING,"SHARAT SHARMA C/O AT AT-FLAT NO.B-502, BLOCK-E, FOREST RESIDENCY, NEAR CARMEL SCHOOL ROAD, Hazaribag, Jharkhand, 825301--20BKEPS4871C1ZE--",9078622939,,HAZARIBAGH,,825301,JHARKHAND,WAREHOUSE
DEEPAK MAHESH AGARWAL,"AGARWAL HHI SHOPEE C/O AT 10,MOROBO NIWAS,ROOM NO.1,TAJMAHALA,KELEWADI,SAI BABA MANDIR ,GIRGAON,MUMBAI,MAHARASHTRA",9969985073,,MUMBAI,,400004,MAHARASHTRA,DISTRICT
ANIL MOTILAL JAYASWAL,"AMBIKA NAGAR,MALKAPUR,CHANDUR,AKOLA,MAHARASHTRA",9011511914,,AKOLA,,444004,MAHARASHTRA,DISTRICT
OM PRAKASH,"OM PRAKASH C/O AT BARHA,RAJEEV COLONY,PILIBHIT,UTTAR PRADESH",9758746132,,PILIBHIT,,262001,UTTAR PRADESH,DISTRICT
MITALI SAHU,"VAISHNOVI ENTERPRISES C/O AT PLOT NO-484, BALITOTA SAHI, LANE-2, NILAKANTHA NAGAR, PS-NAYAPALLY , CITY- BHUBANESWA,KHORDA,ODISHA",9124982211,,BHUBANESWAR,,751012,ORISSA,DISTRICT
PRUSTY TRADERS,"DWITI RANJAN PRUSTY C/O AT 471/140, LILABATI BHAWAN, AT/PO- BAIDYARAJPUR, JAJPUR TOWN,- Jajpur, Odisha, 755007--21BUKPP6457R1ZS --",9439631628,,JAJPUR,,755007,ORISSA,DISTRICT
MINA KAILAS VINCHANKAR,"MINA KAILAS VINCHANKAR C/O AT DAHIGAON,BULDHANA,MAHARASHTRA",9421472752,,BULDHANA,,443404,MAHARASHTRA,DISTRICT
SHASHIKANT UKHARDA KSHIRSAGAR,"SHASHIKANT UKHARDA KSHIRSAGAR C/O AT MANDAKA,GONDHANAPUR,BULDHANA,MAHARASHTRA",8087304498,,BULDHANA,,444303,MAHARASHTRA,DISTRICT
SUNITA CHOPRA,"M/S SATYAM MEDIWAYS C/O AT NEAR EXTREME GYM,DHILLON COMPLEX,MAJITHIA ENCLAVE,PATIALA,PUNJAB",9216509945,,PATIALA,,147001,PUNJAB,DISTRICT
DEVJI AMARSHI LIMBAD,"DEVJI AMARSHI LIMBAD C/O AT JANIYA PATEL CHAWL,JANIA COMPOUND,NANJI WADI,BIHARI TEKDI ROAD,POISAR,KANDIVALI EAST,MUMBAI,MAHARASHTRA",7400232743,,MUMBAI,,400101,MAHARASHTRA,DISTRICT
CHETAN TRILOKCHAND PAGARIYA,"SHRI GURU GANESH SALES C/O AT BIRLA COLONY,NEAR GANPATI MANDIR,MALAKPUR,BULDHANA,MAHARASHTRA",7756918952,,BULDHANA,,443101,MAHARASHTRA,DISTRICT
CHHITARLAL,"CHHITARLAL C/O AT FATEHGARH,,BAMORI,GUNA,MADHYA PRADESH",9907203371,,GUNA,,473105,MADHYA PRADESH,DISTRICT
B.LALHMANGAIHZUALI,"B.LALHMANGAIHZUALI C/O AT 43,MEDICAL ROAD,NEAR GOVT HIGH SCHOOL,BUALPUI NG W,LAWNGTLAI,MIZORAM",9612035037,,LAWNGTLAI,,796901,MIZORAM,DISTRICT
HUIDROM RANJANA DEVI,"HUIDROM RANJANA DEVI C/O AT IMPHAL,IMPHAL WEST,MANIPUR",6033893742,,IMPHAL,,795001,MANIPUR,DISTRICT
MAYUR BABASAHEB PATHARE,"AAROHI ENTERPRISES MIRAJGAON C/O AT THITESANGAVI,AHMADNAGAR,MANDAVGAN,MAHARASHTRA",9075598685,,AHMEDNAGAR,,414101,MAHARASHTRA,DISTRICT
GURUPRASAD HARLE,"SRICHARANA ENTERPRISES C/O AT SRIMANJUNATH COMPLEX,LIONS CIRCLE,CHARA,HEBRI TALUKH,UDUPI,KARNATAKA",9663852490,,UDUPI,,576112,KARNATAKA,DISTRICT
BIBHUDHENDRA SAHOO,"OMM ENTERPRISES C/O AT KISHOREGANJ,BOINDA,ANGUL,ODISHA",7894323506,,ANGUL,,759127,ORISSA,DISTRICT
PRIYANKA KUMARI DF,"SANVI ENTERPRISES C/O AT BIDUPUR RS JANDAHA ROAD,NEAR SARDA,VIDYAPITH,VAISHALI,BIHAR",7992421084,,VAISHALI,,844502,BIHAR,DISTRICT
CHANDA DEVI,"CHANDA HERBAL STORE C/O AT VILLAGE-CHITRA,DEOGHAR,CHITRA,JHARKHAND",9771611137,,DEOGHAR,,815351,JHARKHAND,DISTRICT
SAHABUDDIN GAZI,"SAHABUDDIN GAZI C/O AT VILL-TARANIPUR,SWARUP NAGAR,NORTH 24 PARAGNAS,WEST BENGAL",7384661474,,PARGANAS,,743273,WEST BENGAL,DISTRICT
OMPRAKASH,"FRIENDS ENTERPRISES C/O AT PURANI CHIRAWA ROAD,,SINGHANA,JHUNJHUNU,RAJASTHAN",9461057666,,JHUNJHUNU,,333516,RAJASTHAN,DISTRICT
MANISH KUMAR SAW,"MANISH KUMAR SAW C/O AT NEAR BENGABAD,GIRIDIH,JHARKHAND",8340592072,,GIRIDIH,,815312,JHARKHAND,DISTRICT
AWDHESH KUMAR RAY DF,"OM SAI TRADERS C/O AT 3 BT ROAD PANIHAT,NEAR CLUB PANIHAT,NORTH 24 PARGANAS,PARGANAS,WEST BENGAL",8942090971,,PARGANAS,,700114,WEST BENGAL,DISTRICT
RATAN LAL TELI,"RATAN LAL TELI C/O AT POLICE CHOKI KE PASS,BAROONDI,BHILWARA,RAJASTHAN",9928406539,,BHILWARA,,311604,RAJASTHAN,DISTRICT
KANCHAN KUMARI,"SARA ENTERPRISES C/O AT AGACAIM,NORTH GOA,GOA",8421201531,,GOA,,403204,GOA,DISTRICT
M/S AUROMART,"AMIT KUMAR TARAI C/O AT PLOT NO-1629, KHATA NO-1149, AT-BELTAL NEAR STATE BANK OF INDIA,, POST-PATTAMUNDAI NEAR PATTAMUNDAI THANA, VIA-PATTAMUNDAI, Kendrapara, Odisha, 754215--21AMGPT1345R1ZO--",8895994312,,KENDRAPARA,,754215,ORISSA,DISTRICT
ARATI SUBBA,"ARATI SUBBA C/O AT SING BONG DERA,GAIRI GAON,MAJUA,SUKHIAPOKHARI,DARJEELING PULBAZAAR,DARJEELING,WEST BENGAL",8967558898,,DARJEELING,,734221,WEST BENGAL,DISTRICT
AKHTAR ALI DF,"FIZA ENTERPRISES C/O AT VILL-UCO BANK,ROBERSTGANJ,SONEBHADRA,UTTAR PRADESH",7055167370,,SONBHADRA,,231216,UTTAR PRADESH,DISTRICT
AMRUTA ENTERPRISES,"AMARESH BALBANTRAY C/O AT PLOT NO. 2373, LUNAHAR, SALEPUR, Cuttack, Odisha, 754202--21AZVPB9294K1ZR --",9438418667,,CUTTACK,,754202,ORISSA,DISTRICT
RAJESH NAGESH NAIK,"RUDRANSH ENTERPRISES C/O AT 484,GAUNE,NEAR RAMPURUSH TEMPLE,PONDA,NORTH GOA,GOA",8668750984,,GOA,,403401,GOA,DISTRICT
LAKHAN PRASAD SINHA,"SHIVANSH AYURVEDA & HERBAL AGENCY C/O AT PANCHAYAT UTRI DHANWAR BLOCK DHANWAR,NAWADIH ROAD,VILL DIWAN TOLA PO DHANWAR,GIRIDIH,JHARKHAND",9905178250,,GIRIDIH,,825412,JHARKHAND,DISTRICT
RAGHAVENDRA BADIGER,"RAGHAVENDRA BADIGER C/O AT VIDYA NAGAR,SUPRABHATA,MUDDEBIHAL,BIJAPUR,KARNATAKA",9901237890,,BIJAPUR,,586212,KARNATAKA,DISTRICT
DATTA GOVARDHAN DHADE,"DATTA GOVARDHAN DHADE C/O AT ROW HOUSE NO.2,SHREE LAXMI NIVAS,NEAR AUDHUT RESIDENCY,AMBEGAON BK,PUNE,MAHARASHTRA",9822897237,,PUNE,,411046,MAHARASHTRA,DISTRICT
C/F VIKAS KUMAR,VIKAS KUMAR C/O Village+Post Umri kalan Tehsil Rampur Maniharan Distt Saharanpur,6283650482,,SAHARANPUR,,247451,UTTAR PRADESH,DISTRICT
SHRINIVAS ANANT ACHARI,"PANJURLI ENTERPRISES C/O OPPOSITE TO KSRTC BUS STAND BANAVASI SIRASI ,UTTARA KANNADA,KARNATAKA",9739672519,,KANNADA,,581318,KARNATAKA,DISTRICT
KHAIRUL ISLAM,"AMAN HERBAL CENTER C/O AT HALIM CHOWNK,KISHANGANJ,BIHAR",9647721705,,KISHANGANJ,,855107,BIHAR,DISTRICT
SONIYA JAIN,"ANNU AND COMPANY C/O AT 174,RAGHAVAPURAM,PARISHAD SAHARA,SAHARANPUR,UTTAR PRADESH",8057796112,,SAHARANPUR,,247001,UTTAR PRADESH,DISTRICT
SUMAN CHAUDHARY,"SUMAN CHAUDHARY C/O AT SANJEEVNI NURSING HOME KE PICHE,AMROHA,UTTAR PRADESH",8449248059,,AMROHA,,244221,UTTAR PRADESH,DISTRICT
ESTHER LALMUANPUII HMAR,"ESTHER LALMUANPUII HMAR C/O AT 1/7B,K SECTION,OPPOSITE TO POLICE STATION,KULIKAWN,FALKAWN,AIZAWL,MIZORAM",8447373123,,AIZAWL,,796005,MIZORAM,DISTRICT
PULINDRA GURUNG,"PULINDRA GURUNG C/O AT DEOKOTA PATH,SALUGARA EAST,WARD NO.42,SILIGURI,SEVOKE ROAD,JALPAIGURI,WEST BENGAL",8016789085,,JALPAIGURI,,734001,WEST BENGAL,DISTRICT
BIJOY DUTTA,"DUTTA ENTERPRISES C/O AT DULIAGAON,GAURISAGAR,KHONAKHUKURA,SIBASAGAR,ASSAM",7002866575,,SIBSAGAR,,785664,ASSAM,DISTRICT
NANDPAL,"BARKHA ENTERPRISES C/O AT BHARAT COLONY,KHERI ROAD,SHOP NO.17,SERAV HARYANA GRAMIN BANK,FARIDABAD,HARYANA",9310403010,,FARIDABAD,,121102,HARYANA,DISTRICT
SHIVARAJ SHETTY,"SHIVARAJ SHETTY C/O AT 837, 11TH CROSS, 35TH MAIN JP NAGAR, 1ST PHASE BANGALORE",9060423305,,BANGALORE,,560078,KARNATAKA,DISTRICT
RAKESH KUMAR NAGAR DF,"RAKESH KUMAR NAGAR C/O AT MASJID KA MOHALLA,BAMBOOLI BUNDI,RAJALAWATA,RAJASTHAN",6377049485,,BUNDI,,323801,RAJASTHAN,DISTRICT
SHOKAT KHA,"SHOKAT KHA C/O AT 176/1 GRAM MAU,RAJGARH,MADHYA PRADESH",7987990484,,RAJGARH,,465697,MADHYA PRADESH,DISTRICT
SURESH KUMAR DISTRICT SHOP,"SURESH KUMAR C/O AT VILL-SANBBARA,KATHGHAR,RAIBARELI,UTTAR PRADESH",6387232872,,RAIBARELI,,229001,UTTAR PRADESH,DISTRICT
LAXMAN GAJANAN DESHMUKH,"DURGA HERBAL AND WELLNESS STORE C/O AT PILIV,MALAAHIRES,SOLAPUR,MAHARASHTRA",9922790259,,SHOLAPUR,,413310,MAHARASHTRA,DISTRICT
SIDDI VINAYAK MARKETING,"SIDDI VINAYAK MARKETING C/O AT AAST NO 801 676 1 676 1 SITE NO 08, BHAVANI COMPLEX, SAVALANGA MAIN ROAD VINAYAK NAGARA, SHIVAMOGGA, Shivamogga (Shimoga), Karnataka, 577204---29AEMFS8821H1ZF--",7892390137,,SHIMOGA,,577204,KARNATAKA,WAREHOUSE
SHREE RAM JANKI ENTERPRISES DF,"RANJEET CHOUDHARY C/O AT RAMNAGAR ,WEST CHAMPARAN,CHAMPARAN,BIHAR--10AXNPC7188B1ZR--",9931415245,,CHAMPARAN,,845106,BIHAR,DISTRICT
PEDDIBOYINA NIRANJAN KUMAR,"PEDDIBOYINA NIRANJAN KUMAR C/O AT PARASU PET CENTER,VEDA COMPUTERS,MACHILIPATNAM,KRISHNA,ANDHRA PRADESH",7013326067,,KRISHNA,,521001,ANDHRA PRADESH,DISTRICT
MOHAN KAMAT DF,"MOHAN KAMAT C/O AT WARD NO.1,GRAM-RAMBHADRAPUR,POST-MADANPUR,DARBHANGA,BIHAR",6291552105,,DARBHANGA,,847101,BIHAR,DISTRICT
DHIRENDRA PATEL,"SREE SAI GENERAL STORE C/O AT MISHROLIYA,DEORIA,MUZAFFARPUR,BIHAR",8732806226,,MUZAFFARPUR,,843120,BIHAR,DISTRICT
JITENDRA PRAJAPATI,"JITENDRA PRAJAPATI C/O AT COLLAGE KE PEECHE TELA ROAD,WARD NO.14,KARERA,SHIVPURI,MADHYA PRADESH",9617864180,,SHIVPURI,,473660,MADHYA PRADESH,DISTRICT
NIRMALA DEVI DF,"AMAR TRADING COMPANY C/O AT GUDHA GORJI,JHUNJHUNUN,RAJASTHAN",9772062031,,JHUNJHUNU,,333022,RAJASTHAN,DISTRICT
NEERAJ KUMAR DF,"BALAJI TRADING C/O AT NEAR HDFC BANK,MADANGANJ ,KISHANGARH,AJMER,RAJASTHAN",7790873143,,KISHANGARH,,305801,RAJASTHAN,DISTRICT
RAMESH MADAGUNDI,"SHREE DODDABASAVESHWARA DISTRIBUTORS C/O AT COMPLEX NO.11,NEW KAYAPALLE MARKET ,BETGERI-GADAG,UTTAR KARNATAKA,KARNATAKA",8951943097,,GADAG,,582102,KARNATAKA,DISTRICT
RAVINDER SHARMA,"ALL IS WELL C/O AT PILLU KHERA NEAR JAMNI BUS STOP,SAFIDON,JIND,HARYANA",9518140220,,JIND,,126113,HARYANA,DISTRICT
KRISHNA TRADING,"PRAMJEET C/O AT N/A,BHOOLNI , Saharanpur, Uttar Pradesh, ----09BUPPP3930G2Z7 --",9719831682,,SAHARANPUR,,247129,UTTAR PRADESH,DISTRICT
TAJ MOHAMMAD DF,"HIND ASSOCIATE C/O AT NAKA CHURAHA,FEZAABAD ROAD,BARABANKI,KUTWALI,BARABANKI,UTTAR PRADESH",8545948276,,BARABANKI,,225001,UTTAR PRADESH,DISTRICT
ISHWAR SINGH DF,"BAIJNATH ENTERPRISES C/O AT HANUMAN MANDIR KE PAS,BHINMAL BYPASS ROAD,JALORE,RAJASTHAN",8005965202,,JALORE,,343001,RAJASTHAN,DISTRICT
MD JAMIL RAYEEN DISTRICT SHOP,"ROYAL HERBAL C/O AT BHABUA KAIMUR,NEAR BK PUBLIC SCHOOL,MOHANIA,KAIMUR,WARD NO.16,KAIMUR,BHABHUA,BIHAR",7464071213,,KAIMUR (BHABUA),,821109,BIHAR,DISTRICT
MERRY MALSAWMKIMI,"MERRY MALSAWMKIMI C/O AT KAWNPUI VENGTHAR,NEAR AWITHANGPA HAL,KOLASIN,MIZORAM",8414081922,,KOLASIB,,796701,MIZORAM,DISTRICT
BULURANI MANDAL,"MANDAL ENTERPRISES C/O AT KHATRA,BANKURA,WEST BENGAL",9474511514,,BANKURA,,722140,WEST BENGAL,DISTRICT
K B AND COMPANY,"DHIRAJ KUMAR C/O AT MACCHA, WARD NO 4, MACCHA, ULAO, Begusarai, Bihar, 851134---10CIKPK8325E1ZJ",7631599262,,BEGUSARAI,,851134,BIHAR,DISTRICT
NAND RAM YADAV,"SHREE SHYAM AGENCY C/O AT DHANI PUNCHLA WALI,TEH NEEM KA THANA,NIMKATHANA TOWN,SIKAR,RAJASTHAN",9829536459,,SIKAR,,332713,RAJASTHAN,DISTRICT
VIJAY DAHODIYA,"VIJAY DAHODIYA C/O AT AHU,DHAR,MADHYA PRADESH",9977062254,,DHAR,,454001,MADHYA PRADESH,DISTRICT
MUKESH KUMAR SAHU,"MAA ENTERPRISES C/O AT CHHARA PATTI CHOWNK,HANUMAN NAGAR ,KHUTAUNA,BIHAR",9643488424,,MADHUBANI,,847227,BIHAR,DISTRICT
ANNAPOORNESHWARI ENTERPRISES,"GANESHA HIRINJA BABU GOWDA C/O AT 1-124 A, HIRINJA, HALENERANKI, PUTTUR TQ, Dakshina Kannada, Karnataka, 574241---29AURPB7404J1ZB--",9900406605,,KANNADA,,574241,KARNATAKA,DISTRICT
R.K GENERAL STORE,"PRAMITA DEVI C/O AT VIDYAPATI NAGAR,DALSINGSARAI,SAMASTIPUR,BIHAR----10CDSPD7006C1Z5",8298047690,,SAMASTIPUR,,848503,BIHAR,DISTRICT
MAA JANKI TRADERS,"LOVKUSH SONI C/O AT 22, RAMLILA MAIDAN KE SAMNE GT ROAD, GOPIGANJ, Sant Ravidas Nagar, Uttar Pradesh, 221303--09CYFPS7232H1Z1--",9621191481,,SANT RAVIDAS NAGAR,,221303,UTTAR PRADESH,DISTRICT
DAWA TAMANG,"DAWA TAMANG C/O AT P.O. SEVOKE ROAD,JUNGLEE MOHAL,SILIGURI,JALPAIGURI,WEST BENGAL",9800788121,,JALPAIGURI,,734001,WEST BENGAL,DISTRICT
SEKH MEHEBUB HOSSAIN,"CROWN ENTERPRISES C/O AT VILL-KATIAHAT,PS-BASURIA,NORTH 24 PARGANAS,WEST BENGAL",9749502428,,PARGANAS,,743427,WEST BENGAL,DISTRICT
VARHLUNKIMA,"VARHLUNKIMA C/O AT 29,ZOHLUN VENG,NEAR SBI,BAIRABI,KOLASIB,NORTH THINGDAWL,MIZORAM",8119844452,,KOLASIB,,796081,MIZORAM,DISTRICT
CHINMAYEE SAHOO,"CHINMAYEE SAHOO C/O AT HANDIDHUA,COLLIERY,TALCHER,ANGUL,ODISHA",9658856051,,ANGUL,,759100,ORISSA,DISTRICT
PROBIN CHETIA,"CHETIA ENTERPRISES C/O AT NO.1,MORAN HABI,BARBARUAKANT,CHARAIDEO,SIBSAGAR,ASSAM",8638001089,,SIBSAGAR,,785692,ASSAM,DISTRICT
SURESH PREMCHAND SHADI DF,"ASM ENTERPRISES C/O AT SHANKAR ROAD,OPP MLA RAVI,RANA HOUSE,AMRAVATI,MAHARASHTRA",9422855377,,AMRAVATI,,444606,MAHARASHTRA,DISTRICT
MONODI SOREN,"SOREN ENTERPRISES C/O AT GANDEY PO.GIRIDIH,JHARKHAND",9931136236,,GIRIDIH,,815312,JHARKHAND,DISTRICT
ANIL KUMAR DF,"ANIL ENTERPRISES C/O AT CHORMA COLD STORE ,CHORMA,EAST CHAMPARAN,CHAMPARAN,BIHAR",9199425539,,CHAMPARAN,,845414,BIHAR,DISTRICT
BALINDAR PRASAD AYAM,"BALINDAR PRASAD AYAM C/O AT HOUSE NO.11,BAJAR PAAR,WARD NO.12,VILL-WADRAFNAGAR,BALRAMPUR,CHHATTISGARH",6264356529,,BALRAMPUR,,497225,CHATTISGARH,DISTRICT
SIRI,"SHIVARAJ SHETTY C/O 837, 11th Cross, 35th Main, JP Nagar 1st Phase, Bangalore, Bengaluru (Bangalore) Urban, Karnataka, 560078--29BEVPS3968F1ZI--",9343113902,,BANGALORE,,560078,KARNATAKA,WAREHOUSE
MATHURA PRASAD,"PRINCE ADITYA ENTERPRISES C/O AT NAWAKA TOLA DUMWALIYA WARD 02 BAGAHA 02 ,WEST CHAMPARAN, BIHAR",9430505143,,CHAMPARAN,,845105,BIHAR,DISTRICT
NITYAM ELECTRONIC,"YOWAN PRADHAN C/O AT 96/A, NARAYAN PRADHAN, DENTAM, DENTAM, West Sikkim, Sikkim, 737113--11BVVPP5440C1ZM--",9733297037,,DENTAM,,737113,SIKKIM,DISTRICT
KAJOR MAL JIJWARIYA,"KAJOR MAL JIJWARIYA C/O AT NEAR AADHARSH SENIOUR SECOUNDARY SCHOOL,KHATUSHYAM JI,JAIPUR,RAJASTHAN",9783161114,,JAIPUR,,332602,RAJASTHAN,DISTRICT
J VASU,"MANVITH ORGANIC SHOP C/O AT DESI ORGANIC SHOP KE BETTAHALLI ROAD,NEAR TOURIST GEST HOUSE,KRISHNA NAGAR,2ND STAFE PANDAVAPURA,MANDYA ,KARNATAKA",7259424135,,MANDYA,,571434,KARNATAKA,DISTRICT
LAKSHMI ENTERPRISES,"HITENDER SINGH C/O AT V.P.O.MASHOBRA,SHIMLA,HIMANCHAL PRADESH--02GFBPS0188P1Z0",9418434230,,SHIMLA,,171007,HIMACHAL PRADESH,DISTRICT
HIMANSHU DEVIDAS SONAWANE,"HIMANSHU DEVIDAS SONAWANE C/O AT KL 5/16,ROOM NO.2,GROUND FLOOR,SEC 35,NEAR KALAMBOLI BUS DEPO,NAVI MUMBAI,MAHARASHTRA",7738327432,,MUMBAI,,410218,MAHARASHTRA,DISTRICT
AKHILENDRA KUMAR,"SANVI PRODUCT CENTER C/O AT KAMUPUR,KARIMUDDINPUR,GHAZIPUR,UTTAR PRADESH",9415542883,,GHAZIPUR,,233229,UTTAR PRADESH,DISTRICT
KANCHAN MALA,"KANCHAN MALA C/O AT BAHERA,NAWADA,SAMHARIGADH,NAWADA,BIHAR",8210597973,,NAWADA,,805110,BIHAR,DISTRICT
PRITI RAJWADE,"PRITI RAJWADE C/O AT INFRONT OF SANJAY PARK,CHORKA KACHHAR,AMBIKAPUR,SURGUJA,CHHATTISGARH",8319428620,,SURGUJA,,497001,CHATTISGARH,DISTRICT
SUBRAT KUMAR SAHOO,"PRATIMA ENTERPRISES C/O AT KANTAPADA,JANGHIRA,KEONJHAR,ODISHA",9777045955,,KEONJHAR,,758079,ORISSA,DISTRICT
RAJKUMAR SISODIYA,"RAJKUMAR SISODIYA C/O AT MAIN ROAD KALIDEVI,GRAM KALIDEVI,JHABUA,MADHYA PRADESH",8959942231,,JHABUA,,457661,MADHYA PRADESH,DISTRICT
GOBIND SINGH,"GOBIND SINGH C/O AT H NO.99,ASHIANA COLONY,JHANDPEER,KHANDWALA,AMRITSAR,PUNJAB",8054476137,,AMRITSAR,,143105,PUNJAB,DISTRICT
ACHINTA SINHA MAHAPATRA,"MAA RANKINI ENTERPRISES C/O AT LAKSHMI SAGAR ,SIMLAPAL,BANKURA,WEST BENGAL",9531759661,,BANKURA,,722160,WEST BENGAL,DISTRICT
RASITHA A K,"KEERTHANA WELLNESS & HEALTHCARE C/O AT LUNAR BUILDING,PERAMBRA,ERAVATTUR,KOZHIKODE,KERALA",9778720744,,KOZHIKODE,,673525,KERALA,DISTRICT
BIRANCHI NARAYAN SATAPATHY,"SHRE HHI GALERY C/O AT ABHAYAMUKI ,NIMAPARA,BANAMALIPUR,PURI,ODISHA",7008635099,,PURI,,752103,ORISSA,DISTRICT
SHASHI KUMAR EKKA,"SHASHI KUMAR EKKA C/O AT CHIRAPARA,MAINPAT,SITAPUR,SURGUJA,CHHATTISGARH",7582845017,,SURGUJA,,497111,CHATTISGARH,DISTRICT
ASHARAF,"ASHARAF C/O AT VALAPPIL,KAITHAVALAPPU,BEYPORE,KOZHIKODE,KERALA",9961940721,,KOZHIKODE,,673015,KERALA,DISTRICT
RAMJAN ALI,"RAMJAN ALI ENTERPRISES C/O AT MURARAI,BIRBHUM,WEST BENGAL",7001331398,,BIRBHUM,,731219,WEST BENGAL,DISTRICT
JHUMA ROY,"SREE SREE GOURANGO HHI ENTERPRISES C/O AT NARAYANPUR,PURULIYA,WEST BENGAL",8116030778,,PURULIA,,723121,WEST BENGAL,DISTRICT
SACHIN VISHVANATH AMBRE,"SACHIN VISHVANATH AMBRE C/O AT PIMPLAVADI,KHED,SHELDI,RATNAGIRI,MAHARASHTRA",7887829005,,RATNAGIRI,,415722,MAHARASHTRA,DISTRICT
JACK,"SHEDU HHI ENTERPRISES C/O AT TNK VILLAGE SENAPTI,NEAR POLICE CHECK POST,SENAPATI,MANIPUR",8448066379,,SENAPATI,,795106,MANIPUR,DISTRICT
LATA HOSMANI,"AMRUTA ENTERPRSIES C/O AT 1ST MAIN,3RD CROSS,SARVAR CANTEEN HARIHARA,DAVANGERE,KARNATAKA",9986566018,,DAVANAGERE,,577601,KARNATAKA,DISTRICT
LANKE RAJESH,"LANKE RAJESH C/O AT Door no,. 61-25/1-6A, SIVA GANGA BHAVANI ROAD RAMALINGESWARA NAGAR , VIJAYAWADA, KRISHNA DISTRICT, ANDHRA PRADESH",9949882588,,KRISHNA,,520013,ANDHRA PRADESH,DISTRICT
SANJAY DASHARATH TAIDE,"SANJAY DASHARATH TAIDE C/O OLD AJISPUR ROAD,NEAR HDFC BANK,JIJAMATA NAGAR,BULDANA,MAHARASHTRA",9765530148,,BULDHANA,,443001,MAHARASHTRA,DISTRICT
DAMODAR ENTERPRISES,"DAMODAR VASANT BAVACHIKAR C/O AT GS-2 GS-7 SHOP, VARAD RESIDENCY, MUGALLI, SAO JOSE DE AREAL, SALCETE, South Goa, Goa, 403709--30ANIPB1627M2ZB--",9765509715,,GOA,,403709,GOA,WAREHOUSE
VARSHA UMESH AGRAWAL,"VARSHA UMESH AGRAWAL C/O AT SHIVALAY SUPER SHOPY, G. M. ARCADE, NEAR NAGAR PARISHADH, MAIN ROAD, PARATWADA,AMRAVATI,MAHARASHTRA",9421726017,,AMRAVATI,,444805,MAHARASHTRA,DISTRICT
GANESH VITTHAL BAGALE,"GANESH VITTHAL BAGALE C/O AT PLT NO.25B,JAGDAMBA NAGREI,BACKSIDE OF ATITHI HOTEL,MAHUR ROAD,PUSAD,YAVATMAL",9850418084,,YAVATMAL,,445204,MAHARASHTRA,DISTRICT
SHUCHI ORGANICS,"HEMAVATHI A M C/O AT Ground Floor and 1st Floor, Ward No 7, Vijayagiri Complex, K R Puram, Hassan, Hassan, Karnataka, 573201--29AELPH5993J1ZQ",8095566557,,HASSAN,,573201,KARNATAKA,DISTRICT
SHIVANI PAGARDAR SAHAKARI PATSABSTHA,SHIVANI PAGARDAR SAHAKARI PATSABSTHA C/O AT,7517228225,,BULDHANA,,443002,MAHARASHTRA,DISTRICT
M/S BIJAY RAJ LAKSHMI ENTERPRISES,"PUNAM DEVI C/O AT C/O RANDHIR KUMAR, MOUZA MUSTAFAPUR, VIJAY VIHAR COLONY KHAGAUL ROAD, DANAPUR, Patna, Bihar, 801503--10CGLPD3754K1ZI--",7739283899,,PATNA,,801503,BIHAR,WAREHOUSE
UDAYA NATH KAR,"MAA ENTERPRISES C/O AT JAGANNATHPUR,BASANTIA,MOREGAON,KEONJHAR,ODISHA",7873158480,,KEONJHAR,,758083,ORISSA,DISTRICT
SUNIL KUMAR DF,"SUNIL KUMAR C/O AT 4/6/29 GURU COLONY,NEAR BY HANUMAN TEMPLE,BHALKI,KARNATAKA",8867106056,,BHALKI,,585328,KARNATAKA,DISTRICT
SUMA C,"THEJU ORGANIC SHOP C/O AT NANDIBHAVAN ROAD,NEAR NEW BUS STOP,CHAMARAJANAGARA,KARNATAKA",8971936650,,CHAMRAJNAGAR,,571313,KARNATAKA,DISTRICT
RAJESHWARI MEDARAKHANDI,"RAJESHWARI MEDARAKHANDI C/O AT WARD NO.2,KERUR,BADAMI BAGALKOT,KARNATAKA",9902678960,,BAGALKOT,,587206,KARNATAKA,DISTRICT
GOPAL SHOW,"GOPAL SHOW C/O AT GANAPATI NAGAR,MEDINIPUR,PASCHIM MEDINIPUR,WEST BENGAL",6296766824,,MEDINIPUR,,721101,WEST BENGAL,DISTRICT
ZONUNSANGI,"ZONUNSANGI C/O AT C1 3,C SECTION,NEAR VC HOUSE,CHHINGA VENG,AIZAWL MUNICIPAL COUNCIL,AIZAWL,MIZORAM",9862158298,,AIZAWL,,796001,MIZORAM,DISTRICT
VIVEK KUMAR,"HHI HERBAL HEALTH CARE CENTER C/O AT C-1699,RAJAJIPURAM,LUCKNOW,UTTAR PRADESH",9918000127,,LUCKNOW,,226017,UTTAR PRADESH,DISTRICT
AJHAR KHAN,"HHI STAR SHOPPING CENTER C/O AT BRAHMABARDA,JAJPUR,ODISHA",9178308211,,JAJPUR,,755005,ORISSA,DISTRICT
ANITA GUPTA,"ANITA GUPTA C/O AT N.S.B. ROAD,RANIGANJ,BARDHAMAN,WEST BENGAL",9332376911,,BARDHAMAN,,713347,WEST BENGAL,DISTRICT
NARAYAN KUMAR,"NARAYAN KUMAR C/O AT PIPRA TAND,CHAINPUR,SONDIHA,RAMGARH,JHARKHAND",6203358458,,RAMGARH,,829134,JHARKHAND,DISTRICT
RAMESH PICK UP,RAMESH C/O AT KUSHTAGI ROAD KALIDAS NAGAR KOPPAL UTTARA KARNATAKA KARNATAKA,9482050654,,KOPPAL,,583231,KARNATAKA,DISTRICT
SAHELI GAYEN,"SAHELI INFOTECH C/O AT VILL-GHATESWAR,MANDIRBAZAR,SOUTH 24 PARGANAS,WEST BENGAL",8116335049,,PARGANAS,,743336,WEST BENGAL,DISTRICT
SHREE SHYAM HAPPY HEALTH INDIA,"SUDHIR KUMAR CHOUDHARY C/O AT HOLDING NO 377A/141, SOUTH DHADKA,--19ARQPC8983M1ZQ-- RUPKATHA MORE, ASANSOL, Paschim Bardhaman, West Bengal, 713302",8918339290,,ASANSOL,,713302,WEST BENGAL,DISTRICT
GURMAIL SINGH,"DASHMESH MART C/O AT V I P ROAD,ZIRAKPUR,MOHALI,PUNJAB",7986750515,,MOHALI,,140601,PUNJAB,DISTRICT
SUBHASHREE PRIYADARSHANI,"SHREE MAA HHI SHOPEE C/O AT BALIPADA,DADHA,KHORDHA,ODISHA",7064535161,,KHORDHA,,754005,ORISSA,DISTRICT
TEX SPARES INTERNATIONAL WH,"SONIA JAIN C/O AT HOUSE NO.49-B/75,OPP PAPER MILL GATE,WORKSHOP ROAD,THAPAR COLONY,YAMUNA NAGAR,HARYANA--06ADWPJ6324R1ZO FSSAI NO -- 10822021000031",9306983455,,YAMUNANAGAR,,135001,HARYANA,WAREHOUSE
ANIRBAN DUTTA,"DHUN ENTERPRISE C/O AT VILL.-BORBIL NO2,DIGBOI,TINSUKIA,ASSAM",7002455352,,TINSUKIA,,786171,ASSAM,DISTRICT
MRIGANKARAJ GOGOI,"HAPPY HEALTH ENTERPRISE C/O AT VILL:-MAJGAON. P.O.:-TAMULICHIGA,P.S.:- GOURISAGAR. Dist.:- SIVASAGAR,ASSAM",8474887371,,SIVASAGAR,,785682,ASSAM,DISTRICT
HELON G ZHIMO,"HELON G ZHIMO C/O AT HO NO.1,ARTCS,SHOKHUVI VILLAGE,DIMAPUR SADAR,NAGALAND",9862991107,,DIMAPUR,,797112,NAGALAND,DISTRICT
M/S MAHAVEER ENTERPRISES,"SUNEETA DEVI C/O RAM NAGAR BYPASS ROAD, SADHA, CHAPRA, SARAN, BIHAR--10EIOPD2961M1Z5--",8210898953,,SARAN,,841301,BIHAR,DISTRICT
PRIYANKA KISHOR,"KISHOR HERBAL C/O AT At- SRI KRISHNA NAGAR,GAYATRI MANDIR, P.o- MOTIHARI Dist- EAST CHAMPARAN State- BIHAR",9891428137,,CHAMPARAN,,845401,BIHAR,DISTRICT
NIRMALI BORA,"UB. ENTERPRISE C/O AT DULIAJAN NO2 P.O.=DULIAJAN,DULIAJAN. Dist.-DIBRUGARH,ASSAM",8638229650,,DIBRUGARH,,786602,ASSAM,DISTRICT
VIRAT MEGA MARAT,"NAGINA MAURYA C/O AT BANDIPATTI CHAURAHA ,JAGDISH PUR ROAD, HANDIA PRAYAGRAJ,UTTAR PRADESH--09DLVPM5347D1ZK--",8004520131,,ALLAHABAD,,221503,UTTAR PRADESH,DISTRICT
SUJIT KUMAR PARIDA,"SNEHA ENTERPRISES C/O AT QR -2 RA-135 ROAD-7 UNIT-9 , BHOI NAGAR ,BHUBANESWAR, KHORDHA ,ODISHA",9338177761,,KHORDHA,,751022,ORISSA,DISTRICT
NIRANJAN BARAL,"MAHAVEER TRADERS C/O AT RAMCHANDRAPUR,KRONJHAR,ODISHA",9937004959,,KEONJHAR,,758043,ORISSA,DISTRICT
DIPALI DANDAPAT,"DIPALI DANDAPAT C/O AT BEUNCHA,SALBONI,PASCHIM MEDINIPUR,WEST BENGAL",7001333793,,MEDINIPUR,,721129,WEST BENGAL,DISTRICT
M/S SAGAR AND BROTHERS ENTERPRISES,"DHANANJAY KUMAR C/O BEHIND F C I GODAM C/O SUBAL DUTTABANDHA VGARH COLONY ROAD SINDHI CAMP, SATNA GST===23BBHPK2499A2ZV",8358995216,,SATNA,,485001,MADHYA PRADESH,WAREHOUSE
ZAKIR HOSSAIN,"ZAKIR HOSSAIN C/O TEHERUL ISLAM, DONGRA GACHH, DASPAA, VTC PURBBA JIBHAKATA,PO- DASPARA, SUB DISTT.- CHOPRA, DISTT. UTTAR DINAJPUR",9851071991,,DINAJPUR,,733207,WEST BENGAL,DISTRICT
SANTOSH LAKSHMAN SHINDE,"SHASHIKALA HAPPY HEALTH INDIA SHOPEE C/O AT ARVIND DHAM ,RAJARAM ENGLISH SCHOOL AND JUNIOR COLLAGE,PLOT NO.4770,MANISHA NAGAR PANDHARPUR,SOLAPUR,MAHARASHTRA",9021167239,,SOLAPUR,,413304,MAHARASHTRA,DISTRICT
RAHUL KUMAR RAJBHAR,"EARTH ASSOCIATE C/O AT MEERA COMPLEX BAIPASS,.LAKHANPUR CHORAHA,JAUNPUR,UTTAR PRADESH",8115646915,,JAUNPUR,,222001,UTTAR PRADESH,DISTRICT
SURENDRA KUMAR SHARMA DF,"SURENDRA KUMAR SHARMA C/O AT SHOP NO.1&2,GROUND FLOOR,H.NO.2,GALI NO.19,B BBLOCK,KAUSHIK ENCLEVE,BURARI,DELHI",9999172788,,NORTH DELHI,,110084,NEW DELHI,DISTRICT
ABHISHEK KUMAR GUPTA,"ABHISHEK ENTERPRISES C/O AT HOTEL LANDMARK KE BAGAL ME ,RADHE TOWER,RATAHARA,REWA,MADHYA PRADESH",8085199685,,REWA,,486001,MADHYA PRADESH,DISTRICT
RAVEENDRA GOPAL HEGDE,"R.G MARKETING C/O AT MORIGUDI ROAD,NEAR KAMAT HOTEL,HUBI ROAD,SIRSI,UTTAR KANNADA,KARNATAKA",9632342161,,KANNADA,,581401,KARNATAKA,DISTRICT
GREEN HEALTH HOME,"SURESH KUMAR CK C/O AT 10/503-B29,B30, KALLACHI, NADAPURAM, Kozhikode, Kerala, 673506--32AAXFG5092R1ZF",9539540520,,KOZHIKODE,,673506,KERALA,DISTRICT
MAHESH KUMAR SHIVHARE,"MAHESH KUMAR SHIVHARE C/O AT HOUSE NO.46,KANHAIYAPURAM,NEAR RAJGHAT COLONY ,LAHARGIRD ROAD,SIPRI BAZAR,JHANSI,MAURANIPUR,UTTAR PRADESH",8299807789,,JHANSI,,284003,UTTAR PRADESH,DISTRICT
RAJBAHADUR SINGH,"RAJ ENTERPRISES C/O AT MAIN ROAD BHABUA,KAIMUR BHABUA,BIHAR",7607770020,,KAIMUR (BHABUA),,821101,BIHAR,DISTRICT
HHI ENTERPRISES,"RAKESH KUMAR C/O AT GREEN CHOWNK,RIWALI KUND,ALWAR,RAJASTHAN--08AUBPR6584M1ZU",9560221704,,ALWAR,,301701,RAJASTHAN,DISTRICT
SANTOSH RAGHUWANSHI,"SANTOSH RAGHUWANSHI C/O AT RASULPUR,ASHOK NAGAR,MADHYA PRADESH",9522696955,,ASHOKNAGAR,,473331,MADHYA PRADESH,DISTRICT
MOPARTHI NAGA DIVYA,"MOHAN BALAJI TREDERS C/O AT PANCHAYATHI OFFICE ROAD opp: DURGA PARCIL OFFICE CHERUKUPALLI ,GUNTUR,ANDHRA PRADESH",9959118707,,GUNTUR,,522325,ANDHRA PRADESH,DISTRICT
RUPENDRA KUMAR NAMDEV,"RUPENDRA KUMAR NAMDEV C/O AT WARD NO.12,GAYATRI COLONY,BEHIND OLD GAS AGENCY,CHHATARPUR,MADHYA PRADESH",9977160924,,CHHATARPUR,,471001,MADHYA PRADESH,DISTRICT
MANISH RAJPOOT,"MANISH RAJPOOT C/O AT 54,KANSI,VILLAGE-KANSI,SIRONJ,VIDISHA,MADHYA PRADESH",9171722145,,VIDISHA,,464228,MADHYA PRADESH,DISTRICT
SURINDER KARYANA STORE,"JATINDER KUMAR ARORA C/O AT PATTI SARKAR, CHARIK, Moga, Punjab, 142001--03AMXPA4343F1Z9",9646175008,,MOGA,,142001,PUNJAB,DISTRICT
SAMRUDHHI ENTERPRISES,"SAMRUDHHI ENTERPRISES C/O AT PLOT NO-670/4281,KHATA NO-1166/854,MOUZA-GUILUNDI,SBI COLONY,BRAHMA NAGAR,2ND LANE,BERHAMPUR,DIST-GANJAM,ODISHA--21AEOFS5960D1ZZ",7008143391,,GANJAM,,760001,ORISSA,DISTRICT
MANOJ KUMAR SHARMA,"MANOJ KUMAR SHARMA C/O AT SHREE RAM NAGAR COLONY,SALPURA,BARAN,RAJASTHAN",9929542423,,BARAN,,325219,RAJASTHAN,DISTRICT
ASHWINI NAMDEV YAMETKAR,"ASHWINI NAMDEV YAMETKAR C/O AT KANERI,KARVEER,KOLHAPUR,MAHARASHTRA",9022187630,,KOLHAPUR,,416234,MAHARASHTRA,DISTRICT
M/S HHI MARKETING PRIVATE LIMTED (WB ),"RAMU , C/O JYOTI NAGAR,SEVOKE ROAD ,S.M.C WARD NO 41, P. S.BHAKTINAGAR,SILIGURI GST NO ===19AADCH7949H1Z3 FSSAI NO - 12117441000336",8942915457,,SILIGURI,,734001,WEST BENGAL,WAREHOUSE
REKHA SINGH DF,"REKHA SINGH C/O AT VILL-PREET NAGAR,CHOPAN,SONBHADRA,UTTAR PRADESH",8505990990,,SONBHADRA,,231205,UTTAR PRADESH,DISTRICT
RUNI DAS,"BASUDEV BHANDAR C/O AT KAITHA,CHHATIA,CUTTACK,ODISHA",7205791707,,CUTTACK,,754023,ORISSA,DISTRICT
PARIDHI ENTERPRISES,"SUNIL KUMAR C/O AT 07, TAPESHWAR PRAJAPATI HOUSE, TOLA-BABUGANJ, VILLRAFIGANJ, BLOCKRAFIGANJ, Aurangabad, Bihar, 824125--10DWTPK0524H1ZQ",8541849865,,AURANGABAD,,824125,BIHAR,DISTRICT
KUVARBAI,"KUVARBAI C/O AT 72,THANA KUDILA,DOHCHAKR,TIKAMGARH,FUTURE,MADHYA PRADESH",9893045120,,TIKAMGARH,,472115,MADHYA PRADESH,DISTRICT
VIKRAM SINGH BHATI,"VIKRAM SINGH BHATI C/O AT WARD NO.18,MILAP BHAWAN KE PICHE ,SARSARSHEHER,CHURU,RAJASTHAN",7023635475,,CHURU,,331403,RAJASTHAN,DISTRICT
KALMEGH AND SONS,"PRITI UMESH KALMEGH C/O AT 1, NEAR HOTEL RAMGIRI MALTEKDI ROAD, AMRAVATI, Amravati, Maharashtra, --27AVGPK3794C1ZH--",9370619541,,AMRAVATI,,444601,MAHARASHTRA,WAREHOUSE
TRIGUNEE DEHARIYA,"TRIGUNEE DEHARIYA TRADERS C/O AT REBRAKALA HARRAI,CHHINDWARA,MADHYA PRADESH",7067486958,,CHHINDWARA,,480224,MADHYA PRADESH,DISTRICT
MANDARAPU LAKSHMI,"SHREE LAKSHMI SRINIVASA ORGANIC PRODUCTS C/O AT 9/58,UP-STAIRS OF BIG-C,MAIN ROAD,GUDIVADA,KRISHNA,ANDHRA PRADESH",9848492261,,KRISHNA,,521301,ANDHRA PRADESH,DISTRICT
M SIVA KUMAR DF,"M SIVA KUMAR C/O AT HOUSE NO.81-108-M-1,ABBASS NAGAR OPPOSITE,NEAR RIKSHIKA GARMENTS,VENKATESWARA NAGAR,KURNOOL,ANDHRA PRADESH",9912571648,,KURNOOL,,518003,ANDHRA PRADESH,DISTRICT
JADAV BORUAH,"JR BORUAH ENTERPRISE C/O AT BAJALTALI,TINSUKIA,ASSAM",9394162173,,TINSUKIA,,786126,ASSAM,DISTRICT
PRITI BHASKAR,"PRITI BHASKAR C/O AT PACHAMBA HARICHAK,JAMUA GIRIDIH,JHARKHAND",8825298507,,GIRIDIH,,815316,JHARKHAND,DISTRICT
UMA SHANKAR LODHI,"UMA SHANKAR LODHI C/O AT WARD NO.3,BHAUTI GRAM,KAROKET,NADIYA NAYA KHEDA,SHIVPURI,MADHYA PRADESH",8889765307,,SHIVPURI,,473670,MADHYA PRADESH,DISTRICT
PRABHA SALES & SERVICES,"Prabhavathy Shetty C/O AT 1-N-6T-452/1 1, Ashok Nagar, V S Compound, Sankesh 4th Cross, Derebail, Mangalore, Dakshina Kannada, Karnataka, 575006--29CKHPS8138N1Z5",7760838864,,KANNADA,,575006,KARNATAKA,DISTRICT
M/S PUSHPA DEVI,"PUSHPA DEVI C/O AT GRAM NIMI,POST MAHUARI,THANA-SONHAN,KAIMUR BHABUA",9472830078,,KAIMUR (BHABUA),,821101,BIHAR,DISTRICT
LAISHRAM BOBBY MEETEI,"LAISHRAM BOBBY MEETEI C/O CHANGANGEI UCHEKON,CHANGANEI,IMPHAL WEST,MANIPUR",9366312774,,IMPHAL,,795140,MANIPUR,DISTRICT
INDRANI PAINE,"INDRANI PAINE C/O AT PARSOLA,SIMLAPAL,BANKURA,WEST BENGAL",9932185899,,BANKURA,,722160,WEST BENGAL,DISTRICT
DHARANIDHAR SAMANTASINGHAR,"JAY JAGANNATH ENTERPRISES C/O AT PLOT NO.54,MADHUSAN NAGAR,JATANI,KHURDA,ODISHA",9778642837,,KHURDA,,752050,ORISSA,DISTRICT
MOR SINGH,"DISHA ENTERPRSIES C/O AT MOTIPURA,GODIA,BARAN,RAJASTHAN",9770364294,,BARAN,,325220,RAJASTHAN,DISTRICT
SHARVAN KUMAR DF,"MANISHA HERBAL STORE C/O AT BHUTAHA CHOWNK,NH 57,NARHIYA,MADHUBANI,BIHAR",6203049127,,MADHUBANI,,847108,BIHAR,DISTRICT
PRADEEP CHAWLA,"PRADEEP CHAWLA C/O AT 170/15,NEAR SHANTI MANDIR,NEAR POST OFFICE,BAHADURGARH,JHAJJAR,HARYANA",9315380419,,JHAJJAR,,124507,HARYANA,DISTRICT
STAR ENTERPRISES DF,"MAJID ALI C/O AT ASGAR ALI ,COLONY MAJRA DEHRADUN, UTTARAKHAND--05BVKPA3750M1ZJ--",9756349005,,DEHRADUN,,248171,UTTARAKHAND,DISTRICT
RAKESH KUMAR SHARMA,"RAKESH KUMAR SHARMA S/O SITARAM SHARMA WARD NO - 22,PANCH BATTI,THITHEDA BALA JI MANDIRKE PASS,UDAIPURWATI,JHUNJHUNUN,RAJASTHAN",9602616808,,JHUNJHUNU,,333307,RAJASTHAN,DISTRICT
PRATAP KUMAR SABUT,"PRATAP KUMAR SABUT C/O AT CHANDANPUR,PURI,ODISHA",9853141752,,PURI,,752012,ORISSA,DISTRICT
RAKESH KUMAR SHARMA DF,"RAKESH KUMAR SHARMA C/O AT WARD NO.22,PARICH BATTI,THITHEDA BALA JI MANDIR KE PASS,UDAIPURWATI,JHUNJHUNUN,RAJASTHAN",9602616808,,JHUNJHUNU,,333307,RAJASTHAN,DISTRICT
DATTATRAYA KACHARU GAIKWAD,"DATTATRAYA KACHARU GAIKWAD C/O AT RELWAY STATION AKOLNER,AHMADNAGAR,MAHARASHTRA",9420083561,,AHMEDNAGAR,,414005,MAHARASHTRA,DISTRICT
SULOCHANA ABASAHEB KOLTE DF,"SULOCHANA ABASAHEB KOLTE C/O AT PLOT NO.10,GURUPRABHA NIWAS,SNEH NAGAR,NEAR VITTHAL MANDIR,NAGAPUR,AHMEDNAGAR,MAHARASHTRA",9421333232,,AHMEDNAGAR,,414111,MAHARASHTRA,DISTRICT
BASANTA MUDULI,"SAI OMM ENTERPRISES C/O AT KALINGA BAZAR,CHOWDWAR,CUTTACK,ODISHA",9090190430,,CUTTACK,,754025,ORISSA,DISTRICT
BHARAT RAKHMAJI KALE,"BHARAT RAKHMAJI KALE C/O AT DHANORA,BEED,MAHARASHTRA",8080565599,,BEED,,414202,MAHARASHTRA,DISTRICT
RAMESH BORDE JIARAM,"NAMDEV ENTERPRISES C/O AT OPPOSIT BAJAJ SHOROOM, AMBAJOGAI ROAD, KAIJ TQ. KAIJ DIST. BEED,MAHARASHTRA",8830195700,,BEED,,431123,MAHARASHTRA,DISTRICT
MAISNAM NGANTHOI CHANU,"MAISNAM NGANTHOI CHANU C/O AT WANGKHEI KONSAM LEIKAI,POROMPAT SUB DIVISION,IMPHAL EAST,MANIPUR",7005097872,,IMPHAL,,795005,MANIPUR,DISTRICT
SAIKAT CHAKRABORTY,"BURIKALI ENTERPRISES C/O AT BAKUL,LABPUR,BIRBHUM,WEST BENGAL",9735318555,,BIRBHUM,,731303,WEST BENGAL,DISTRICT
ISHWAR DISTRICT SHOP,"ISHWAR C/O AT 375,GANDHI NAGAR,WARD NO.16,BARMER,RAJASTHAN",9799290077,,BARMER,,344001,RAJASTHAN,DISTRICT
DEEPAK KUSHWAHA,"DEEPAK KUSHWAHA C/O AT GRAM-KHATORA,SHIVPURI,MADHYA PRADESH",9340797065,,SHIVPURI,,473770,MADHYA PRADESH,DISTRICT
BIPLAB BATABYAL,"BIPLAB BATABYAL C/O AT KANGALGANJ PATNA,WEST MEDINPORE,WEST BENGAL",9679839525,,MEDINIPUR,,721102,WEST BENGAL,DISTRICT
KANHAIYA LAL JANGUM,"KANHAIYA LAL JANGUM C/O AT SEEMALYA,KOTA,RAJASTHAN",9602980012,,KOTA,,325203,RAJASTHAN,DISTRICT
SANJEEV KUMAR PUC,"SANJEEV KUMAR C/O AT JAT COLONY,RALWAY ROAD,KANDHALA RURAL,SHAMLI,UTTAR PRADESH",9528693751,,MUZAFFARNAGAR,,247775,UTTAR PRADESH,DISTRICT
JAYANTI LAL KHANNA,"JAYANTI LAL KHANNA C/O AT BANDERKACHCHH,RANGAONDEB,TEH-THIKARI,RAJPUR,BARWANI,MADHYA PRADESH",9109733600,,BARWANI,,421447,MADHYA PRADESH,DISTRICT
SUNANDA RAJKUMAR KATE,"SUNANDA RAJKUMAR KATE C/O AT USARAN TQ MEHKAR,BULDHANA,MAHARASHTRA",8087538997,,BULDHANA,,443301,MAHARASHTRA,DISTRICT
M/S RANGOLI,"BHAVISHYA GAUTAM C/O AT , RANGOLI, PAKKA TANK, NAHAN, Sirmaur, Himachal Pradesh, 173001--02AGRPG5653N1Z0",9418083322,,SIRMAUR,,173001,HIMACHAL PRADESH,DISTRICT
BASANTI BEHERA,"BASANTI TRADERS C/O AT KONARK,PURI,ODISHA",9348384287,,PURI,,752111,ORISSA,DISTRICT
JABAPRITAM BEHERA,"MAA TARINI ENTERPRSIES C/O AT PATHARAPADA,PANIKOILI,JAJPUR,ODISHA",7008524408,,JAJPUR,,755043,ORISSA,DISTRICT
PREM CHAND SATOGIYA,"PREM CHAND SATOGIYA C/O AT 55 RADHAKRISHAN MARG,JHABUA,MADHYA PRADESH",9522033044,,JHABUA,,457661,MADHYA PRADESH,DISTRICT
MAHENDRA NAGAR,"MAHENDRA NAGAR C/O AT SOJPUR,JHALAWAR,RAJASTHAN",9001266687,,JHALAWAR,,326038,RAJASTHAN,DISTRICT
PAPIA SARKAR,"PAPIA SARKAR C/O AT VILL-MEDIA,GOPALNAGAR,NORTH 24 PARGANAS ,WEST BENGAL",9734564767,,PARGANAS,,743262,WEST BENGAL,DISTRICT
SONU KUMAR SHARMA,"MAYANAK ENTERPRISES C/O AT LALGANJ, NEHER PUL KE PASS,SASARAM,BIHAR",9798445904,,SASARAM,,821115,BIHAR,DISTRICT
KD ENTERPRISES,"KD ENTERPRISES C/O AT 01, PURI NIWAS, VISHAL NAGAR, LATUR, LATUR, Latur, Maharashtra, 413512--27AAYFK2379J1ZH--",9822556729,,LATUR,,413512,MAHARASHTRA,WAREHOUSE
ASHISH KUMAR DF,"SHIVA ENTERPRISES C/O AT HONHE,CHHITRAPUR,RAMGARH,JHARKHAND",8210779133,,RAMGARH,,829150,JHARKHAND,DISTRICT
MANISH JAIN,"MANISH JAIN C/O AT SHIV COLONY,HOSPITAL ROAD,WARD NO.11,BARAN,RAJASTHAN",8104216053,,BARAN,,325205,RAJASTHAN,DISTRICT
PTHAN SHAKILA USMAN,"PTHAN SHAKILA USMAN W/O USMAN , NEHRU NAGAR, SHEVGAON, AHMADNAGAR",9022718291,,AHMEDNAGAR,,414502,MAHARASHTRA,DISTRICT
SHINDE BAPU BARA,"SHINDE BAPU BARA C/O AKKABAI NAGAR, BHANDEVADI, KARJAT, AHMADNAGAR",8855962335,,AHMEDNAGAR,,414402,MAHARASHTRA,DISTRICT
PRAHALLAD PADHI,"PRAHALLAD PADHI S/O BENUDHAR PADHI, MARKONA, SIMILIA, BALESWAR",9438731835,,BALESWAR,,756126,ORISSA,DISTRICT
GANGA PRASAD PRASAIN,"GANGA PRASAD PRASAIN C/O CHARHAZAR, CHARHAZAR, SANAPATI MOTBUNG",8132883545,,MOTBUNG,,795107,MANIPUR,DISTRICT
R SHILPA,"R SHILPA W/O KUMAR, 5TH CROSS BASAVE GOWDRU VATHARA HOSAHALLI, VINAYAKA TENT ROAD MANDYA,KARNATAKA",9986635183,,MANDYA,,571401,KARNATAKA,DISTRICT
JAY SINGH LODHI,"JAY SINGH LODHI S/O SUGHAR SINGH LODHI, GRAM JHANDA SHIVPURI T.C. KARERA",9302126381,,KARERA,,473660,MADHYA PRADESH,DISTRICT
AZIZ KHAN AYYUB KHAN PATHAN,"AZIZ KHAN AYYUB KHAN PATHAN C/O AT NEAR BHAWANI TEMPLE,DHNAJ KD,WASHIM,MAHARASHTRA",8530272912,,WASHIM,,444110,MAHARASHTRA,DISTRICT
MNR INTERNATIONAL,"MEENAKSHI JAIN C/O AT OPP SAHIB MOTORS, G.T. ROAD, NEAR PANIPAT FILLING STATION, Panipat, Haryana, 132103--06AELPJ2011H1ZY",9306983455,,PANIPAT,,132103,HARYANA,DISTRICT
SUDIP PAUL,"PAUL ENTERPRISES C/O AT BIROHI,HARINGHATA,NADIA,WEST BENGAL",7908549636,,NADIA,,741245,WEST BENGAL,DISTRICT
SAM ENTERPRISES,"BACHAN PREET SINGH NIRANKARI C/O AT H NO.52,224/1,NIRANKARI COLONY,FATEHGARH CHURIA ROAD,AMRITSAR,PUNJAB",9115796111,,AMRITSAR,,143001,PUNJAB,DISTRICT
OMPAL,"OMPAL C/O AT JAGANPUR,SHAMLI,KANDELA,MUZAFFARNAGAR,UTTAR PRADESH",9756674764,,MUZAFFARNAGAR,,247774,UTTAR PRADESH,DISTRICT
PRINCE KUMAR,"PRINCE KUMAR C/O AT SAIDA NAGAR,WARD NO.40,EKMI,DARBHANGA,BIHAR",8804021702,,DARBHANGA,,846001,BIHAR,DISTRICT
MANJIT KUMAR,"FUTURE SHOPPING POINT C/O AT NEAR COLLEGE ROAD RAILWAY FATAK ADAMPUR MANDI,HISAR,HARYANA",9467161139,,HISAR,,125052,HARYANA,DISTRICT
NURUL AIN AYUBI,"NURUL AIN AYUBI C/O AT 47/1,EAST GHOSHOARA ROAD,JAGATDAL,NORTH 24 PARAGNAS,WEST BENGAL",8240179750,,PARGANAS,,743125,WEST BENGAL,DISTRICT
ROHINI KISHOR GADEKAR,"ANSH INTERPRISES HERBAL CENTER C/O AT NER,YAVATMAL,MAHARASHTRA",8888612978,,YAVATMAL,,445102,MAHARASHTRA,DISTRICT
DATTATRAY KESHAVNATH,"DATTATRAY KESHAVNATH C/O AT WARD NO.1,MALIPETH MEHKAR,BULDHANA,MAHARASHTRA",9767920676,,BULDHANA,,443301,MAHARASHTRA,DISTRICT
LALITA KUMAWAT,"LALITA KUMAWAT C/O AT RAILWAY STATION ROAD,CHOMU,JAIPUR,RAJASTHAN",8441938755,,JAIPUR,,303802,RAJASTHAN,DISTRICT
KUNAL MANDAL,"KUNAL MANDAL C/O AT OLD MEDICAL ROAD, DNK, MALKANGIRI DIST- MALKANGIRI STATE- ODISHA",8118011146,,MALKANGIRI,,764045,ORISSA,DISTRICT
SUNIL KUMAR DISTRICT SHOP,"M/S SHIV SHAKTI ENTERPRISES C/O AT BBMB COLONY,SUNDERNAGAR,MANDI,HIMACHAL PRADESH",7807904041,,MANDI,,175019,HIMACHAL PRADESH,DISTRICT
SITA KUMARI,"MAA SARSWATI PRAHLAD ENTERPRISES C/O AT PO-TENGRARI,ANCHAL-MINAPUR Dist- MUZAFFARPUR State- BIHAR",8757046508,,MUZAFFARPUR,,843128,BIHAR,DISTRICT
TAPAN ROY,"TAPAN ROY C/O AT THANGAL BAZAR,IMPHAL WEST ,IMPHAL,MANIPUR",8402024224,,IMPHAL,,795001,MANIPUR,DISTRICT
RAVI PRAKASH DF,RAVI PRAKASH C/O AT CHANDAN SHAHEED MARG GHANSHYAMPUR ROAD BADALAPUR JAUNPUR UTTAR PRADESH,8400576918,,JAUNPUR,,222125,UTTAR PRADESH,DISTRICT
AMAR KUMAR GUPTA,"AMAR KUMAR GUPTA C/O AT BUNDU,RANCHI,JHARKHAND",9334481007,,RANCHI,,835204,JHARKHAND,DISTRICT
ARPAN RAI DF,"ARPAN RAI C/O AT NAMCHAYALAKHA 1 KYSHONE,PEDONG,PEDONG,DARJEELING,WEST BENGAL",6296052803,,DARJEELING,,734311,WEST BENGAL,DISTRICT
BASUDEV BISWAKARMA,"KAMAKHYA ENTERPRISES C/O AT BALIPARA,SONITPUR,ASSAM",6901548628,,SONITPUR,,784101,ASSAM,DISTRICT
RACHNA RAMDAS SALELKAR,"RACHNA RAMDAS SALELKAR C/O AT NEAR SHANTA DURGA SCHOOL,FLAT NO.SS4,SECOND FLOOR,BICHOLIM,NORTH GOA,GOA",9270230002,,GOA,,403504,GOA,DISTRICT
KAILASH PANDA,"KAILASH PANDA C/O AT -MAA TARINI ENTERPRISES BALIPADA ,PATTAMUNDAI, PATTAMUNDAI,KENDRAPARA,PATTAMUNDAI , ODISHA",9658637647,,PATTAMUNDAI,,754215,ORISSA,DISTRICT
ABDUL HAKIM,"ABDUL HAKIM C/O AT VEERPUR KHAIRHANIYA,NARAPTPUR,SRAWASTI,UTTAR PRADESH",9619544878,,SHRAVASTI,,271845,UTTAR PRADESH,DISTRICT
RANJEET KUMAR RAY,"AKASH ENTERPRISES C/O AT MOHANPUR ROD,SAMASTIPUR,BIHAR",9430255606,,SAMASTIPUR,,848101,BIHAR,DISTRICT
MICROTECH INSTRUMENTS,"UMESH RAMESHPANT KALMEGH C/O MANSOD PLAZA,NEAR BUS STAND,AMRAVATI,MAHARASHTRA--27AHLPK2386F1Z5",9881388208,,AMRAVATI,,444601,MAHARASHTRA,DISTRICT
TRIKAL TRADERS,"SUNEEL KUMAR GUPTA C/O AT DOSTPUR ROAD, SHAHZADPUR, SHAHZADPUR, Ambedkar Nagar, Uttar Pradesh,--09AKMPG1300M1Z8--",6307017072,,AMBEDKAR NAGAR,,224122,UTTAR PRADESH,DISTRICT
SHRI MAHALAXMI TRADERS,"LAKHAN BANSILAL PAWAR C/O AT H. NO.6308/31, 235, PLOT NO 2, MAHALAXMI NAGAR, UCHAGAON, KOLHPAUR, Kolhapur, Maharashtra, 416005--27CPZPP1357K1ZZ",7972479462,,KOLHAPUR,,416005,MAHARASHTRA,DISTRICT
M RAGHU ARADHYA,"M RAGHU ARADHYA C/O AT HOUSING BOARD COLONY,HD KOTE TOWN,MYSORE,KARNATAKA",9964984491,,MYSORE,,571114,KARNATAKA,DISTRICT
PRAVESH KUMAR KHARBASH,"PRAVESH KUMAR KHARBASH C/O AT KESARIPURA,JHUNJHUNUN,RAJASTHAN",9610661980,,JHUNJHUNU,,333021,RAJASTHAN,DISTRICT
RABINDRA CHOUDHARY,"RABINDRA CHOUDHARY C/O AT OLD SBI LINE,MAIN ORAD,DOMBOSORE,GUNPUR,RAYAGADA,ODISHA",9861952123,,RAYAGADA,,765033,ORISSA,DISTRICT
KHEM RAI KUMAR,"GAURIKA ENTERPRISES C/O AT ARRARIA ,JOGBANI ,BIHAR",9576310498,,ARARIA,,854328,BIHAR,DISTRICT
BARNALI HALDER,"BARNALI HALDER C/O AT DEBAGRAM,KULAICHANDIPARA,NADIA,WEST BENGAL",9547753589,,NADIA,,741137,WEST BENGAL,DISTRICT
SAMBHU NATH DAS,"SAMBHU NATH DAS C/O AT EAST MEDINIPUR,MEDINIPUR,WEST BENGAL",9732660433,,MEDINIPUR,,721432,WEST BENGAL,DISTRICT
RANJIT KUMAR PRADHAN,"DEVJIT HEALTHCARE C/O AT RAGHUNATH NAGAR,ASKA,GANJAM,ODISHA",9178294339,,GANJAM,,761110,ORISSA,DISTRICT
MALAYA DAIMARI,"SUN ENTERPRISES C/O AT ATTAREEKHAT,DEEMAKUCHI,UDALGIRI,ASSAM",9365548483,,UDALGIRI,,784527,ASSAM,DISTRICT
KEWETEU KHAPE,"KEWETEU KHAPE C/O AT LERIE CHAZOU,HOUSE NO.340,NEAR NST GARAGE,KOHIMA,NAGALAND",9862050476,,KOHIMA,,797001,NAGALAND,DISTRICT
DURGA SHARMA,"DURGA SHARMA C/O AT 24/165,UTTARCHENGA,BARA CHENGA,DARJEELING,WEST BENGAL",8927207964,,DARJEELING,,734423,WEST BENGAL,DISTRICT
MRS SANGEETA VAISHNAV,UMA ENTERPRISES C/O AT SURAJPUR Dist :- SURAJPUR CHHATTISGARH,7415651249,,SURAJPUR,,497229,CHATTISGARH,DISTRICT
NANDITA BARA,"NANDITA BARA C/O AT MISSION LINE,BAINGURL TEA GARDER,JALAPAIGURI,WEST BENGAL",9064846142,,JALPAIGURI,,735203,WEST BENGAL,DISTRICT
RAJKUMAR RATHORE,"RAJKUMAR RATHORE C/O AT STATIO ROAD ,KHUSHWAHA BHAWAN,NEAR HANDPUMP,SEHORE,MADHYA PRADESH",9229413492,,SEHORE,,466115,MADHYA PRADESH,DISTRICT
AMIR KHATTAB,"AMIR KHATTAB C/O AT VILL-MADHYAMPUR,BASIRHAT,NORTH 24 PARGANAS,WEST BENGAL",7908066212,,PARGANAS,,743429,WEST BENGAL,DISTRICT
KAIFI GANO HEALTH CARE CENTER,"SYED AJAM KAIPHI C/O AT HAMZAPUR ,SHERGHATI ,GAYA, BIHAR--10AXTPK9174H1Z3--",9534465640,,GAYA,,824211,BIHAR,DISTRICT
POORNIMA KASHYAP,"POORNIMA KASHYAP C/O AT RANAWAS STATION,PALI,RAJASTHAN",7891408907,,PALI,,306023,RAJASTHAN,DISTRICT
DIKSHITA SAIKA,"DIKSHITA ENTERPRISES C/O AT UJJAL NAGAR,TITABAR,JORHAT,ASSAM",9613185990,,JORHAT,,785630,ASSAM,DISTRICT
SABITA KUMARI DF,"SABITA KUMARI C/O AT UGNA COLONY,Opp.L.I.C.OFFICE, SAPTA, MADHUBANI,BIHAR",9430038338,,MADHUBANI,,847211,BIHAR,DISTRICT
ASHA SONI,"ASHA HAPPY HEALTH INDIA C/O AT WARD NO.42,COLLAGE ROAD,NEAR GOVT DEGREE COLLAGE,WAIDHAN,SINGRAULI,MADHYA PRADESH",9893384210,,SINGRAULI,,486886,MADHYA PRADESH,DISTRICT
SACHIN BAJIRAO SURYAWANSHI,"SACHIN BAJIRAO SURYAWANSHI C/O AT SAPSHRUNGI SWEET MART ,OPP BHAGWAT TALKIES,LONI ROAD,LONAR,BULDHANA,MAHARASHTRA",9767132313,,BULDHANA,,443302,MAHARASHTRA,DISTRICT
LAXMI GRIH ENTERPRISES,ADITYA JHA C/O AT UJAN GANGAULI DIST- DARBHANGA STATE- BIHAR--10CDGPJ1372M1ZP,9315753941,,DARBHANGA,,847407,BIHAR,DISTRICT
THAKOR VIKRAMJI,"JAY SHREE MAVADIYO TREADING COMPANY C/O AT MUNIRAJ . COMPLEX , PAJAB NATIONAL BANK NI SAME.VADANAGAR, MAHESANA,GUJARAT",9724747461,,MAHESANA,,384355,GUJARAT,DISTRICT
RITWICK PAROI,"RITWICK PAROI C/O AT JASHAR,PURBA MEDINIPUR,WEST BENGAL",8170866328,,MEDINIPUR,,721130,WEST BENGAL,DISTRICT
MINI SENAPATI,"JMD STORES C/O AT NOYABOZAR,MAJULI,GOLAGHAT,ASSAM",8011594676,,GOLAGHAT,,785104,ASSAM,DISTRICT
RACHANA H DASENA DF,"RACHANA H DASENA C/O AT NEAR GOVT SCHOOL,KERODI,MADASURLINGADAHALLI,SAGAR,SHIMOGA,KARNATAKA",8088198706,,SHIMOGA,,577434,KARNATAKA,DISTRICT
M/S PREET ASSOCIATE,"RITESH KUMAR C/O AT- RANIGANJ ROADAT - RAMPUR FORBESGANJ DIST-ARARIA , BIHAR--10CYAPK2084E1Z1",9122986182,,ARARIA,,854318,BIHAR,DISTRICT
ABHAY KUMAR,"ABHAY KUMAR C/O AT-PRIYANTA HERBAL CENTRE At - CHAKMASHRUF,Po + Ps - MEHSI Dist- EAST CHAMPARAN State- BIHAR",6206602401,,CHAMPARAN,,845426,BIHAR,DISTRICT
PURAN CHAND,"PURAN CHAND C/O AT PANA KHODA,GIJHI,ROHTAK,HARYANA",9996440572,,ROHTAK,,124501,HARYANA,DISTRICT
ASHA DF,"ASHA C/O HOME NO 473,BADDI,JHAJJAR,HARYANA",9812008481,,JHAJJAR,,124105,HARYANA,DISTRICT
VIJAY NARAYAN SINGH,"RONAK ENTERPRISES C/O AT CHAND,KAIMUR BHABUA,BIHAR",7352698428,,KAIMUR (BHABUA),,821106,BIHAR,DISTRICT
ANNAJI GOWDA B B,"ANNAJI GOWDA B B C/O AT 446,ANLEKOPPA,AGADI NARAYANA ASHRAM,SAGAR,SHIMOGA,KARNATAKA",9449615412,,SHIMOGA,,577401,KARNATAKA,DISTRICT
MARIGOWDA,"SRI BHAIRAVESHWARA ORGANIC SUPER MART C/O MRK Building, Opposite to KPTCL, Hosaholalu, Main Road, KR Pete, Mandya District, Karnataka",9880407262,,MANDYA,,571426,KARNATAKA,DISTRICT
M/S DIVYA ENTERPRISES,"KRISHNA KUMAR C/O AT YOGENDRA PRASAD, 00, MEHIYA KUMHAR TOLI, EAST OF SHANTI VAT BRIKSH, SIWAN, Siwan, Bihar, 841226--10ANJPK5949C1Z8",9199027657,,SIWAN,,841226,BIHAR,WAREHOUSE
SHEETAL GUPTA,"SHIV SEWA C/O AT ABOVE PUNJAB NATIONAL BANK, AURI MORE ANPARA, SONBHADRA, UTTAR PRADESH",9335518151,,SONBHADRA,,231225,UTTAR PRADESH,DISTRICT
DHANANJAY RADHESHYAM,"DHANANJAY RADHESHYAM C/O AT JUNI VASTI , VILLAGE WARUD , POST SEWAGRAM ,TAH/DISTRICT WARDHA MAHARASHTRA",9022121347,,WARDHA,,442102,MAHARASHTRA,DISTRICT
CHITRAGUPT ARTS,"MADHUP KUMAR C/O AT CHHAT GHAT MIRGANJ,GOPALGANJ,BIHAR--10BUSPK6565P1ZV",9631680999,,GOPALGANJ,,841438,BIHAR,DISTRICT
SANDIP PUNDLIKRAO WASNIK,"SANDIP PUNDLIKRAO WASNIK WARUD C/O A & A Enterprises, Dhore Complex, Near Devate Tiles, Ring Road, WARUD, Dist AMRAVATI MAHARASHTRA",9370022557,,AMRAVATI,,444906,MAHARASHTRA,DISTRICT
SUKUMAR CHANDRA NATH,"MAA MANASA AYURVED BHAWAN C/O AT MATHAR PUR 3 NO LANE SARASWATI PALLI, NABADWIP, NABADWIP, NADIA, WEST BENGAL",7063071947,,NADIA,,741302,WEST BENGAL,DISTRICT
SAJAHAN MIA,"TAJ ENTERPRISES C/O AT MAJHERPARA,HARINGHATA,BARASAT,NADIA ,WEST BENGAL",8768969016,,NADIA,,741257,WEST BENGAL,DISTRICT
MANISH MADHUKAR TELANG,"MANISH MADHUKAR TELANG C/O AT SADGURU CLASSIC ,NEW AHIRE GAON,WARJE MALWADI,PUNE,MAHARASHTRA",8796110435,,PUNE,,411023,MAHARASHTRA,DISTRICT
SKY TECH COMPUTERS,"SHASHIDHAR SHVAMURTHY HIREMATH C/O AT Shop No 22, cellar, Akalwadi Mansion, P B Road, Vidyanagar / Hubballi, Dharwad, Karnataka, 580021--29AAQPH4451A1ZT",9480274700,,DHARWAD,,580021,KARNATAKA,DISTRICT
MASUM HASAN BARBHUIYA,"K K ENTERPRISES C/O AT TARAPUR,SHIVBARI ROAD,OP GP OFFICE,NEAR MANAB KALYAN CLUB,TARAPUR,CACHAR,ASSAM",8011434098,,CACHAR,,788003,ASSAM,DISTRICT
K P MUHAMMED SHEFEEQ,"K P MUHAMMED SHEFEEQ C/O AT HIBA,POST THALASSERY,NEAR SB COLONY,ROAD CHETTAMCOON,THELASSERY,KERALA",7012707142,,KANNUR,,670101,KERALA,DISTRICT
MAHESH CHANDRA JAIN,"MAHESH CHANDRA JAIN C/O AT 347/3,JAIN NAGAR KHERA,POT ROOM WALI GALI,FIROZABAD,UTTAR PRADESH",9897148254,,FIROZABAD,,283203,UTTAR PRADESH,DISTRICT
KUMAR UMAJI BHANDARE DF,"HHI GURUKRUPA HERBAL STORE C/O AT BEHIND TIRTH PETROLEUM, HARUGERI ROAD, GASTI PLOT, ATHNI,BELGAUM,KARNATAKA",8422035560,,BELGAUM,,591304,KARNATAKA,DISTRICT
RAJEEV KAMAL,"ARNIKA AYURVEDA & HERBAL POINT C/O AT WEST MOHAN BIGHA .... KAILASH MARKET OPP -BUS STAND- DEHRI,ROHTAS,BIHAR",9934959484,,ROHTAS,,821307,BIHAR,DISTRICT
RAJIB BISWAS,"RAJIB BISWAS C/O AT VILL+PO CHAMPAPUKUR PS MATIA DIST 24 PARGANAS NORTH,WEST BENGAL",9933709530,,PARGANAS,,743291,WEST BENGAL,DISTRICT
RAJPAL SINGH DF,"RAJPAL SINGH C/O NEAR ORBIT CINEMA ,MOGA,PUNJAB",9780641158,,MOGA,,152028,PUNJAB,DISTRICT
LITAN SIKDAR,"LITAN SIKDAR C/O AT DADPUR,HOOGHLY,WEST BENGAL",9831582989,,HOOGHLY,,712515,WEST BENGAL,DISTRICT
LAXMIDHAR SAHOO DF,"LAXMIDHAR SAHOO C/O AT G-2 ANJANI RESIDENCY, ARIHANT PARK, KADOBRE, SURAT,GUJARAT",7383780930,,SURAT,,394327,GUJARAT,DISTRICT
SHRIDEVI DF,"SHRI GURU RAGHAVENDRA HHI SHOP C/O AT CAMP SINDHANUR,RAICHUR,KAARNATAKA",8660224500,,RAICHUR,,584128,KARNATAKA,DISTRICT
ULLAS KUMAR BHUNIA,"ULLAS KUMAR BHUNIA C/O AT VILL+PO-KHIRPAI.WORD NO- 3.(NEAR KADAMKUNDU BUS STOP) PS- CHANDRAKONA. DIST- PASCHIM MEDINIPUR,WEST BENGAL",6295653165,,MEDINIPUR,,721232,WEST BENGAL,DISTRICT
RAVI RANJAN TIWARI DF,BABA ENTERPRISES C/O AT RAIL GUMTI NO. 55 Po + Ps - RAMPUR DUDHPURA Dist- SAMASTIPUR State- BIHAR,7903604403,,SAMASTIPUR,,848101,BIHAR,DISTRICT
M/S SIKKIM ELECTRONICS,"KHURSHID ANSARI C/O AT 100, FOURTH FLOOR,-- RAJESH KUMAR GUPTA, JORETHANG ROAD, NAMCHI, South, Sikkim, 737126--11ANHPA9535G1ZC",9851777773,,NAMCHI,,737126,SIKKIM,DISTRICT
RAKESH KUMAR YOGI DF,"RAKESH KUMAR YOGI C/O AT 67,JOGI MOHALLA,BEELWA,SANGANER,BILWA,JAIPUR,RAJASTHAN",8302096075,,JAIPUR,,302022,RAJASTHAN,DISTRICT
SWAPAN KUMAR SARKAR,"SWAPAN KUMAR SARKAR C/O AT BERHAMPUR,MURSHIDABAD,WEST BENGAL",9474913007,,MURSHIDABAD,,742101,WEST BENGAL,DISTRICT
SAMANTARA LINGARAJ SWAIN,"SAMANTARA ENTERPRISES C/O AT BAHADA,NAYAGARH,ODISHA",7978262131,,NAYAGARH,,752063,ORISSA,DISTRICT
GOBINDA BHUYAN,"GOBINDA BHUYAN C/O AT BARAMA,BAKSA,ASSAM",9678362851,,BAKSA,,781346,ASSAM,DISTRICT
ANJANA PRADHAN,"ANJANA PRADHAN C/O AT JORETHANG NAGAR PANCHAYAT,MAJHOGAON WEST ,BELOW SI FRANCIS SCHOOL,NAYABAZAR,SORENG WEST SIKKIM,SIKKIM---11BGFPP1902A2Z9",8101729612,,JORETHANG,,737121,SIKKIM,DISTRICT
SHUBHAM PRALHAD PARTE DF,"SHUBHAM PRALHAD PARTE C/O AT- SEVEN STAR HEALTH CARE AND GENERAL STORE 76/2, SHIVTEJ,MACHI PETH,SATARA, MAHARASTRA",9881540666,,SATARA,,415002,MAHARASHTRA,DISTRICT
MAHENDRA KUMAR VERMA,"MAHENDRA KUMAR VERMA C/O AT -,WARD NO - 9,TEHSIL UDAIPURWATI,PACHLANGI,JHUNJHUNUN,SARAISURPURA,RAJASTHAN",8387880200,,JHUNJHUNU,,333801,RAJASTHAN,DISTRICT
SUNITHA PASSANA,"AVELIA WHOLESALE DEALERS C/O AT REBELLE TOWER,NEAR ANNAPAYYA HALL,KUNDAPUR,UDUPI,KARNATAKA",9148164525,,UDUPI,,576235,KARNATAKA,DISTRICT
VENKATA NAGA BABU CHENNURI DF,"VENKATA NAGA BABU CHENNURI C/O AT DOOR NO.42-2-61/1,DABAKOTLU CENTER,MAIN ROAD,BESIDE INDIAN OIL BUNK,AJITH SINGH NAGAR,VIJAYAWADA,KRISHNA,ANDHRA PRADESH",9052010397,,KRISHNA,,520015,ANDHRA PRADESH,DISTRICT
MANJUNATH BHANU PATGAR,"SHREE DURGAMBA ENTERPRISES C/O AT HOSA ONI,266,MUNDGOD,UTTAR KANNADA,KARNATAKA",8197846389,,KANNADA,,581349,KARNATAKA,DISTRICT
ANUPAMA ASHOK KIRIOSKAR,"BHAGWATI ENTERPRISES C/O AT SADASHIVGADH,CHITTAKULA,KARWAR,UTTAR KANNADA,KARNATAKA",7760743427,,KANNADA,,581352,KARNATAKA,DISTRICT
MITHUN KUMAR,"MITHUN KUMAR C/O AT NEW VITESWAR NAATH BOOK CENTER,SRI RAMPUR,NAYA BAZAR, NEAR N.T COMPLEX BIHTA ,PATNA, BIHAR",7041389775,,PATNA,,801103,BIHAR,DISTRICT
VIJAY KUMAR RAI,"VIJAY KUMAR RAI C/O AT BHUALPUR,MARHAURAH,SARAN,BIHAR",9999248358,,SARAN,,841415,BIHAR,DISTRICT
ANIMESH POREL,"ANIMESH POREL C/O AT BHATA,HOOGHLY,WEST BENGAL",7797949696,,HOOGHLY,,712410,WEST BENGAL,DISTRICT
KULSWAMINI ENTERPRISES,"RACHNA SALELKAR C/O AT S5, SECOND FLOOR, UMESH PLAZA, BORDEM, BICHOLIM, North Goa, Goa, 403504--30BTTPS1254B1ZV",9270230002,,GOA,,403504,GOA,WAREHOUSE
ARUN KUMAR DAS,"ARUN KUMAR DAS C/O AT UTTAR MECHOGRAM,MEDINIPUR,WEST BENGAL",9064673970,,MEDINIPUR,,721139,WEST BENGAL,DISTRICT
RAJAN KUMAR DF,"RAJAN KUMAR C/O AT JATKAULI,DHARAMPUR,VAISHALI City: VAISHALI District: VAISHALI,BIHAR",8766958853,,VAISHALI,,844111,BIHAR,DISTRICT
RIYAZ AHMAD,"RIYAZ AHMAD C/O AT CHANDANA PUR,GALAZY PARADISE,INDRA NAGAR,LUCKNOW,UTTAR PRADESH",9801909296,,LUCKNOW,,226016,UTTAR PRADESH,DISTRICT
RUKSHANA BEGUM,"A.R ENTERPRISES C/O AT 19 B,SYED AMIR ALI AVENUE,KOLKATA,WEST BENGAL",7003552814,,CALCUTTA,,700017,WEST BENGAL,DISTRICT
KONDA KIRAN,"KONDA KIRAN C/O AT DNO:5-178/B/36/1, LAL BAHADUR NAGAR 5TH WARD OPP: MUNICIPAL HIGH SCHOOL WEVARS COLANY MANGALAGIRI,GUNTUR,ANDHRA PRADESH",9393577788,,GUNTUR,,522503,ANDHRA PRADESH,DISTRICT
MEERA MEENA,"MEERA MEENA C/O AT SHOP NO.2,BUILDING NO.20,SHINDE NAGAR,BAVDHAN, PUNE,PUNE,MAHARASHTRA",9561262165,,PUNE,,411021,MAHARASHTRA,DISTRICT
PINTU KUMAR VERMA,"PINTU KUMAR VERMA C/O AT RAMGARH,MOHANIYA,BIHAR",7295827029,,MOHANIA,,821110,BIHAR,DISTRICT
AMBIKA CHETRY,"AMBIKA CHETRY C/O AT N H 37,MISSA RAMRAIPATTY,BEHIND PWD IB,MISSA,NAGAON,ASSAM",8638883557,,NAGAON,,782138,ASSAM,DISTRICT
HARVINDER SINGH DF,"HARVINDER SINGH C/O AT NEAR NEHRU PARK,JAITU,FARIDKOT,PUNJAB",9115353353,,JAITU,,151202,PUNJAB,DISTRICT
JHUMURI PRADHAN,"JHUMURI PRADHAN C/O AT GIRIDIPATANA,NEAR KOTHA GHAR,KHALISAHI,NAYAGARH,ODISHA",7377048184,,NAYAGARH,,752077,ORISSA,DISTRICT
GULAB SINGH,"GULAB SINGH C/O AT ACHHEJ,JHAJJAR,HARYANA",9582628957,,JHAJJAR,,124106,HARYANA,DISTRICT
DALBIR ENTERPRISES,"Dalbir Kaur C/O AT Ground Floor, Showroom No. 949, Mattour, Sector 70, Mohali, SAS Nagar, Punjab, 160071--03EPHPK5675H1ZO--",9815573065,,SAS NAGAR,,160071,PUNJAB,WAREHOUSE
SURENDRA KUMAR JENA,"SURENDRA KUMAR JENA C/O AT DUGAL,SATYABADI,PURI,ODISHA",9439683240,,PURI,,752014,ORISSA,DISTRICT
MD SARFARAJ ANSARI,"MD SARFARAJ ANSARI C/O AT - JAHANABAD P.O - KUDRA, THANA KUDRA,CHAKIYA,JAHANABAD,KAIMUR(BHABUA) BIHAR",7903755965,,KAIMUR (BHABUA),,821108,BIHAR,DISTRICT
ARIF ALI MALLIK,"MALLIK ENTERPRISES C/O CHAMPADANGA SUPER MARKET(COLLAGE ROAD), HOOGHLY, WEST BENGAL",9153318485,,HOOGHLY,,712401,WEST BENGAL,DISTRICT
JAI MATA DI ENTERPRISES DF,"NARENDER KUMAR C/O AT WARD NO.9,BAHADURGADH ROAD,KHARKODA,SONIPAT,HARYANA",8295536498,,SONIPAT,,131402,HARYANA,DISTRICT
SUMAN LATA DF,"SUMAN LATA C/O AT WARD NO.6,KALANAUR,ROHTAK,HARYANA",8168923027,,ROHTAK,,124113,HARYANA,DISTRICT
RAJENDER KUMAR JAT,"RAJENDER KUMAR JAT C/O AT GANERI,SIKAR,RAJASTHAN",9783153591,,SIKAR,,332029,RAJASTHAN,DISTRICT
YAGNA SAI ENTERPRISES,"GANGISETTI VENKATESWARAMMA C/O AT LAKSHMI COMLEX,OLD VIJAYA CONVERT BAZAR,BANDAR ROAD,CHALLAPALII,KRISHNA,ANDHRA PRADESH--37AMZPG8807C1ZN",8099970293,,KRISHNA,,521126,ANDHRA PRADESH,WAREHOUSE
DIVYA DF,"DIVYA C/O AT BEHIND PUSHPAGIRI ELECTRONICS, OPP CHAMARAJESHWARA TEMPLE CHAMARAJANAGARA,KARNATAKA",6363053154,,CHAMRAJNAGAR,,571313,KARNATAKA,DISTRICT
SAPNA DEVI DF,"H.N ENTERPRISES C/O AT MODEL TOWN KIRPALPUR, PO & TEHSIL NALAGARH, DISTT.SOLAN ,HIMACHAL PRADESH",9459373986,,SOLAN,,174101,HIMACHAL PRADESH,DISTRICT
MAMATA NAYAK,"MAMATA NAYAK C/O AT WARD NO- 5, ROXY CINEMA HALL TO AMBIKA MANDIR ROAD Po. - BARIPADA Dist- MAYURBHANJ State- ODISHA",9348676698,,MAYURBHANJ,,757001,ORISSA,DISTRICT
RAJNEESH BHARTI,"RAJNEESH BHARTI C/O AT SHANTI NAGAR,SHIVPURI COLONY CHAS,BOKARO,JHARKHAND",6200996682,,BOKARO,,827013,JHARKHAND,DISTRICT
ATISH KUMAR SAHU,"AK ENTERPRISES C/O AT V.S.S NAGAR WN-18, DIST-BARGARH STATE-ODISHA",7749017272,,BARGARH,,768028,ORISSA,DISTRICT
DEEPA AMAR KHAUNEKAR,"DEEPA AMAR KHAUNEKAR C/O AT H NO.1383/1,RANGALI,VELIM,SOUTH GOA,GOA",8805501039,,GOA,,403723,GOA,DISTRICT
MANIK NARAYAN KASHID,"MANIK NARAYAN KASHID C/O AT KHARDA ROAD,KAMKHED,AHMADNAGAR,MAHARASHTRA",9552827005,,AHMEDNAGAR,,413201,MAHARASHTRA,DISTRICT
MOTILAL KHUNTIA,SRIYA MART C/O AT FRIENDS COLANY (2nd line) At/po PARALAKHEMUNDI DIST GAJAPATI ODISHA--21BDOPK8025P2Z3--,9437661403,,GAJAPATI,,761200,ORISSA,DISTRICT
TAPAN KUMAR SARDAR,"TAPAN KUAMR SARDAR C/O AT KHADI PROTISHTAN PARA,DAKSHINA AKHARATALA,NAZAT,NORTH 24 PARGANAS,WEST BENGAL",9382176710,,PARGANAS,,743442,WEST BENGAL,DISTRICT
DHANANJOY DAS,"DHANANJOY DAS C/O AT PURANDARPUR,BORKHOLA,CACHAR,ASSAM",6001125969,,CACHAR,,788110,ASSAM,DISTRICT
VIKASH KUMAR BHUJEL,"VIKASH KUMAR BHUJEL C/O AT NETAJIPALLY,HAMILTONGANJ,ALIPURDUAR,WEST BENGAL",9932420167,,ALIPURDUAR,,735214,WEST BENGAL,DISTRICT
GAGAN CHANDRA KOLEY,"GAGAN CHANDRA KOLEY C/O AT VILL-BERABERI, P. O- GANGADHAR PUR. P. S -SINGUR DIST- HOOGHLY,WEST BENGAL",8622811418,,HOOGHLY,,712306,WEST BENGAL,WAREHOUSE
ASHIS KUMAR DAS,"ASHIS KUMAR DAS C/O AT 7 K C C MITRA STREET BELGHARIA KOLKATA,WEST BENGAL",8910491878,,CALCUTTA,,700056,WEST BENGAL,WAREHOUSE
VIJAY RAMCHANDRA CHIKHALE,"VIJAY RAMCHANDRA CHIKHALE C/O AT SINGHVI COMPLEX,KADA ROAD,MIRAJGAON,AHMEDNAGAR,MAHARASHTRA",9975469179,,AHMEDNAGAR,,414401,MAHARASHTRA,DISTRICT
PROGATI DAS,"SUPAR SHOPEE C/O AT SCHOOL PARA,NEAR SHIV MANDIR,ANDAL,PASCHIM BARDHMAN,WEST BENGAL",9332212679,,BARDHAMAN,,713321,WEST BENGAL,DISTRICT
PALLAB CHAKRABORTY,"BINAPANI ENTERPRISES C/O AT VILL - KUMRAGORI , P.O - GANGADHARPUR BAZAR , P.S - CHANDITALA , DIST - HOOGHLY,WEST BENGAL",9007337532,,HOOGHLY,,712306,WEST BENGAL,DISTRICT
KISHOR RAJARAM RAUT,"KISHOR RAJARAM RAUT C/O AT NEAR HDFC BANK T K V CHOUK PATUR DISTT AKOLA ,MAHARASHTRA",9921504578,,AKOLA,,444501,MAHARASHTRA,DISTRICT
MOHAN NEWAR,"M/S NEWAR HHI DISTRICT SHOP C/O AT KHOWANG CHARIALI,NEAR LENDON HOTEL,NH.37,DIBRUGARH,ASSAM",8724077535,,DIBRUGARH,,785675,ASSAM,DISTRICT
GAGAN CHANDRA KOLEY DF,"GAGAN CHANDRA KOLEY C/O AT VILL-BERABERI, P. O- GANGADHAR PUR. P. S -SINGUR DIST- HOOGHLY,WEST BENGAL",8622811418,,HOOGHLY,,712306,WEST BENGAL,DISTRICT
NABANITA DAS,"NABANITA DAS C/O AT PADUBAR PO-MIRGODA PS-RAMNAGAR ,EAST MEDINIPUR,WEST BENGAL",7980169500,,MEDINIPUR,,721446,WEST BENGAL,DISTRICT
TIRTHA ENTERPRISE,"MITHU BHOWMICK C/O AT 1/9,TAKI ROAD NORTH,BIDHAN PARK,NEAR LAKSHMI VILLA,BARASAT,NORTH 24 PARGANAS,WEST BENGAL--19BCKPB8622E1ZO",6289335933,,PARGANAS,,700124,WEST BENGAL,WAREHOUSE
SATISH KUMAR DISTRICT SHOP,"SATISH KUMAR C/O PLOT NO-E 2, SECTOR 5,NEAR CHINMAYA VIDYALA, BOKARO STEEL CITY.",9304143212,,BOKARO,,827006,JHARKHAND,DISTRICT
MA ANANDAMOYEE TRADERS,"SUBRATA KUMAR DASS C/O AT 0, PO JAGATNAGAR, MAMUDPUR SOUTH, Hooghly, West Bengal, 712409--19AFEPD5748M1Z1",7278438698,,HOOGHLY,,712409,WEST BENGAL,DISTRICT
PANDAB KARNA,"MAA MAHESHWARI ENTERPRSIES C/O AT V S S NAGAR,NAKA CHOWNK,INFRONT OF MODERN PUBLIC SCHOOL,BARGARH,ODISHA",9668615191,,BARGARH,,768038,ORISSA,DISTRICT
MITHUN SINGHA,"SINGHA ENTERPRISE C/O AT BETHUADAHARI SAHAPARA,NAKASHIPARA, NADIA,WEST BENGAL",9932353228,,NADIA,,741126,WEST BENGAL,DISTRICT
AURABINDA MONDAL,"AMRITA BHANDAR (A SMART DEEPO) C/O CHAYAPALLI,WARD NO 2, NEAR NALHATI COLD STORE, COLLEGE MORE,BIRBHUM,WEST BENGAL",9264735735,,BIRBHUM,,731220,WEST BENGAL,DISTRICT
M/S SWAMI SAMARTH ENTERPRISES,"SATYANARAYAN RAMPAT SEHRAWAT C/O MILKAR NO. 0991 , PUNE SASWAD ROAD , OPP. HOTEL SAHYADRI , URULI DEVACHI , DIST - PUNE , M.H. GST NO ====27AQZPS1602F1ZJ",9850084924,,MUMBAI,,412308,MAHARASHTRA,DISTRICT
SADHGURU SIDDHAROODHAR AGENCY,"DIVYA J BALLARI C/O AT Kumar Studio, SHOP NO 23, Akalwad Mansion, PB Road VIDYANAGAR, Akalwadi, Hubballi, Dharwad, Karnataka, 580021--29FOQPB7185Q1ZR",9141301638,,DHARWAD,,580021,KARNATAKA,DISTRICT
MEKALA KOTESWARA RAO,"MEKALA KOTESWARA RAO C/O AT D.No 1-21, HANUMAN JUNCTION , NUZVIDU ROAD, NEAR HANUMAN TEMPLE, PEDAPADU MANDAL, ELURU ,KRISHNA,ANDHRA PRADESH",9948686395,,KRISHNA,,521105,ANDHRA PRADESH,DISTRICT
PADMABATI SENDHA,"PADMABATI SENDHA C/O AT KOCHHIAKOILI,KHAIRA,BALASORE,ODISHA",7894784008,,BALASORE,,756048,ORISSA,DISTRICT
MUNAGA VENKATA LAKSHMI,"MUNAGA VENKATA LAKSHMI C/O AT D NO.17-115,NAGESHWARA RAO HOSPITAL,NEAR BUS STAND,OUT GATE TIRUVU,KRISHNA,ANDHRA PRADESH",6304871958,,KRISHNA,,521235,ANDHRA PRADESH,DISTRICT
